{"type":"FeatureCollection","features":[{"type":"Feature","properties":{"cityId":"bengaluru","kind":"BBMP ward extent"},"geometry":{"type":"MultiPolygon","coordinates":[[[[77.6148,13.12856],[77.61442,13.12717],[77.61478,13.12848],[77.6148,13.12856]]],[[[77.58519,13.13277],[77.58504,13.13292],[77.58499,13.13296],[77.58485,13.1331],[77.58466,13.13353],[77.58463,13.13359],[77.58454,13.13378],[77.58453,13.13382],[77.58433,13.13396],[77.58424,13.13422],[77.58412,13.13454],[77.58401,13.13512],[77.58383,13.1352],[77.58379,13.13522],[77.58379,13.13524],[77.5837,13.13556],[77.58369,13.13562],[77.58362,13.13614],[77.5835,13.13663],[77.58347,13.1367],[77.58329,13.13714],[77.58315,13.13757],[77.58299,13.13803],[77.58297,13.13812],[77.58296,13.13818],[77.58278,13.13877],[77.58274,13.13891],[77.58248,13.14003],[77.58236,13.14019],[77.5823,13.14026],[77.58145,13.14113],[77.58136,13.1412],[77.58058,13.14194],[77.58024,13.14228],[77.5801,13.14241],[77.58009,13.14242],[77.58005,13.14246],[77.57991,13.14262],[77.57926,13.14257],[77.5792,13.14257],[77.57866,13.14252],[77.57824,13.14245],[77.57779,13.1423],[77.57733,13.14212],[77.57727,13.1421],[77.57673,13.14198],[77.57608,13.14184],[77.57561,13.14174],[77.57529,13.14167],[77.57515,13.14165],[77.57507,13.14163],[77.57461,13.14155],[77.57447,13.14154],[77.57434,13.14152],[77.57431,13.14152],[77.57432,13.14146],[77.57433,13.14142],[77.57436,13.14132],[77.57436,13.14129],[77.57403,13.14118],[77.574,13.14117],[77.57389,13.14114],[77.574,13.14103],[77.57398,13.1407],[77.57398,13.14024],[77.57399,13.13968],[77.57399,13.13952],[77.57399,13.13938],[77.57399,13.13937],[77.57398,13.13908],[77.57397,13.13899],[77.57395,13.13865],[77.57395,13.1386],[77.57393,13.13847],[77.57392,13.13835],[77.57389,13.13795],[77.57387,13.13778],[77.57387,13.13772],[77.57384,13.13764],[77.57384,13.13762],[77.57375,13.13736],[77.5737,13.13721],[77.57367,13.13712],[77.57361,13.13694],[77.5736,13.13688],[77.57346,13.13631],[77.57344,13.13615],[77.57344,13.13613],[77.57342,13.13604],[77.57335,13.13607],[77.57298,13.13624],[77.57289,13.13628],[77.57273,13.13629],[77.57265,13.13625],[77.57257,13.13624],[77.57238,13.13625],[77.57235,13.13611],[77.57223,13.1359],[77.57202,13.13597],[77.57198,13.13598],[77.57191,13.13597],[77.57177,13.13527],[77.57158,13.13463],[77.57133,13.13394],[77.57132,13.1333],[77.57087,13.13104],[77.5708,13.13058],[77.57079,13.13054],[77.57026,13.12852],[77.56996,13.12739],[77.56991,13.12701],[77.56986,13.12656],[77.56983,13.12632],[77.56983,13.12631],[77.56967,13.12504],[77.56966,13.12502],[77.5696,13.12503],[77.56958,13.12503],[77.56866,13.12525],[77.56865,13.12525],[77.56819,13.12536],[77.56812,13.12537],[77.56556,13.12596],[77.56551,13.12585],[77.56537,13.1255],[77.56528,13.12528],[77.56515,13.12499],[77.56502,13.1247],[77.56481,13.12423],[77.56465,13.12385],[77.56434,13.12317],[77.56434,13.12316],[77.56432,13.12311],[77.56429,13.12306],[77.56421,13.12288],[77.5639,13.12218],[77.5639,13.12216],[77.56388,13.12212],[77.5634,13.12099],[77.56322,13.12058],[77.56319,13.1205],[77.56315,13.12019],[77.56315,13.12017],[77.56312,13.11987],[77.56306,13.11944],[77.56306,13.11943],[77.56297,13.11881],[77.56289,13.11817],[77.56284,13.11794],[77.56269,13.11721],[77.56255,13.11655],[77.56253,13.11646],[77.56252,13.11643],[77.56252,13.11641],[77.5625,13.11637],[77.56215,13.11523],[77.56192,13.11468],[77.56191,13.11465],[77.56181,13.1144],[77.56171,13.11415],[77.56165,13.114],[77.56159,13.11382],[77.56163,13.11382],[77.56115,13.11391],[77.56106,13.11378],[77.5604,13.11296],[77.56009,13.11236],[77.55983,13.1124],[77.55981,13.1124],[77.55968,13.11211],[77.55971,13.1119],[77.55981,13.11179],[77.56013,13.11174],[77.56022,13.11153],[77.56031,13.11115],[77.56028,13.11056],[77.56012,13.10983],[77.56005,13.10955],[77.56005,13.10931],[77.56054,13.10904],[77.56096,13.10892],[77.5611,13.10837],[77.56109,13.10834],[77.56108,13.10832],[77.56095,13.10793],[77.5607,13.10747],[77.56066,13.10737],[77.56055,13.1071],[77.56054,13.10708],[77.56052,13.10702],[77.56041,13.10677],[77.5603,13.10658],[77.56013,13.10618],[77.55996,13.10584],[77.55972,13.1056],[77.55959,13.10531],[77.55945,13.10504],[77.55934,13.10487],[77.55916,13.10459],[77.55903,13.10434],[77.55892,13.10334],[77.55915,13.1034],[77.55936,13.10339],[77.55935,13.10338],[77.55931,13.10331],[77.55898,13.10308],[77.55891,13.1029],[77.55839,13.10239],[77.55829,13.10226],[77.55817,13.10209],[77.55785,13.10168],[77.55756,13.10142],[77.5573,13.10117],[77.55713,13.10087],[77.55746,13.10073],[77.55733,13.10042],[77.55695,13.10058],[77.55655,13.10071],[77.55616,13.10023],[77.55577,13.10035],[77.55561,13.10041],[77.55555,13.10032],[77.55521,13.10046],[77.55514,13.10044],[77.55508,13.10034],[77.55461,13.1004],[77.55394,13.10049],[77.55259,13.10066],[77.55246,13.10068],[77.55201,13.1008],[77.55189,13.10082],[77.55157,13.10086],[77.55155,13.10086],[77.55149,13.10086],[77.55126,13.10085],[77.5511,13.10084],[77.55099,13.10083],[77.55083,13.1009],[77.55072,13.10095],[77.55029,13.10097],[77.54966,13.10103],[77.54889,13.10103],[77.5485,13.10101],[77.54807,13.10103],[77.54766,13.10109],[77.54715,13.10118],[77.54674,13.10118],[77.54636,13.10121],[77.54601,13.10125],[77.54563,13.10129],[77.54517,13.10127],[77.5449,13.10138],[77.54455,13.10132],[77.54423,13.10132],[77.54424,13.1008],[77.54443,13.10079],[77.54432,13.10056],[77.54422,13.10038],[77.54408,13.1001],[77.54397,13.09974],[77.54386,13.09946],[77.54358,13.09877],[77.54344,13.09837],[77.54329,13.098],[77.54317,13.09768],[77.54257,13.09608],[77.54249,13.09587],[77.54239,13.0956],[77.54243,13.09558],[77.54242,13.09557],[77.54216,13.09421],[77.54214,13.09412],[77.54212,13.09402],[77.54177,13.09345],[77.54109,13.09237],[77.54088,13.09203],[77.54087,13.09201],[77.54077,13.09186],[77.54072,13.09178],[77.54071,13.08997],[77.53946,13.09001],[77.53854,13.09004],[77.53725,13.0901],[77.53545,13.09017],[77.53482,13.09129],[77.53439,13.09214],[77.53434,13.09213],[77.534,13.09216],[77.53391,13.09217],[77.53317,13.09222],[77.53283,13.09225],[77.53004,13.09242],[77.5295,13.09247],[77.52889,13.09259],[77.52862,13.09261],[77.52642,13.09287],[77.52378,13.09307],[77.52377,13.09294],[77.52366,13.09166],[77.52366,13.09099],[77.52362,13.09056],[77.52353,13.08967],[77.52345,13.08811],[77.52344,13.08656],[77.52344,13.08604],[77.52347,13.08517],[77.52347,13.08512],[77.52351,13.08446],[77.52354,13.08357],[77.52359,13.08287],[77.52357,13.08279],[77.52345,13.08183],[77.52339,13.08165],[77.52337,13.08155],[77.52335,13.08151],[77.52334,13.08148],[77.52323,13.081],[77.52321,13.08093],[77.5232,13.08087],[77.52296,13.08091],[77.52288,13.08091],[77.52284,13.08088],[77.5228,13.08081],[77.52277,13.08079],[77.52273,13.08078],[77.52259,13.08072],[77.52224,13.08055],[77.52207,13.08035],[77.52171,13.08038],[77.52128,13.08041],[77.52121,13.0802],[77.52114,13.07996],[77.52088,13.07915],[77.51963,13.07944],[77.5195,13.07935],[77.51947,13.07935],[77.51942,13.07936],[77.51914,13.07962],[77.51898,13.07967],[77.51895,13.07956],[77.51886,13.07904],[77.51877,13.07865],[77.51876,13.07852],[77.5187,13.07817],[77.51868,13.07808],[77.51866,13.07801],[77.51858,13.07774],[77.51855,13.07763],[77.51839,13.07708],[77.51834,13.07694],[77.51833,13.07682],[77.51832,13.0765],[77.5183,13.0761],[77.51829,13.0759],[77.51829,13.07576],[77.51828,13.07546],[77.51819,13.07501],[77.51798,13.07426],[77.51796,13.07418],[77.51698,13.07456],[77.51615,13.07487],[77.51542,13.07508],[77.51461,13.07531],[77.51444,13.07536],[77.51429,13.07516],[77.51367,13.07536],[77.51308,13.07555],[77.51254,13.07559],[77.51237,13.07565],[77.51194,13.07573],[77.51184,13.07575],[77.51149,13.07582],[77.51146,13.07582],[77.51138,13.07565],[77.51131,13.07558],[77.51127,13.0756],[77.51109,13.07576],[77.51098,13.0758],[77.51064,13.07599],[77.51047,13.07613],[77.51045,13.07614],[77.51042,13.07617],[77.51017,13.07637],[77.50992,13.0766],[77.50969,13.07679],[77.50966,13.07681],[77.50956,13.07689],[77.50941,13.077],[77.50915,13.07735],[77.50899,13.07758],[77.50893,13.07773],[77.50887,13.07781],[77.50884,13.07783],[77.50882,13.07785],[77.50877,13.07782],[77.50859,13.07773],[77.50838,13.07761],[77.50818,13.07764],[77.50771,13.07782],[77.50754,13.07788],[77.50751,13.07789],[77.50735,13.07795],[77.50718,13.07801],[77.507,13.0779],[77.50693,13.07786],[77.50641,13.07765],[77.50633,13.07761],[77.50601,13.07742],[77.50572,13.07702],[77.50546,13.07693],[77.50533,13.07682],[77.50508,13.07671],[77.5048,13.07648],[77.50462,13.07621],[77.50448,13.076],[77.50432,13.07574],[77.50411,13.07539],[77.50376,13.07521],[77.503,13.07479],[77.50277,13.07471],[77.50271,13.07465],[77.50267,13.07458],[77.50264,13.07444],[77.50247,13.07416],[77.50234,13.07403],[77.50214,13.07387],[77.50189,13.07348],[77.50161,13.07305],[77.50143,13.07284],[77.501,13.07264],[77.50066,13.07255],[77.50037,13.07246],[77.50016,13.07235],[77.49991,13.07221],[77.49961,13.07204],[77.4995,13.07198],[77.49924,13.07196],[77.49859,13.07197],[77.49813,13.07196],[77.49766,13.07196],[77.49757,13.07196],[77.49721,13.07195],[77.49605,13.07195],[77.49507,13.07199],[77.49414,13.07204],[77.49311,13.07209],[77.49294,13.0721],[77.49294,13.07208],[77.49294,13.07159],[77.49293,13.07137],[77.49288,13.07022],[77.49284,13.06968],[77.49274,13.06832],[77.4927,13.06779],[77.49264,13.06684],[77.49263,13.06673],[77.49265,13.06603],[77.49265,13.06602],[77.49267,13.06549],[77.49269,13.06496],[77.4927,13.06468],[77.49272,13.06418],[77.49273,13.06409],[77.49274,13.06378],[77.49275,13.06376],[77.49295,13.06288],[77.49302,13.0626],[77.49303,13.06254],[77.49304,13.06251],[77.49304,13.06238],[77.49304,13.06225],[77.49304,13.06224],[77.49304,13.06217],[77.49303,13.06214],[77.49273,13.06209],[77.49268,13.06191],[77.49266,13.06186],[77.49259,13.06162],[77.49255,13.0615],[77.49249,13.06134],[77.49235,13.06098],[77.49233,13.06092],[77.49232,13.0609],[77.49197,13.05999],[77.49195,13.05994],[77.49193,13.05988],[77.49177,13.0594],[77.49168,13.0591],[77.49167,13.05909],[77.49158,13.05881],[77.49149,13.05852],[77.4912,13.05767],[77.49108,13.05733],[77.49099,13.05705],[77.49096,13.05696],[77.49096,13.05695],[77.49109,13.05674],[77.49155,13.05602],[77.49233,13.05474],[77.49234,13.05464],[77.49234,13.05463],[77.49235,13.0544],[77.49238,13.05378],[77.49238,13.05377],[77.49238,13.05358],[77.49238,13.05357],[77.49247,13.05172],[77.49247,13.05167],[77.49247,13.05161],[77.49247,13.05158],[77.49258,13.05156],[77.49258,13.05151],[77.49229,13.05062],[77.49221,13.05038],[77.49218,13.05004],[77.49215,13.04974],[77.49208,13.04911],[77.49208,13.04909],[77.49199,13.04822],[77.49175,13.04741],[77.49168,13.04722],[77.49167,13.04721],[77.4916,13.04702],[77.49151,13.04674],[77.49097,13.0451],[77.49085,13.04515],[77.48954,13.0456],[77.48954,13.04561],[77.4895,13.04574],[77.48926,13.04577],[77.48908,13.04581],[77.48756,13.04612],[77.48755,13.04623],[77.48619,13.04664],[77.48618,13.04664],[77.48482,13.04726],[77.48392,13.04764],[77.48214,13.04841],[77.48116,13.04828],[77.48086,13.04853],[77.48044,13.04888],[77.48032,13.04898],[77.48024,13.04898],[77.48025,13.04898],[77.48027,13.04895],[77.48021,13.04888],[77.48018,13.04884],[77.48014,13.04878],[77.48006,13.04864],[77.48006,13.04857],[77.47998,13.04733],[77.47997,13.04713],[77.47984,13.04597],[77.47982,13.04585],[77.4798,13.04561],[77.4798,13.04559],[77.4798,13.04552],[77.47962,13.04476],[77.48031,13.04337],[77.48101,13.04304],[77.48126,13.04288],[77.48147,13.04262],[77.48152,13.04246],[77.48168,13.04176],[77.4821,13.04121],[77.48246,13.04089],[77.48256,13.04075],[77.48248,13.04068],[77.48245,13.04064],[77.4824,13.0406],[77.48211,13.04002],[77.48175,13.03989],[77.48134,13.03971],[77.48112,13.03912],[77.48109,13.03904],[77.48086,13.0384],[77.4801,13.03793],[77.47996,13.03663],[77.47991,13.03564],[77.47979,13.03558],[77.47873,13.03505],[77.47871,13.03503],[77.47868,13.03504],[77.47842,13.03452],[77.47837,13.03443],[77.47821,13.0341],[77.47817,13.03402],[77.47814,13.03396],[77.47783,13.03341],[77.47756,13.03293],[77.47709,13.03195],[77.47702,13.03181],[77.47695,13.03168],[77.47687,13.03152],[77.47705,13.03136],[77.47729,13.03114],[77.47753,13.03092],[77.47789,13.03066],[77.47843,13.03017],[77.47884,13.02981],[77.47939,13.02929],[77.47954,13.02916],[77.47936,13.02861],[77.47879,13.02687],[77.47862,13.02635],[77.4786,13.02621],[77.47834,13.02228],[77.47883,13.02213],[77.4788,13.02193],[77.47849,13.02015],[77.4784,13.0196],[77.47832,13.01918],[77.47828,13.01897],[77.47803,13.0185],[77.47758,13.0175],[77.47757,13.01748],[77.47752,13.01738],[77.47745,13.01724],[77.47741,13.01715],[77.47727,13.01664],[77.47704,13.01577],[77.47694,13.01543],[77.47693,13.01529],[77.47693,13.01508],[77.47701,13.01484],[77.47694,13.01479],[77.47659,13.01452],[77.4765,13.01445],[77.47637,13.01435],[77.47612,13.01408],[77.47526,13.01315],[77.47524,13.01306],[77.47514,13.01271],[77.47514,13.0127],[77.47484,13.01158],[77.47481,13.01144],[77.4748,13.01144],[77.47473,13.01122],[77.47472,13.01121],[77.47403,13.00974],[77.47399,13.00965],[77.47397,13.00962],[77.47374,13.00925],[77.47344,13.00876],[77.47324,13.0088],[77.47312,13.00883],[77.4731,13.00883],[77.47286,13.00742],[77.47284,13.00727],[77.47331,13.00714],[77.47346,13.0071],[77.47373,13.00702],[77.47404,13.00693],[77.47422,13.00688],[77.47458,13.00671],[77.47489,13.00659],[77.4754,13.00645],[77.47536,13.00628],[77.47523,13.0057],[77.47501,13.00489],[77.475,13.00486],[77.47517,13.00437],[77.47519,13.00343],[77.47527,13.00341],[77.47542,13.00339],[77.47527,13.00256],[77.47485,13.00111],[77.47478,13.00075],[77.47453,13.0006],[77.47435,12.99985],[77.4742,12.99922],[77.47357,12.99887],[77.47349,12.9986],[77.47328,12.99788],[77.47317,12.99749],[77.47305,12.99731],[77.47288,12.99673],[77.47245,12.99681],[77.47181,12.99549],[77.47175,12.99546],[77.47166,12.99541],[77.4713,12.9947],[77.47125,12.9946],[77.47123,12.99424],[77.47126,12.99411],[77.47133,12.99386],[77.4711,12.9933],[77.47082,12.99224],[77.47071,12.9919],[77.47055,12.99141],[77.47036,12.99065],[77.47009,12.98992],[77.47006,12.98987],[77.47,12.98978],[77.46993,12.98963],[77.46931,12.98841],[77.46918,12.98815],[77.46911,12.98802],[77.46895,12.98772],[77.46869,12.98714],[77.46859,12.98698],[77.46851,12.98682],[77.4685,12.9868],[77.46845,12.98671],[77.46845,12.9867],[77.46923,12.98647],[77.4698,12.9863],[77.47037,12.98599],[77.47086,12.98572],[77.47169,12.98512],[77.47226,12.98485],[77.4723,12.9848],[77.47306,12.984],[77.47327,12.98368],[77.47328,12.98366],[77.47332,12.98359],[77.47345,12.98332],[77.47373,12.98248],[77.47379,12.98222],[77.47384,12.98173],[77.47394,12.98122],[77.47396,12.98112],[77.474,12.98097],[77.47404,12.98062],[77.47427,12.97978],[77.4743,12.97959],[77.47434,12.97928],[77.47441,12.97877],[77.47443,12.97862],[77.47454,12.97779],[77.47484,12.97567],[77.47486,12.97435],[77.47492,12.97398],[77.47496,12.97376],[77.47508,12.97299],[77.47508,12.97297],[77.47509,12.97294],[77.47508,12.97233],[77.47508,12.97221],[77.47508,12.97185],[77.47508,12.97176],[77.47508,12.97173],[77.47508,12.97163],[77.47508,12.97162],[77.47509,12.97146],[77.47505,12.97079],[77.47504,12.97063],[77.47502,12.97041],[77.47501,12.97011],[77.47489,12.96979],[77.47482,12.96959],[77.47451,12.96907],[77.47451,12.96906],[77.47443,12.96892],[77.47409,12.96835],[77.47404,12.96827],[77.47401,12.9682],[77.4735,12.96731],[77.47327,12.9671],[77.47349,12.96699],[77.47318,12.9664],[77.47317,12.96638],[77.473,12.96587],[77.4728,12.96527],[77.47279,12.96527],[77.47271,12.965],[77.4726,12.96468],[77.47249,12.96432],[77.47228,12.96367],[77.47291,12.96359],[77.47353,12.96279],[77.47372,12.96251],[77.47424,12.96178],[77.47441,12.96156],[77.47528,12.96039],[77.47511,12.9601],[77.47471,12.95947],[77.47426,12.95849],[77.47418,12.95836],[77.47382,12.95769],[77.4735,12.95711],[77.47286,12.95607],[77.47247,12.95595],[77.4721,12.95505],[77.472,12.95504],[77.47197,12.95472],[77.47189,12.95435],[77.47176,12.9541],[77.47172,12.95399],[77.47164,12.95377],[77.47163,12.95369],[77.4716,12.95299],[77.47158,12.95257],[77.47155,12.95229],[77.47155,12.95224],[77.47232,12.95189],[77.47251,12.95181],[77.47251,12.9516],[77.47237,12.95132],[77.47225,12.95107],[77.47214,12.95087],[77.47167,12.95076],[77.47123,12.95073],[77.47112,12.95072],[77.47106,12.94959],[77.47243,12.94955],[77.47273,12.94927],[77.47306,12.94933],[77.4737,12.94921],[77.47419,12.9492],[77.47494,12.94913],[77.47518,12.94911],[77.47552,12.94912],[77.47578,12.949],[77.47613,12.9489],[77.47628,12.94882],[77.47582,12.94763],[77.47554,12.94699],[77.47536,12.94638],[77.47516,12.94568],[77.47507,12.94547],[77.47493,12.94473],[77.47492,12.94465],[77.47484,12.94424],[77.47481,12.94398],[77.47475,12.94342],[77.47454,12.94297],[77.47432,12.94234],[77.47423,12.94212],[77.47398,12.94166],[77.47378,12.94127],[77.47372,12.94114],[77.47325,12.94033],[77.47363,12.94024],[77.47388,12.94022],[77.47446,12.94002],[77.47474,12.93991],[77.47496,12.93974],[77.47502,12.93969],[77.47519,12.93955],[77.47522,12.93953],[77.47534,12.93942],[77.4754,12.93938],[77.47548,12.93936],[77.47549,12.93935],[77.47595,12.93899],[77.47602,12.93893],[77.4764,12.93863],[77.4764,12.93862],[77.47627,12.93831],[77.47692,12.93804],[77.47836,12.93756],[77.47877,12.93751],[77.47884,12.93751],[77.47908,12.93748],[77.47922,12.93747],[77.47935,12.93746],[77.4804,12.93737],[77.48103,12.93731],[77.48105,12.93731],[77.4816,12.93725],[77.48161,12.93725],[77.48173,12.93724],[77.4821,12.9372],[77.48238,12.93716],[77.48301,12.93707],[77.48357,12.93702],[77.48372,12.93701],[77.48389,12.93699],[77.48406,12.93697],[77.48409,12.93697],[77.48424,12.93692],[77.48412,12.93617],[77.48382,12.93433],[77.48381,12.93428],[77.48381,12.93424],[77.48378,12.9342],[77.48371,12.93408],[77.48365,12.93398],[77.48362,12.93394],[77.48361,12.93392],[77.4836,12.93386],[77.48355,12.93348],[77.48354,12.93337],[77.48352,12.93324],[77.48351,12.93317],[77.48347,12.9329],[77.48339,12.93287],[77.48335,12.93282],[77.48331,12.93279],[77.48326,12.93281],[77.48321,12.93283],[77.48316,12.93278],[77.48313,12.93275],[77.48309,12.93271],[77.48309,12.9327],[77.48307,12.93268],[77.48307,12.93262],[77.48307,12.9325],[77.48309,12.93249],[77.48316,12.93243],[77.48324,12.93231],[77.48323,12.93223],[77.48332,12.93212],[77.48347,12.93184],[77.48347,12.93156],[77.48332,12.93134],[77.48322,12.93135],[77.48303,12.93134],[77.48289,12.93126],[77.48302,12.93117],[77.48308,12.93107],[77.4832,12.93088],[77.48323,12.93069],[77.4832,12.9306],[77.48312,12.93044],[77.48297,12.93032],[77.48287,12.93014],[77.48267,12.92973],[77.4826,12.92951],[77.48252,12.92927],[77.48232,12.92896],[77.48222,12.92895],[77.48204,12.92895],[77.48192,12.92891],[77.48183,12.9288],[77.48165,12.92838],[77.48146,12.92813],[77.48134,12.92807],[77.48124,12.928],[77.48123,12.92791],[77.48118,12.92775],[77.48099,12.92741],[77.48087,12.92743],[77.48026,12.92764],[77.48018,12.92758],[77.48006,12.92757],[77.47995,12.92755],[77.47982,12.92755],[77.47966,12.92753],[77.47952,12.92749],[77.47936,12.9274],[77.4792,12.92733],[77.47912,12.92723],[77.47909,12.92716],[77.47909,12.92706],[77.47911,12.92701],[77.47926,12.9269],[77.47938,12.92672],[77.47948,12.92656],[77.47955,12.92651],[77.47971,12.92646],[77.47973,12.9264],[77.4797,12.92631],[77.47962,12.92622],[77.47962,12.92613],[77.47965,12.92605],[77.47961,12.92594],[77.4796,12.92592],[77.47823,12.92629],[77.47768,12.92641],[77.4774,12.92647],[77.47589,12.9267],[77.47482,12.92668],[77.47363,12.92667],[77.47339,12.92664],[77.47338,12.92661],[77.47291,12.92501],[77.4729,12.92498],[77.47285,12.92474],[77.47274,12.92427],[77.47261,12.92376],[77.47259,12.92367],[77.47249,12.9234],[77.47246,12.92331],[77.47213,12.92237],[77.4721,12.92227],[77.47209,12.92226],[77.47176,12.92117],[77.4711,12.9191],[77.4711,12.91909],[77.47091,12.9185],[77.47087,12.91837],[77.47063,12.91743],[77.47042,12.91659],[77.47033,12.91626],[77.4703,12.91613],[77.47018,12.91566],[77.47008,12.91519],[77.47004,12.91513],[77.46986,12.91488],[77.46976,12.91472],[77.46966,12.91457],[77.46932,12.91404],[77.46918,12.91383],[77.46897,12.91341],[77.4687,12.91303],[77.46819,12.91229],[77.46721,12.91126],[77.4665,12.91015],[77.46657,12.90891],[77.4666,12.90836],[77.46661,12.90814],[77.46662,12.90795],[77.46668,12.90736],[77.46667,12.90688],[77.46508,12.90659],[77.46372,12.90648],[77.46223,12.90644],[77.46108,12.90655],[77.46079,12.90658],[77.46032,12.90661],[77.46008,12.90663],[77.46008,12.9066],[77.46005,12.90636],[77.45988,12.90477],[77.45988,12.90469],[77.45998,12.90325],[77.45998,12.90322],[77.46,12.90293],[77.46,12.9028],[77.46,12.90238],[77.46,12.90233],[77.46002,12.90172],[77.46018,12.90024],[77.46028,12.90021],[77.46032,12.90019],[77.46071,12.90003],[77.46071,12.8999],[77.46068,12.89933],[77.46068,12.8985],[77.46154,12.89872],[77.46182,12.89813],[77.46195,12.89785],[77.46203,12.89767],[77.4621,12.89757],[77.46223,12.89737],[77.46225,12.89735],[77.46217,12.89729],[77.46273,12.89646],[77.46257,12.896],[77.46268,12.89585],[77.46282,12.89567],[77.46291,12.89555],[77.4632,12.89518],[77.46358,12.89468],[77.46424,12.89381],[77.46493,12.89288],[77.46512,12.89263],[77.46571,12.89182],[77.46575,12.89177],[77.46653,12.89076],[77.46658,12.89069],[77.46672,12.89051],[77.46678,12.89043],[77.46782,12.88917],[77.46823,12.88867],[77.46838,12.88851],[77.46838,12.8885],[77.46841,12.88845],[77.46849,12.88832],[77.46847,12.88866],[77.46874,12.8897],[77.46877,12.88979],[77.46885,12.89011],[77.46917,12.8914],[77.46923,12.89165],[77.46931,12.89198],[77.46932,12.89199],[77.46936,12.89218],[77.46942,12.89246],[77.46981,12.89328],[77.4699,12.89348],[77.47012,12.89399],[77.47038,12.89433],[77.47061,12.89459],[77.47073,12.89472],[77.47076,12.89476],[77.47184,12.8961],[77.47222,12.89661],[77.47242,12.89687],[77.47243,12.89689],[77.47251,12.897],[77.47256,12.89706],[77.47342,12.8984],[77.47343,12.89842],[77.47344,12.89843],[77.47363,12.89837],[77.47452,12.89809],[77.47489,12.8979],[77.47541,12.89756],[77.47637,12.89699],[77.4765,12.89692],[77.47696,12.89665],[77.47717,12.89649],[77.47663,12.89623],[77.47646,12.8961],[77.47637,12.89587],[77.47631,12.89571],[77.47573,12.89524],[77.47562,12.89513],[77.47553,12.89485],[77.47549,12.89477],[77.47547,12.89469],[77.47546,12.89462],[77.47547,12.89453],[77.47549,12.89442],[77.47552,12.89434],[77.47558,12.89428],[77.47566,12.89423],[77.47574,12.89421],[77.47586,12.8942],[77.47602,12.89422],[77.47615,12.89427],[77.47622,12.89432],[77.47642,12.89444],[77.47657,12.89447],[77.47664,12.8945],[77.47674,12.89447],[77.47679,12.89443],[77.47686,12.89434],[77.47695,12.89426],[77.47699,12.89421],[77.47702,12.89415],[77.47705,12.89409],[77.47708,12.89402],[77.47716,12.89392],[77.47721,12.89384],[77.4773,12.8937],[77.4774,12.89356],[77.47744,12.89351],[77.4775,12.89345],[77.47759,12.89337],[77.47772,12.89321],[77.47779,12.89306],[77.47783,12.89302],[77.47801,12.89288],[77.4781,12.89284],[77.47813,12.89281],[77.47818,12.89278],[77.47823,12.89274],[77.47827,12.8927],[77.47831,12.89268],[77.47835,12.89266],[77.47839,12.89264],[77.47843,12.89262],[77.47848,12.89259],[77.47852,12.89257],[77.47856,12.89254],[77.47862,12.89252],[77.47867,12.89246],[77.4787,12.89243],[77.47874,12.8924],[77.47877,12.89238],[77.47881,12.89235],[77.47885,12.89232],[77.4789,12.89229],[77.47894,12.89226],[77.47901,12.89223],[77.47904,12.8922],[77.47907,12.89217],[77.47909,12.89214],[77.47918,12.89196],[77.4792,12.89191],[77.47921,12.89186],[77.4792,12.89181],[77.4792,12.89176],[77.4792,12.89172],[77.47921,12.89147],[77.47922,12.89129],[77.47922,12.89125],[77.47927,12.89068],[77.47926,12.89027],[77.47927,12.89],[77.47931,12.88979],[77.47942,12.88971],[77.47955,12.8897],[77.47968,12.8897],[77.47999,12.88976],[77.48022,12.88989],[77.48034,12.88998],[77.48047,12.89003],[77.48056,12.89008],[77.4807,12.89012],[77.48079,12.89015],[77.481,12.89015],[77.48105,12.89015],[77.48113,12.89013],[77.48125,12.89008],[77.48134,12.89003],[77.4814,12.88994],[77.48159,12.88976],[77.48173,12.88963],[77.48184,12.88956],[77.48201,12.8893],[77.48224,12.88878],[77.48238,12.88812],[77.48246,12.88778],[77.48251,12.88755],[77.48271,12.8871],[77.48287,12.88666],[77.48297,12.8864],[77.48297,12.88629],[77.48293,12.88609],[77.48285,12.88595],[77.48263,12.88576],[77.48249,12.88575],[77.48208,12.88576],[77.48197,12.88582],[77.48181,12.88585],[77.48145,12.8859],[77.48113,12.88595],[77.48092,12.88596],[77.48076,12.88595],[77.4807,12.88595],[77.48057,12.88594],[77.48014,12.88595],[77.47978,12.88609],[77.4795,12.88618],[77.47934,12.88623],[77.47911,12.88623],[77.47894,12.88621],[77.47886,12.88617],[77.47877,12.88612],[77.47874,12.88606],[77.47873,12.88599],[77.47874,12.8859],[77.47875,12.88582],[77.4788,12.88576],[77.47884,12.8857],[77.47888,12.88562],[77.4789,12.88556],[77.4789,12.8853],[77.47888,12.88524],[77.47896,12.88499],[77.47901,12.88482],[77.47901,12.88474],[77.47902,12.88468],[77.47898,12.88462],[77.4789,12.88445],[77.47871,12.88428],[77.47851,12.88411],[77.47826,12.88379],[77.47794,12.88339],[77.47755,12.88301],[77.47735,12.88275],[77.47693,12.88237],[77.47653,12.882],[77.47618,12.88168],[77.47607,12.88161],[77.47565,12.88131],[77.47516,12.88095],[77.47494,12.88068],[77.47487,12.88042],[77.47482,12.88005],[77.47496,12.87978],[77.47511,12.87956],[77.47545,12.8791],[77.47565,12.87883],[77.47583,12.87843],[77.4759,12.87832],[77.47591,12.87832],[77.47623,12.87824],[77.47699,12.87817],[77.477,12.87816],[77.47706,12.87816],[77.47727,12.87814],[77.47797,12.87803],[77.47839,12.87797],[77.47941,12.87781],[77.47954,12.87781],[77.47971,12.87797],[77.47999,12.87805],[77.48063,12.87807],[77.48169,12.8781],[77.48168,12.878],[77.48167,12.87798],[77.48167,12.87792],[77.48165,12.87777],[77.48163,12.87763],[77.48154,12.87706],[77.48151,12.87662],[77.48141,12.87633],[77.48136,12.87618],[77.48127,12.87596],[77.48121,12.87547],[77.48118,12.87537],[77.48118,12.87531],[77.48129,12.87528],[77.48126,12.87522],[77.48125,12.8752],[77.48124,12.87517],[77.48109,12.87486],[77.48095,12.87486],[77.48089,12.87469],[77.48086,12.87462],[77.48088,12.87429],[77.48091,12.87428],[77.48112,12.87425],[77.48121,12.87424],[77.48135,12.8743],[77.48256,12.87415],[77.48284,12.87427],[77.48294,12.87432],[77.48296,12.87432],[77.48312,12.87438],[77.48313,12.87435],[77.4834,12.87386],[77.48361,12.87352],[77.48396,12.87295],[77.48439,12.8722],[77.48464,12.87183],[77.48468,12.87176],[77.48474,12.87165],[77.48522,12.87151],[77.48533,12.87148],[77.48538,12.87147],[77.48597,12.87137],[77.48599,12.87136],[77.48609,12.87139],[77.48727,12.87186],[77.48736,12.87189],[77.48747,12.87193],[77.48767,12.87194],[77.48785,12.87195],[77.48834,12.87198],[77.48842,12.87198],[77.48836,12.8724],[77.48885,12.8722],[77.48965,12.87183],[77.49006,12.87164],[77.49015,12.8716],[77.49036,12.8715],[77.49069,12.87132],[77.49178,12.87082],[77.49195,12.87113],[77.49221,12.87161],[77.49252,12.87219],[77.49271,12.87227],[77.49275,12.87208],[77.49286,12.87191],[77.49455,12.87172],[77.49474,12.8718],[77.49478,12.87193],[77.49494,12.87246],[77.49498,12.87258],[77.49509,12.87296],[77.49627,12.87295],[77.49638,12.8729],[77.49663,12.8727],[77.49703,12.87238],[77.49718,12.87252],[77.49724,12.87258],[77.49791,12.87321],[77.49966,12.87411],[77.50031,12.87453],[77.50041,12.87459],[77.50045,12.87461],[77.50085,12.87491],[77.50197,12.87569],[77.50229,12.87591],[77.5025,12.87605],[77.50253,12.87607],[77.50269,12.87619],[77.50319,12.8764],[77.50358,12.87657],[77.504,12.87675],[77.50455,12.87701],[77.50479,12.87688],[77.50542,12.87659],[77.50572,12.87591],[77.50578,12.8756],[77.50626,12.87456],[77.50667,12.87381],[77.50792,12.87186],[77.50804,12.87169],[77.50837,12.87121],[77.50879,12.87064],[77.50925,12.87002],[77.5095,12.86973],[77.51011,12.86903],[77.51022,12.86901],[77.51044,12.86897],[77.51052,12.86896],[77.51058,12.86891],[77.51156,12.86809],[77.51159,12.86807],[77.51159,12.86806],[77.51172,12.86811],[77.51241,12.86827],[77.51261,12.86824],[77.5132,12.86813],[77.51333,12.8681],[77.51467,12.86793],[77.51544,12.86788],[77.51549,12.86788],[77.51562,12.868],[77.51566,12.86804],[77.51619,12.86856],[77.51685,12.86917],[77.51729,12.8696],[77.51858,12.87092],[77.51944,12.87179],[77.52021,12.87215],[77.52156,12.87141],[77.52309,12.87058],[77.52298,12.87057],[77.52292,12.87056],[77.5229,12.87053],[77.52022,12.86634],[77.52,12.86522],[77.51975,12.86396],[77.51973,12.86373],[77.51959,12.86249],[77.51957,12.86231],[77.51955,12.86212],[77.51945,12.86204],[77.51891,12.86165],[77.51841,12.86117],[77.51842,12.86108],[77.51846,12.86069],[77.5185,12.86039],[77.51852,12.86018],[77.51854,12.86004],[77.51858,12.85972],[77.51864,12.85927],[77.51875,12.85842],[77.51884,12.85777],[77.51897,12.85655],[77.51909,12.85554],[77.51915,12.855],[77.51921,12.85486],[77.51951,12.85409],[77.51968,12.85364],[77.52017,12.85237],[77.52086,12.8506],[77.521,12.85024],[77.52103,12.85015],[77.52126,12.84963],[77.52149,12.84911],[77.5216,12.84893],[77.52163,12.84854],[77.52164,12.84836],[77.52167,12.8482],[77.52168,12.84817],[77.5217,12.84808],[77.52226,12.84541],[77.52229,12.84529],[77.52239,12.84493],[77.52242,12.84486],[77.5225,12.84456],[77.52254,12.84441],[77.5227,12.84376],[77.52277,12.8434],[77.52287,12.84291],[77.52296,12.84253],[77.52312,12.8418],[77.52324,12.84123],[77.52352,12.83995],[77.52421,12.84014],[77.52446,12.84021],[77.52606,12.84064],[77.52909,12.84032],[77.53097,12.84009],[77.53128,12.84005],[77.53343,12.8397],[77.53361,12.83991],[77.53391,12.83992],[77.53453,12.84045],[77.53511,12.84095],[77.53578,12.84117],[77.53678,12.84149],[77.53757,12.84174],[77.53788,12.84247],[77.53793,12.84341],[77.53816,12.84423],[77.53835,12.84489],[77.53833,12.8453],[77.53904,12.84532],[77.54049,12.84496],[77.54126,12.84428],[77.54127,12.84427],[77.54149,12.84353],[77.54168,12.84333],[77.54225,12.84329],[77.54277,12.84337],[77.54327,12.84373],[77.54372,12.84405],[77.54431,12.84437],[77.54439,12.84528],[77.54458,12.84631],[77.5445,12.84673],[77.54436,12.84699],[77.54465,12.8474],[77.54468,12.84762],[77.54487,12.8476],[77.54506,12.84761],[77.54821,12.84779],[77.54822,12.84779],[77.54965,12.84788],[77.54973,12.84788],[77.55055,12.84792],[77.55084,12.84794],[77.55149,12.84801],[77.55156,12.84795],[77.55158,12.84793],[77.55199,12.84757],[77.55203,12.84755],[77.55302,12.84716],[77.55307,12.84724],[77.55321,12.8475],[77.55323,12.84768],[77.55323,12.84772],[77.55323,12.84773],[77.55325,12.84773],[77.55344,12.84776],[77.55436,12.84788],[77.55442,12.84789],[77.55445,12.84796],[77.55447,12.84801],[77.55448,12.84803],[77.55449,12.84803],[77.55488,12.84785],[77.55494,12.84775],[77.55551,12.84676],[77.55567,12.84647],[77.55594,12.84598],[77.55613,12.84565],[77.55613,12.84564],[77.55621,12.84549],[77.55628,12.84536],[77.55632,12.84528],[77.55643,12.84507],[77.55656,12.84494],[77.55695,12.84457],[77.5571,12.84444],[77.55735,12.84419],[77.55729,12.84313],[77.55728,12.84153],[77.55825,12.84111],[77.55935,12.84061],[77.55998,12.84032],[77.5605,12.84004],[77.56054,12.84002],[77.56072,12.83991],[77.56095,12.83977],[77.56138,12.83951],[77.56219,12.83902],[77.56221,12.83902],[77.56256,12.83897],[77.56552,12.83965],[77.5656,12.83967],[77.56657,12.83958],[77.56686,12.83955],[77.56688,12.83955],[77.56704,12.83953],[77.56723,12.83952],[77.56732,12.83951],[77.56814,12.83943],[77.56834,12.83942],[77.56874,12.83938],[77.56885,12.83937],[77.57004,12.83927],[77.57013,12.83926],[77.57055,12.83923],[77.57056,12.83923],[77.57094,12.83924],[77.57107,12.83923],[77.57212,12.83918],[77.5723,12.83917],[77.57302,12.83914],[77.57314,12.83913],[77.57379,12.83898],[77.57429,12.83887],[77.57686,12.83847],[77.57803,12.83834],[77.57845,12.8383],[77.57849,12.8383],[77.57868,12.83829],[77.57904,12.83826],[77.57933,12.83815],[77.57939,12.83813],[77.57959,12.83806],[77.58034,12.83778],[77.58143,12.83737],[77.58155,12.83732],[77.58166,12.83728],[77.582,12.83706],[77.58202,12.83705],[77.582,12.83697],[77.58199,12.83695],[77.58203,12.83693],[77.58209,12.83689],[77.58201,12.83645],[77.58223,12.83638],[77.58417,12.83506],[77.58421,12.83503],[77.58423,12.83502],[77.58702,12.83349],[77.58707,12.83352],[77.5875,12.83384],[77.58908,12.83506],[77.58912,12.83508],[77.5893,12.83525],[77.58962,12.83545],[77.58967,12.83547],[77.58987,12.83551],[77.58998,12.83553],[77.59056,12.83559],[77.59063,12.83497],[77.59063,12.83496],[77.59076,12.83484],[77.59153,12.83458],[77.59155,12.83464],[77.59164,12.83494],[77.59168,12.83506],[77.59275,12.83723],[77.59307,12.83854],[77.59337,12.83927],[77.59338,12.8393],[77.5934,12.83933],[77.5935,12.83957],[77.59367,12.83984],[77.59385,12.84045],[77.59412,12.84173],[77.59416,12.84193],[77.59407,12.84194],[77.59422,12.84273],[77.5943,12.84349],[77.59431,12.84363],[77.59432,12.84397],[77.59439,12.84561],[77.59442,12.84579],[77.59452,12.84633],[77.59458,12.84652],[77.59485,12.84745],[77.59518,12.84816],[77.59523,12.8484],[77.59553,12.84909],[77.59562,12.84916],[77.59634,12.84886],[77.59656,12.8488],[77.59689,12.84866],[77.5974,12.84846],[77.59778,12.84833],[77.59816,12.84823],[77.59824,12.84824],[77.59852,12.84821],[77.59856,12.84819],[77.59883,12.84811],[77.59885,12.84811],[77.59888,12.8481],[77.59911,12.84807],[77.59914,12.84807],[77.59929,12.84805],[77.5993,12.84805],[77.60017,12.84792],[77.60019,12.84791],[77.60032,12.84797],[77.60035,12.84799],[77.6004,12.84803],[77.60044,12.84805],[77.60045,12.84806],[77.60051,12.8481],[77.60055,12.84812],[77.60076,12.8481],[77.60128,12.8481],[77.60217,12.84829],[77.60267,12.8484],[77.60394,12.84824],[77.60447,12.84817],[77.60545,12.84791],[77.6055,12.8479],[77.60561,12.84787],[77.60586,12.84782],[77.60594,12.8478],[77.6064,12.84767],[77.60709,12.84747],[77.60715,12.84743],[77.60777,12.847],[77.60785,12.84695],[77.60824,12.84669],[77.60922,12.84607],[77.60922,12.84612],[77.60915,12.84683],[77.60907,12.84782],[77.60903,12.84827],[77.60901,12.84839],[77.60906,12.84998],[77.6091,12.85127],[77.60917,12.85122],[77.60918,12.85121],[77.60937,12.85123],[77.6104,12.85132],[77.61068,12.85134],[77.61156,12.85143],[77.61158,12.85143],[77.61246,12.85167],[77.61272,12.85174],[77.61275,12.85175],[77.61278,12.85182],[77.61288,12.852],[77.61325,12.85266],[77.6137,12.85318],[77.61371,12.85319],[77.61419,12.85395],[77.61436,12.85422],[77.61468,12.8545],[77.61469,12.8545],[77.61496,12.85473],[77.61549,12.85516],[77.61554,12.8552],[77.6159,12.85543],[77.61649,12.85571],[77.61676,12.85712],[77.61676,12.85713],[77.61684,12.85751],[77.61684,12.85753],[77.61711,12.85749],[77.61731,12.85748],[77.61775,12.85746],[77.61811,12.85745],[77.61811,12.85741],[77.61852,12.8575],[77.61853,12.8575],[77.61856,12.85751],[77.61886,12.85758],[77.61891,12.85759],[77.61885,12.85783],[77.61904,12.85814],[77.61951,12.85802],[77.61972,12.85797],[77.61993,12.85794],[77.62028,12.85794],[77.62029,12.85794],[77.62116,12.85792],[77.62139,12.8579],[77.62149,12.8579],[77.62192,12.85785],[77.62193,12.85785],[77.62499,12.85756],[77.62543,12.85756],[77.6255,12.85756],[77.6256,12.85756],[77.62582,12.85754],[77.62647,12.85749],[77.62667,12.85737],[77.62677,12.85731],[77.62694,12.85721],[77.6274,12.85705],[77.62906,12.85691],[77.62989,12.85799],[77.63039,12.85858],[77.63076,12.85941],[77.63086,12.85992],[77.6313,12.85999],[77.63143,12.86013],[77.63163,12.86024],[77.63166,12.86039],[77.63168,12.86055],[77.63177,12.86063],[77.63204,12.86087],[77.63234,12.86114],[77.63235,12.86114],[77.63245,12.86123],[77.63284,12.86138],[77.63289,12.8614],[77.63328,12.86155],[77.63359,12.86164],[77.63435,12.86179],[77.63424,12.86205],[77.63474,12.86266],[77.63478,12.86268],[77.6349,12.86274],[77.6353,12.86295],[77.63532,12.86296],[77.63574,12.86297],[77.63578,12.86297],[77.63582,12.86297],[77.6359,12.86297],[77.63604,12.86298],[77.63606,12.86298],[77.63641,12.86298],[77.63656,12.86295],[77.6373,12.86279],[77.63749,12.86285],[77.63751,12.86284],[77.63757,12.86287],[77.63759,12.86288],[77.63771,12.86294],[77.63845,12.86328],[77.63853,12.86332],[77.63856,12.86377],[77.63858,12.86396],[77.63858,12.86401],[77.63858,12.86402],[77.63859,12.86404],[77.63865,12.86414],[77.63869,12.8643],[77.63884,12.86491],[77.63913,12.86493],[77.63918,12.86493],[77.63924,12.86494],[77.63964,12.86497],[77.63994,12.865],[77.64059,12.865],[77.64069,12.865],[77.64114,12.86497],[77.64126,12.86497],[77.6413,12.86486],[77.64147,12.86437],[77.64151,12.86425],[77.6417,12.86369],[77.6417,12.86368],[77.64172,12.86367],[77.64179,12.86364],[77.64192,12.86359],[77.64196,12.86328],[77.64196,12.86327],[77.64204,12.86261],[77.64205,12.86253],[77.64209,12.86223],[77.64264,12.86076],[77.64273,12.86048],[77.64305,12.85949],[77.64301,12.85821],[77.64301,12.85818],[77.64302,12.85772],[77.64305,12.85697],[77.64305,12.85689],[77.64304,12.85583],[77.64306,12.85508],[77.64306,12.85507],[77.64306,12.85475],[77.64306,12.8545],[77.64306,12.85448],[77.64306,12.85425],[77.64306,12.85407],[77.64308,12.85406],[77.64309,12.85362],[77.64301,12.85266],[77.64302,12.85195],[77.64305,12.85135],[77.64307,12.85115],[77.64313,12.85114],[77.64402,12.85165],[77.64403,12.85166],[77.64491,12.85216],[77.64491,12.85191],[77.64491,12.85175],[77.64518,12.85184],[77.6456,12.85197],[77.64575,12.8517],[77.64615,12.85187],[77.64617,12.8521],[77.6462,12.8521],[77.64638,12.85214],[77.64663,12.85212],[77.64759,12.85235],[77.64764,12.8522],[77.64773,12.85186],[77.64821,12.85199],[77.64866,12.85211],[77.64931,12.85213],[77.64922,12.85275],[77.64962,12.85293],[77.6498,12.85224],[77.65008,12.8521],[77.65028,12.85218],[77.65014,12.85291],[77.65001,12.85297],[77.64996,12.85318],[77.64995,12.85369],[77.65039,12.85387],[77.65034,12.85439],[77.65062,12.85439],[77.65134,12.85461],[77.65145,12.85467],[77.65161,12.85477],[77.65182,12.85474],[77.65214,12.85483],[77.6526,12.85497],[77.65271,12.85504],[77.65291,12.85517],[77.65291,12.85518],[77.65291,12.85524],[77.65311,12.85534],[77.65314,12.85535],[77.65315,12.85539],[77.65316,12.85544],[77.65318,12.85552],[77.6532,12.85559],[77.65321,12.85566],[77.65368,12.85573],[77.65433,12.85582],[77.65443,12.85584],[77.65455,12.85589],[77.65462,12.85591],[77.65465,12.85593],[77.65483,12.856],[77.65493,12.85604],[77.65493,12.85605],[77.65491,12.85619],[77.65501,12.8562],[77.65513,12.85621],[77.65528,12.85623],[77.65551,12.85553],[77.65585,12.85572],[77.6558,12.85596],[77.65575,12.85632],[77.65575,12.85638],[77.65595,12.85643],[77.65615,12.85643],[77.6563,12.85645],[77.65644,12.8565],[77.6564,12.85686],[77.65639,12.85689],[77.65638,12.857],[77.65659,12.85696],[77.65755,12.8572],[77.6575,12.85816],[77.65763,12.85819],[77.6583,12.85836],[77.65931,12.85862],[77.65965,12.85861],[77.66023,12.85859],[77.66033,12.85859],[77.66067,12.85855],[77.66069,12.85855],[77.66108,12.85863],[77.6611,12.85864],[77.66125,12.85866],[77.66128,12.85867],[77.66128,12.85868],[77.66128,12.85874],[77.66128,12.85881],[77.66138,12.85885],[77.66164,12.85905],[77.66178,12.85916],[77.6618,12.85918],[77.66194,12.85925],[77.6623,12.85954],[77.66237,12.85959],[77.66268,12.85987],[77.66278,12.85996],[77.66327,12.86036],[77.6634,12.86048],[77.66372,12.86078],[77.66375,12.86102],[77.66384,12.86192],[77.66409,12.86242],[77.66413,12.86253],[77.66452,12.86244],[77.66458,12.86243],[77.66459,12.86245],[77.66473,12.86271],[77.66474,12.86275],[77.66479,12.86297],[77.66492,12.86313],[77.66507,12.8636],[77.66509,12.86365],[77.6651,12.86366],[77.66511,12.86368],[77.66537,12.8642],[77.6657,12.86461],[77.6667,12.86618],[77.66672,12.86621],[77.66705,12.8662],[77.66709,12.86634],[77.66782,12.86641],[77.66877,12.86678],[77.66884,12.86681],[77.66949,12.86706],[77.66986,12.86718],[77.66995,12.86723],[77.67022,12.86739],[77.67083,12.86766],[77.67114,12.86781],[77.67155,12.86795],[77.67186,12.86806],[77.67209,12.86813],[77.67227,12.8682],[77.67244,12.8682],[77.67289,12.86825],[77.67291,12.86835],[77.67285,12.86896],[77.67284,12.86907],[77.67281,12.86928],[77.67281,12.86931],[77.67339,12.87012],[77.67352,12.87029],[77.67369,12.87053],[77.67425,12.87124],[77.6743,12.87131],[77.67435,12.87137],[77.67453,12.87162],[77.67455,12.87162],[77.67532,12.87258],[77.67524,12.87282],[77.67521,12.87292],[77.67512,12.87326],[77.67505,12.87357],[77.67497,12.87385],[77.67489,12.87416],[77.67475,12.87471],[77.67461,12.87522],[77.67458,12.87535],[77.67443,12.87549],[77.67426,12.87578],[77.67408,12.87629],[77.67406,12.87633],[77.67402,12.8764],[77.67386,12.87674],[77.67375,12.87707],[77.67357,12.87745],[77.67343,12.87766],[77.67324,12.87805],[77.67271,12.87834],[77.67247,12.87846],[77.67211,12.87889],[77.67162,12.87956],[77.67129,12.87998],[77.67104,12.8803],[77.67198,12.88015],[77.67294,12.88001],[77.67371,12.87987],[77.67403,12.87982],[77.67406,12.88018],[77.67415,12.88121],[77.67422,12.88243],[77.67434,12.88383],[77.67375,12.88437],[77.67233,12.88465],[77.67244,12.88599],[77.67254,12.88659],[77.67259,12.88684],[77.67271,12.88723],[77.67272,12.88726],[77.6728,12.88769],[77.67283,12.88786],[77.67287,12.88805],[77.67287,12.88806],[77.67291,12.88831],[77.67293,12.88839],[77.67297,12.88857],[77.67307,12.88908],[77.6731,12.88927],[77.67321,12.88981],[77.67331,12.8903],[77.67332,12.89038],[77.67335,12.89053],[77.67344,12.89092],[77.67345,12.89095],[77.67347,12.89115],[77.67352,12.89137],[77.67355,12.89161],[77.67357,12.89174],[77.67357,12.89175],[77.67359,12.89189],[77.67364,12.89219],[77.67373,12.89257],[77.67378,12.89275],[77.6738,12.89282],[77.67383,12.8929],[77.67409,12.89366],[77.67535,12.89373],[77.67638,12.89395],[77.67684,12.8941],[77.67735,12.89426],[77.67803,12.89528],[77.67805,12.8953],[77.67846,12.89591],[77.67885,12.89657],[77.67959,12.8976],[77.67978,12.89776],[77.68064,12.89851],[77.68185,12.89956],[77.68197,12.89967],[77.68228,12.89996],[77.68241,12.90019],[77.6824,12.90085],[77.68247,12.90111],[77.68254,12.9014],[77.68255,12.90141],[77.68255,12.90142],[77.68288,12.90149],[77.6831,12.90154],[77.68334,12.90158],[77.68338,12.90158],[77.68397,12.90167],[77.68422,12.90164],[77.68445,12.90187],[77.68456,12.90184],[77.68532,12.90188],[77.68544,12.90202],[77.68544,12.90203],[77.68549,12.90213],[77.68553,12.90221],[77.68555,12.90223],[77.68617,12.90244],[77.68691,12.90244],[77.68727,12.90245],[77.68732,12.90247],[77.68746,12.90256],[77.68747,12.90256],[77.68747,12.90261],[77.68758,12.90334],[77.68749,12.90336],[77.68733,12.90344],[77.68664,12.90375],[77.68629,12.90391],[77.68626,12.90393],[77.68572,12.90444],[77.68578,12.90443],[77.68731,12.90473],[77.68685,12.90645],[77.68687,12.90645],[77.68708,12.90649],[77.68719,12.90651],[77.68732,12.90654],[77.68737,12.90654],[77.68766,12.90648],[77.68775,12.90644],[77.68808,12.9062],[77.68822,12.90608],[77.68826,12.90599],[77.68832,12.90588],[77.68836,12.90548],[77.68838,12.90533],[77.68838,12.90532],[77.68939,12.90538],[77.68943,12.90538],[77.68959,12.90537],[77.6896,12.90537],[77.68999,12.90534],[77.69006,12.90541],[77.69016,12.90542],[77.69024,12.90542],[77.69095,12.90546],[77.69097,12.90546],[77.69102,12.90546],[77.69112,12.90524],[77.69112,12.90492],[77.69112,12.90491],[77.69112,12.90485],[77.69113,12.90482],[77.69114,12.90482],[77.6912,12.9048],[77.69129,12.90479],[77.69133,12.90443],[77.69141,12.90443],[77.69147,12.90427],[77.6915,12.90419],[77.69151,12.90418],[77.69155,12.90405],[77.69157,12.904],[77.69161,12.90399],[77.6917,12.90399],[77.692,12.90399],[77.69201,12.90399],[77.69299,12.9041],[77.6932,12.90435],[77.69321,12.90435],[77.69346,12.90439],[77.69353,12.9044],[77.69414,12.90423],[77.69419,12.90421],[77.6948,12.90411],[77.69543,12.90401],[77.69548,12.90404],[77.69558,12.90409],[77.69572,12.90416],[77.69573,12.90417],[77.69591,12.90402],[77.69598,12.90401],[77.69626,12.90399],[77.69635,12.90412],[77.69651,12.9041],[77.69687,12.9041],[77.69705,12.9041],[77.6974,12.90415],[77.69747,12.90416],[77.69781,12.90419],[77.6979,12.90442],[77.69794,12.90452],[77.699,12.90433],[77.70077,12.90401],[77.7009,12.90398],[77.70134,12.90388],[77.70244,12.90362],[77.70285,12.90404],[77.70324,12.90386],[77.70354,12.90371],[77.70416,12.90335],[77.70447,12.90319],[77.70514,12.90282],[77.7061,12.90232],[77.7063,12.90224],[77.70639,12.9022],[77.7069,12.90199],[77.70735,12.90402],[77.70793,12.9062],[77.708,12.90645],[77.70821,12.90745],[77.70835,12.90806],[77.70949,12.90794],[77.7113,12.90786],[77.71339,12.90794],[77.71395,12.90808],[77.71423,12.90808],[77.71459,12.90794],[77.7156,12.90749],[77.71612,12.90739],[77.71697,12.90833],[77.71729,12.90875],[77.71764,12.90897],[77.71777,12.90894],[77.71791,12.90887],[77.71786,12.90837],[77.71822,12.90827],[77.71893,12.90813],[77.71916,12.90809],[77.7197,12.90798],[77.71973,12.90801],[77.71972,12.90815],[77.71978,12.90865],[77.72042,12.90883],[77.72064,12.90883],[77.72075,12.90882],[77.7208,12.90882],[77.72079,12.9082],[77.72079,12.90815],[77.72119,12.9079],[77.72131,12.90785],[77.72187,12.90767],[77.72201,12.90763],[77.72204,12.90762],[77.72227,12.9075],[77.72269,12.90729],[77.7227,12.90728],[77.72281,12.90726],[77.72463,12.90691],[77.72486,12.90686],[77.72495,12.90684],[77.72628,12.90657],[77.72645,12.90713],[77.72674,12.90803],[77.72688,12.90859],[77.72693,12.9087],[77.72734,12.90985],[77.72761,12.91089],[77.72764,12.91213],[77.72765,12.91257],[77.72773,12.91342],[77.72776,12.91403],[77.72776,12.91418],[77.72776,12.91427],[77.72776,12.91446],[77.72777,12.9145],[77.72806,12.91447],[77.72853,12.91441],[77.72882,12.91447],[77.72973,12.91432],[77.73086,12.91413],[77.7309,12.91412],[77.73115,12.91405],[77.7319,12.91393],[77.73207,12.91391],[77.73234,12.91412],[77.73245,12.91421],[77.73267,12.9142],[77.73337,12.91415],[77.73375,12.91413],[77.73386,12.91412],[77.7339,12.91411],[77.73417,12.91407],[77.73435,12.91404],[77.73437,12.91404],[77.73436,12.91399],[77.73436,12.91372],[77.73435,12.91364],[77.73432,12.91354],[77.73436,12.91352],[77.7344,12.91334],[77.73445,12.9132],[77.73477,12.91326],[77.73493,12.91329],[77.73515,12.91331],[77.73548,12.91333],[77.73605,12.91338],[77.73636,12.9134],[77.73639,12.9134],[77.7374,12.91349],[77.7374,12.91361],[77.7374,12.91368],[77.7374,12.91442],[77.73742,12.91463],[77.73742,12.91468],[77.73742,12.91469],[77.73757,12.91477],[77.73784,12.91474],[77.73788,12.91476],[77.73802,12.91482],[77.73847,12.9146],[77.73876,12.91462],[77.73906,12.91465],[77.74037,12.91451],[77.74047,12.9145],[77.74091,12.91446],[77.74099,12.91445],[77.74103,12.91443],[77.7416,12.91413],[77.74164,12.9142],[77.7417,12.9143],[77.7418,12.91427],[77.74194,12.91426],[77.74196,12.91425],[77.74213,12.91409],[77.74235,12.91398],[77.74292,12.91392],[77.7433,12.91389],[77.74407,12.91386],[77.74457,12.91379],[77.74461,12.91373],[77.74467,12.91363],[77.74468,12.91373],[77.74478,12.91429],[77.74482,12.91428],[77.7449,12.91426],[77.74493,12.91426],[77.74494,12.91425],[77.74495,12.9143],[77.74523,12.91609],[77.74529,12.91616],[77.74533,12.91635],[77.74538,12.91696],[77.7455,12.91755],[77.74552,12.91825],[77.74557,12.9188],[77.74567,12.91934],[77.74568,12.91936],[77.74568,12.91937],[77.74573,12.91961],[77.74574,12.91965],[77.74579,12.91977],[77.74598,12.91996],[77.74614,12.92003],[77.74697,12.92038],[77.74707,12.92043],[77.74748,12.9206],[77.74851,12.92099],[77.74853,12.921],[77.74975,12.92147],[77.75121,12.92197],[77.75134,12.92201],[77.75135,12.92204],[77.75145,12.92232],[77.75174,12.92325],[77.75177,12.92336],[77.75211,12.92469],[77.75215,12.92481],[77.75219,12.92496],[77.75227,12.9253],[77.75297,12.92549],[77.7535,12.92562],[77.75432,12.92579],[77.75467,12.92583],[77.75472,12.92584],[77.75525,12.92597],[77.75538,12.92601],[77.75652,12.92625],[77.75666,12.92631],[77.75698,12.92641],[77.757,12.92642],[77.75703,12.92643],[77.75787,12.92679],[77.75839,12.927],[77.75844,12.92702],[77.75931,12.92729],[77.75991,12.92749],[77.76001,12.92753],[77.7605,12.92769],[77.76187,12.9282],[77.76235,12.92838],[77.76302,12.92849],[77.76326,12.92853],[77.7638,12.92862],[77.76459,12.92876],[77.76459,12.92877],[77.76463,12.92887],[77.76472,12.92913],[77.7651,12.93026],[77.76515,12.93037],[77.76524,12.93054],[77.76538,12.93083],[77.76542,12.93099],[77.7655,12.93126],[77.7656,12.93183],[77.76565,12.93208],[77.76567,12.93227],[77.76568,12.93242],[77.76576,12.93333],[77.7658,12.93343],[77.76632,12.93474],[77.76632,12.93475],[77.76639,12.93492],[77.76641,12.93496],[77.76605,12.93579],[77.766,12.93592],[77.76551,12.93702],[77.76551,12.93703],[77.7655,12.93705],[77.76551,12.93717],[77.76551,12.93731],[77.76555,12.93817],[77.76554,12.93881],[77.76554,12.93885],[77.76553,12.93998],[77.76545,12.94078],[77.76544,12.94082],[77.76528,12.9423],[77.7653,12.94349],[77.76532,12.94388],[77.76535,12.94409],[77.76536,12.94423],[77.76537,12.94427],[77.76544,12.9449],[77.76544,12.94493],[77.76546,12.94505],[77.76547,12.94516],[77.76547,12.94525],[77.76548,12.94527],[77.76548,12.9453],[77.76548,12.94534],[77.76551,12.94568],[77.76553,12.94582],[77.76559,12.94656],[77.76558,12.94662],[77.76529,12.94879],[77.76524,12.94919],[77.76523,12.94923],[77.76512,12.9501],[77.765,12.95051],[77.76499,12.95054],[77.76499,12.95083],[77.76499,12.95117],[77.76496,12.95121],[77.76471,12.95157],[77.7646,12.95206],[77.76455,12.95221],[77.76457,12.95292],[77.76455,12.95379],[77.76454,12.9545],[77.7646,12.95519],[77.7646,12.95535],[77.7646,12.95538],[77.76461,12.95548],[77.76462,12.95568],[77.76459,12.95575],[77.76455,12.95582],[77.7645,12.95593],[77.76447,12.95597],[77.76443,12.95602],[77.76442,12.95606],[77.76439,12.95613],[77.76439,12.9566],[77.76439,12.95662],[77.76439,12.95673],[77.76439,12.95732],[77.76439,12.95733],[77.76439,12.9574],[77.76448,12.95812],[77.76467,12.95945],[77.76472,12.95947],[77.7648,12.95949],[77.76481,12.9595],[77.76483,12.9595],[77.76486,12.95951],[77.76494,12.95987],[77.76496,12.95993],[77.765,12.95992],[77.76506,12.9599],[77.76553,12.95974],[77.76604,12.95956],[77.76651,12.95939],[77.76667,12.95933],[77.7667,12.95932],[77.76692,12.95943],[77.76688,12.95958],[77.76695,12.95956],[77.76699,12.95956],[77.767,12.95955],[77.76701,12.95951],[77.76702,12.95947],[77.76704,12.95948],[77.76705,12.95947],[77.76707,12.95948],[77.7671,12.95949],[77.7672,12.95953],[77.76722,12.95956],[77.76725,12.95962],[77.76746,12.96013],[77.76749,12.9602],[77.7675,12.96021],[77.76799,12.96041],[77.76814,12.96047],[77.76817,12.96056],[77.76839,12.96123],[77.76855,12.96135],[77.76856,12.96136],[77.76872,12.96147],[77.76895,12.96164],[77.76908,12.96166],[77.76926,12.96168],[77.76933,12.96169],[77.76974,12.96183],[77.76976,12.96183],[77.76985,12.96186],[77.76995,12.9619],[77.76999,12.96198],[77.77016,12.9623],[77.77033,12.96264],[77.77036,12.96269],[77.77037,12.9628],[77.77037,12.9629],[77.77037,12.96292],[77.77043,12.96291],[77.77051,12.9629],[77.77055,12.96289],[77.77066,12.96288],[77.77064,12.96301],[77.77063,12.96315],[77.77062,12.96321],[77.77051,12.96321],[77.77059,12.96354],[77.77064,12.96373],[77.77077,12.96422],[77.7712,12.96486],[77.77126,12.96495],[77.77129,12.96499],[77.77132,12.96503],[77.77205,12.96589],[77.77207,12.96592],[77.77209,12.96593],[77.77219,12.96594],[77.77289,12.96602],[77.77304,12.96604],[77.77315,12.96605],[77.77333,12.96607],[77.77335,12.96607],[77.77346,12.96608],[77.7735,12.96608],[77.77353,12.9661],[77.7736,12.96611],[77.77364,12.96611],[77.77396,12.96626],[77.77406,12.96631],[77.7742,12.96643],[77.77424,12.96644],[77.77442,12.96649],[77.77444,12.9665],[77.77446,12.96651],[77.77454,12.96653],[77.7746,12.96655],[77.77463,12.96656],[77.77466,12.96656],[77.77469,12.96657],[77.77478,12.96658],[77.77486,12.96661],[77.77507,12.96669],[77.77519,12.96683],[77.77522,12.96686],[77.77526,12.9669],[77.77578,12.96721],[77.77578,12.96722],[77.7758,12.96723],[77.77594,12.96731],[77.776,12.96734],[77.77618,12.96746],[77.77631,12.96753],[77.77635,12.96755],[77.77656,12.96763],[77.77666,12.96766],[77.77671,12.96767],[77.77685,12.9677],[77.77692,12.96772],[77.77694,12.96772],[77.7773,12.9678],[77.77731,12.9678],[77.77733,12.96781],[77.77742,12.96782],[77.77744,12.96806],[77.77744,12.96809],[77.77743,12.96809],[77.77746,12.9681],[77.77751,12.96812],[77.77758,12.96814],[77.7776,12.96815],[77.77762,12.96815],[77.77763,12.96816],[77.77764,12.96815],[77.7785,12.96782],[77.77864,12.96776],[77.77868,12.96774],[77.77884,12.96765],[77.77875,12.96736],[77.77867,12.96718],[77.7787,12.96697],[77.77877,12.96684],[77.77879,12.96682],[77.77879,12.96681],[77.7788,12.96681],[77.77895,12.96682],[77.77898,12.96682],[77.7793,12.96691],[77.7797,12.96704],[77.77989,12.9671],[77.78001,12.9671],[77.78024,12.96708],[77.78041,12.96708],[77.78065,12.96709],[77.78075,12.96707],[77.78084,12.96705],[77.78091,12.96704],[77.78096,12.96702],[77.78122,12.96694],[77.78126,12.96692],[77.78131,12.96689],[77.78145,12.9668],[77.78164,12.96652],[77.78178,12.96632],[77.78182,12.96629],[77.78188,12.96626],[77.78198,12.96621],[77.78204,12.96618],[77.78207,12.96618],[77.78212,12.96617],[77.78222,12.96621],[77.78237,12.96627],[77.78259,12.96636],[77.78306,12.96648],[77.78345,12.96657],[77.78382,12.96664],[77.78406,12.96673],[77.7842,12.96701],[77.78436,12.96856],[77.78391,12.96936],[77.78365,12.97062],[77.78326,12.97089],[77.78286,12.97099],[77.78197,12.97096],[77.78115,12.97077],[77.78083,12.97032],[77.78022,12.97016],[77.77921,12.97024],[77.77867,12.97048],[77.77863,12.97108],[77.77924,12.97224],[77.7786,12.97294],[77.77815,12.9734],[77.77768,12.97371],[77.77687,12.974],[77.77665,12.97431],[77.77616,12.97497],[77.77648,12.97535],[77.77668,12.97572],[77.77668,12.97602],[77.7769,12.9763],[77.77698,12.97641],[77.77714,12.97648],[77.77726,12.97654],[77.77767,12.97618],[77.77824,12.97622],[77.77862,12.9768],[77.77883,12.97716],[77.77856,12.97801],[77.77852,12.97813],[77.77843,12.97856],[77.77839,12.97858],[77.77836,12.9786],[77.77827,12.97862],[77.77817,12.97865],[77.778,12.97865],[77.77785,12.97859],[77.77769,12.97853],[77.77754,12.97847],[77.77733,12.97841],[77.77728,12.9784],[77.77703,12.97849],[77.77695,12.97859],[77.77688,12.97866],[77.77679,12.97878],[77.77648,12.97915],[77.77627,12.9794],[77.77625,12.97943],[77.77619,12.9795],[77.77609,12.97961],[77.77601,12.9797],[77.77584,12.9799],[77.77549,12.98005],[77.77503,12.98028],[77.77467,12.98046],[77.77469,12.98053],[77.7747,12.98059],[77.77476,12.98069],[77.77476,12.9807],[77.77479,12.98075],[77.77483,12.98082],[77.77487,12.98088],[77.77502,12.98107],[77.77503,12.98109],[77.77507,12.98114],[77.77525,12.98131],[77.77525,12.9814],[77.77523,12.9814],[77.77524,12.98156],[77.77537,12.98208],[77.77544,12.98216],[77.77544,12.98217],[77.77595,12.98237],[77.7761,12.9825],[77.77625,12.98294],[77.77665,12.98453],[77.77677,12.9848],[77.77678,12.98487],[77.77682,12.98497],[77.77685,12.98504],[77.77691,12.98519],[77.77685,12.98525],[77.77672,12.98534],[77.7767,12.98536],[77.77654,12.98545],[77.77646,12.98551],[77.77642,12.98554],[77.77634,12.98562],[77.77616,12.98578],[77.77615,12.98579],[77.77601,12.98607],[77.77598,12.98611],[77.77597,12.98614],[77.77587,12.98645],[77.77592,12.98684],[77.77594,12.98697],[77.77596,12.98696],[77.77596,12.98698],[77.77599,12.98716],[77.77601,12.98728],[77.77605,12.98743],[77.77606,12.98745],[77.7761,12.98758],[77.77613,12.98796],[77.77614,12.98807],[77.77614,12.98814],[77.77614,12.98815],[77.77615,12.98826],[77.77615,12.9883],[77.77606,12.98879],[77.77589,12.9895],[77.77582,12.9897],[77.77581,12.98976],[77.77572,12.99003],[77.77554,12.99029],[77.77554,12.99099],[77.77561,12.99151],[77.7755,12.99168],[77.77549,12.99171],[77.77545,12.99176],[77.77537,12.9918],[77.77521,12.99188],[77.77507,12.99195],[77.77505,12.99195],[77.77447,12.99186],[77.77412,12.99189],[77.77411,12.99198],[77.77414,12.99216],[77.7744,12.99368],[77.77441,12.99372],[77.77435,12.99377],[77.7743,12.99383],[77.77429,12.99379],[77.77416,12.99391],[77.77426,12.99449],[77.77433,12.99485],[77.77436,12.99503],[77.77438,12.99516],[77.77441,12.99529],[77.77457,12.9956],[77.77461,12.99568],[77.77463,12.99572],[77.77466,12.99576],[77.7745,12.99645],[77.77464,12.99708],[77.77459,12.99725],[77.77455,12.99736],[77.77449,12.99754],[77.77445,12.99791],[77.77495,12.99818],[77.77502,12.99819],[77.77498,12.99883],[77.77489,12.99933],[77.77483,12.99971],[77.77484,13.00006],[77.77485,13.00023],[77.77487,13.00039],[77.77495,13.00054],[77.775,13.00065],[77.77499,13.00086],[77.7749,13.00103],[77.77484,13.00111],[77.77476,13.00115],[77.77469,13.00115],[77.77404,13.00119],[77.77389,13.00122],[77.77382,13.00125],[77.77377,13.00133],[77.77374,13.00143],[77.77374,13.00161],[77.77373,13.00168],[77.77371,13.0018],[77.77368,13.00184],[77.77366,13.00188],[77.77363,13.00187],[77.77319,13.0019],[77.77303,13.0019],[77.77293,13.00191],[77.77286,13.00194],[77.77281,13.00198],[77.77275,13.0021],[77.77265,13.00224],[77.77258,13.0023],[77.77252,13.00237],[77.77247,13.00252],[77.77246,13.00259],[77.77246,13.00271],[77.7725,13.0028],[77.77265,13.00292],[77.77277,13.00297],[77.77301,13.00301],[77.77315,13.00305],[77.7735,13.00316],[77.77356,13.00315],[77.77375,13.00308],[77.77402,13.00298],[77.7743,13.00293],[77.77448,13.00291],[77.77468,13.00288],[77.77477,13.00288],[77.77483,13.0029],[77.77505,13.00302],[77.77524,13.0031],[77.7755,13.00333],[77.77562,13.00351],[77.7757,13.00397],[77.7757,13.0042],[77.77567,13.00471],[77.77573,13.00513],[77.77578,13.00524],[77.7758,13.00529],[77.77586,13.00541],[77.77589,13.00549],[77.77589,13.0057],[77.77587,13.0058],[77.77585,13.00588],[77.77581,13.00592],[77.77574,13.00599],[77.77568,13.00602],[77.77547,13.00608],[77.77535,13.00609],[77.7751,13.00609],[77.77502,13.0061],[77.77486,13.00616],[77.77481,13.00619],[77.77444,13.00636],[77.77433,13.00638],[77.77425,13.00637],[77.77422,13.00636],[77.77415,13.00629],[77.77403,13.00618],[77.77391,13.00614],[77.77377,13.0061],[77.77362,13.0061],[77.77348,13.00619],[77.77341,13.00626],[77.77337,13.00638],[77.77336,13.00653],[77.77338,13.0067],[77.7734,13.00705],[77.77343,13.00731],[77.77344,13.00794],[77.77343,13.00798],[77.77341,13.00806],[77.77331,13.00836],[77.77323,13.00858],[77.77322,13.00862],[77.77316,13.0091],[77.77317,13.00924],[77.77319,13.00933],[77.77322,13.00941],[77.77324,13.00945],[77.77331,13.0095],[77.77333,13.00952],[77.77335,13.00955],[77.77338,13.00965],[77.77337,13.0097],[77.77335,13.00976],[77.77331,13.00985],[77.77328,13.00993],[77.77327,13.01],[77.77327,13.0101],[77.77328,13.01018],[77.7733,13.01027],[77.77334,13.0103],[77.7734,13.01035],[77.77353,13.01041],[77.77373,13.01047],[77.77395,13.01059],[77.774,13.01065],[77.774,13.01069],[77.77398,13.01076],[77.77395,13.01083],[77.77392,13.01088],[77.77385,13.01094],[77.77378,13.011],[77.77373,13.01112],[77.77371,13.01125],[77.77372,13.01137],[77.77372,13.01144],[77.77374,13.0115],[77.77377,13.01154],[77.77384,13.01164],[77.77391,13.01175],[77.77392,13.01187],[77.77392,13.01199],[77.77392,13.01213],[77.77391,13.01219],[77.77389,13.01231],[77.77387,13.01235],[77.77386,13.01242],[77.77385,13.01246],[77.77386,13.01248],[77.77387,13.01252],[77.7739,13.01254],[77.77405,13.01265],[77.77434,13.01302],[77.77443,13.01315],[77.77444,13.01323],[77.77444,13.0133],[77.77444,13.01339],[77.77441,13.01346],[77.77437,13.01349],[77.77408,13.01349],[77.77388,13.01343],[77.77364,13.01342],[77.77343,13.01348],[77.77318,13.01368],[77.7731,13.01377],[77.7731,13.01386],[77.7731,13.01393],[77.77311,13.01405],[77.77315,13.01427],[77.77316,13.01438],[77.77296,13.01468],[77.77287,13.01482],[77.77285,13.01486],[77.77283,13.01486],[77.77258,13.01493],[77.77254,13.01495],[77.77251,13.01496],[77.77239,13.015],[77.77213,13.01509],[77.77174,13.01523],[77.77172,13.01524],[77.77167,13.01514],[77.77154,13.01508],[77.77149,13.01506],[77.77147,13.01505],[77.77146,13.01505],[77.77146,13.01504],[77.7714,13.01482],[77.77137,13.01467],[77.77127,13.01442],[77.77126,13.0143],[77.77126,13.01427],[77.77122,13.014],[77.77116,13.01382],[77.77113,13.01366],[77.77112,13.01364],[77.77111,13.01356],[77.77108,13.01342],[77.77107,13.01338],[77.77099,13.01311],[77.77086,13.0126],[77.77074,13.01243],[77.77067,13.01234],[77.77062,13.01216],[77.77058,13.01201],[77.77052,13.01179],[77.77051,13.01178],[77.7705,13.01174],[77.77046,13.01161],[77.77037,13.01156],[77.77035,13.0111],[77.77035,13.01109],[77.77023,13.01083],[77.77018,13.01048],[77.77016,13.01042],[77.77008,13.01025],[77.77005,13.01019],[77.77001,13.01004],[77.76998,13.00997],[77.76996,13.0099],[77.76993,13.00976],[77.76977,13.00937],[77.76978,13.00937],[77.76989,13.00933],[77.76991,13.00922],[77.76993,13.00914],[77.76987,13.00885],[77.7697,13.00886],[77.76969,13.00873],[77.76968,13.00841],[77.76971,13.0078],[77.76972,13.00767],[77.76972,13.00755],[77.76958,13.00647],[77.76954,13.00624],[77.76949,13.00593],[77.76941,13.00563],[77.76935,13.00539],[77.76931,13.00514],[77.76931,13.00512],[77.76928,13.00496],[77.76925,13.00474],[77.76923,13.00464],[77.76925,13.00464],[77.76936,13.00454],[77.76927,13.00425],[77.76914,13.00394],[77.76862,13.00273],[77.7686,13.00269],[77.76858,13.00265],[77.76779,13.00311],[77.76743,13.00322],[77.76738,13.00323],[77.76732,13.00325],[77.76731,13.00325],[77.76608,13.0035],[77.76587,13.00356],[77.7657,13.00361],[77.76554,13.00369],[77.76552,13.00369],[77.76548,13.00372],[77.76539,13.00374],[77.76457,13.00396],[77.76424,13.00404],[77.76414,13.00407],[77.76412,13.00407],[77.76383,13.00311],[77.76371,13.00293],[77.76368,13.00288],[77.76355,13.00284],[77.76347,13.00285],[77.7634,13.00295],[77.76331,13.00306],[77.76323,13.00316],[77.76314,13.0033],[77.76297,13.00353],[77.76283,13.0037],[77.76276,13.00383],[77.76272,13.00394],[77.76267,13.00415],[77.76258,13.00433],[77.76251,13.00444],[77.76246,13.00454],[77.7624,13.00468],[77.76236,13.00473],[77.76229,13.0048],[77.76225,13.00486],[77.7622,13.00492],[77.76211,13.00503],[77.76199,13.00512],[77.76186,13.00517],[77.76178,13.00519],[77.76163,13.00518],[77.76147,13.00515],[77.76138,13.0051],[77.76078,13.00495],[77.76038,13.00516],[77.76021,13.00525],[77.75982,13.0056],[77.75969,13.00571],[77.75966,13.00574],[77.75938,13.0061],[77.75941,13.00628],[77.75943,13.00647],[77.75959,13.00686],[77.75971,13.00719],[77.75962,13.00737],[77.75957,13.00747],[77.75934,13.0077],[77.75925,13.00778],[77.75915,13.00788],[77.75887,13.00794],[77.7587,13.00808],[77.75867,13.00811],[77.75819,13.00849],[77.75789,13.00861],[77.75736,13.00883],[77.7573,13.00888],[77.75707,13.00919],[77.75698,13.0093],[77.75671,13.00956],[77.75644,13.00978],[77.7562,13.00994],[77.75601,13.01007],[77.75566,13.01023],[77.75561,13.01024],[77.75543,13.01027],[77.75537,13.01026],[77.75534,13.01025],[77.75531,13.01024],[77.75526,13.01017],[77.7552,13.01001],[77.75517,13.00996],[77.75514,13.00988],[77.7551,13.00975],[77.75509,13.00922],[77.75502,13.00908],[77.75487,13.0089],[77.75482,13.00885],[77.75479,13.00884],[77.75474,13.00884],[77.75467,13.00888],[77.75464,13.00889],[77.75439,13.00906],[77.75404,13.0095],[77.75402,13.00953],[77.7536,13.00986],[77.75289,13.01043],[77.75284,13.01047],[77.75244,13.01071],[77.7523,13.01075],[77.75197,13.01083],[77.75188,13.01088],[77.75129,13.0112],[77.75104,13.01131],[77.75087,13.01137],[77.75077,13.01133],[77.75071,13.01131],[77.75068,13.0113],[77.75063,13.01128],[77.75033,13.01128],[77.75007,13.01132],[77.74984,13.01135],[77.74962,13.01151],[77.74966,13.01162],[77.7496,13.01168],[77.74946,13.01181],[77.74921,13.01204],[77.74913,13.01208],[77.74889,13.0122],[77.74879,13.01226],[77.74872,13.01229],[77.74828,13.01252],[77.74788,13.01273],[77.74785,13.01243],[77.7478,13.01157],[77.7478,13.0115],[77.74736,13.01162],[77.74722,13.01166],[77.74713,13.01135],[77.74701,13.01091],[77.74699,13.01085],[77.74692,13.01059],[77.74689,13.01048],[77.74694,13.01049],[77.74703,13.0105],[77.7471,13.01019],[77.74711,13.01015],[77.74712,13.01013],[77.74715,13.01],[77.74716,13.00997],[77.7472,13.00984],[77.74706,13.00966],[77.74703,13.00962],[77.74697,13.00958],[77.74695,13.00957],[77.74695,13.00935],[77.74695,13.00865],[77.74695,13.00854],[77.74695,13.00837],[77.74694,13.00807],[77.74691,13.00798],[77.74688,13.00785],[77.74688,13.00772],[77.74687,13.0073],[77.74687,13.00723],[77.74687,13.0072],[77.74697,13.0072],[77.74705,13.0072],[77.74714,13.00719],[77.74711,13.00704],[77.74711,13.00703],[77.7471,13.007],[77.74709,13.00682],[77.74688,13.0068],[77.74683,13.00682],[77.74619,13.00701],[77.74556,13.00712],[77.74515,13.00717],[77.74457,13.0072],[77.74425,13.00718],[77.74389,13.00714],[77.74337,13.00707],[77.74327,13.00707],[77.74315,13.00707],[77.74111,13.00714],[77.74105,13.00738],[77.74094,13.00788],[77.7409,13.00805],[77.74088,13.00813],[77.7408,13.00811],[77.74078,13.00811],[77.74045,13.00806],[77.74037,13.00806],[77.74033,13.00805],[77.73985,13.00795],[77.73923,13.00781],[77.7389,13.00776],[77.73857,13.00764],[77.73851,13.00762],[77.73848,13.00762],[77.73814,13.00758],[77.73804,13.00761],[77.73804,13.00767],[77.73777,13.00771],[77.7366,13.00788],[77.73623,13.00766],[77.73615,13.00761],[77.73615,13.00804],[77.73615,13.00828],[77.73616,13.00837],[77.73624,13.00912],[77.73625,13.00943],[77.73624,13.00977],[77.73623,13.01028],[77.73623,13.01076],[77.73567,13.01093],[77.73559,13.01091],[77.7341,13.01026],[77.73396,13.0102],[77.73387,13.01025],[77.73336,13.01048],[77.73307,13.01067],[77.73284,13.01077],[77.73244,13.0108],[77.73213,13.01077],[77.73141,13.01082],[77.73093,13.0108],[77.73049,13.01078],[77.73048,13.01078],[77.73025,13.01076],[77.72958,13.01071],[77.72957,13.01071],[77.72869,13.01061],[77.72852,13.01058],[77.72833,13.01054],[77.72823,13.01054],[77.72808,13.01054],[77.7281,13.01061],[77.72827,13.01155],[77.72829,13.01165],[77.72832,13.01189],[77.72836,13.0127],[77.72838,13.01303],[77.72839,13.01308],[77.72839,13.01309],[77.72842,13.01326],[77.72866,13.01445],[77.7288,13.01476],[77.72906,13.01537],[77.7291,13.01546],[77.72914,13.01559],[77.72916,13.01564],[77.72938,13.0163],[77.72938,13.01632],[77.72946,13.01658],[77.72977,13.01759],[77.7298,13.0177],[77.73005,13.01872],[77.73012,13.01904],[77.73012,13.01905],[77.73009,13.01982],[77.72989,13.01999],[77.7295,13.0202],[77.72944,13.02037],[77.72941,13.0204],[77.72939,13.02043],[77.72937,13.02046],[77.72629,13.02502],[77.72612,13.02528],[77.72599,13.02547],[77.72566,13.02594],[77.72555,13.02588],[77.72517,13.02593],[77.72515,13.02593],[77.72515,13.02639],[77.72515,13.02661],[77.72511,13.02712],[77.72494,13.02787],[77.72483,13.02847],[77.72482,13.02854],[77.72481,13.02869],[77.7248,13.02887],[77.72478,13.02902],[77.72477,13.02914],[77.72472,13.02973],[77.72468,13.03009],[77.72473,13.03025],[77.72476,13.03035],[77.7248,13.03047],[77.72479,13.0309],[77.7249,13.03152],[77.72491,13.03155],[77.7249,13.03197],[77.7249,13.03201],[77.72485,13.03241],[77.72475,13.03244],[77.72432,13.03254],[77.72419,13.03257],[77.72402,13.03334],[77.724,13.03343],[77.72399,13.03346],[77.7239,13.03357],[77.72335,13.03351],[77.72222,13.03382],[77.72152,13.03404],[77.72145,13.03406],[77.72144,13.03406],[77.72145,13.03411],[77.72133,13.03397],[77.72118,13.03385],[77.72072,13.03377],[77.71958,13.03337],[77.7182,13.03306],[77.71811,13.03304],[77.71777,13.03298],[77.71742,13.0329],[77.71738,13.03265],[77.71736,13.03255],[77.71736,13.03231],[77.71734,13.0317],[77.71734,13.03158],[77.71724,13.03158],[77.71618,13.03172],[77.71609,13.03172],[77.71604,13.03172],[77.71601,13.03172],[77.71599,13.03184],[77.71578,13.03188],[77.71579,13.03189],[77.71565,13.0319],[77.71513,13.03193],[77.71508,13.03194],[77.71496,13.03195],[77.71391,13.03062],[77.71388,13.03058],[77.71383,13.03051],[77.71349,13.03009],[77.71324,13.02978],[77.71196,13.02819],[77.7119,13.02809],[77.71094,13.02645],[77.71085,13.02631],[77.71064,13.02595],[77.71066,13.02594],[77.70965,13.02551],[77.70917,13.02531],[77.70915,13.0253],[77.70898,13.02537],[77.70793,13.02578],[77.70691,13.02599],[77.70592,13.02619],[77.70524,13.0261],[77.70512,13.02609],[77.7046,13.02601],[77.70456,13.026],[77.70435,13.02597],[77.70398,13.02591],[77.70372,13.02586],[77.70347,13.02582],[77.7034,13.02581],[77.70292,13.02565],[77.70288,13.02563],[77.70157,13.0251],[77.70119,13.02495],[77.70131,13.02537],[77.70151,13.02642],[77.70166,13.02726],[77.70168,13.02744],[77.69857,13.02717],[77.69847,13.02716],[77.69775,13.02706],[77.697,13.02697],[77.69662,13.02694],[77.69658,13.02693],[77.69612,13.0269],[77.69609,13.02689],[77.69438,13.02674],[77.69423,13.02657],[77.6941,13.02641],[77.69392,13.02626],[77.69337,13.02588],[77.69333,13.02585],[77.69275,13.02539],[77.69267,13.02532],[77.69205,13.0248],[77.69195,13.02472],[77.69171,13.02453],[77.69137,13.02426],[77.69094,13.02389],[77.6909,13.02386],[77.69037,13.02345],[77.69032,13.02341],[77.69007,13.02321],[77.68946,13.0227],[77.68922,13.02249],[77.68877,13.02211],[77.68859,13.02198],[77.68793,13.02213],[77.68786,13.02214],[77.68719,13.02229],[77.68703,13.02232],[77.68653,13.02251],[77.68646,13.02253],[77.68585,13.02263],[77.6854,13.0227],[77.68505,13.02274],[77.68463,13.0228],[77.6846,13.0228],[77.68439,13.02283],[77.68418,13.02286],[77.68396,13.02289],[77.68383,13.0229],[77.68371,13.02354],[77.68369,13.02367],[77.68368,13.02374],[77.68365,13.02388],[77.68354,13.02448],[77.68343,13.02522],[77.68343,13.02527],[77.68343,13.02532],[77.68337,13.0257],[77.6833,13.02607],[77.68329,13.02613],[77.68327,13.02628],[77.6832,13.02685],[77.6832,13.02687],[77.68315,13.02764],[77.68315,13.02821],[77.68315,13.02842],[77.68316,13.02863],[77.68316,13.02878],[77.68318,13.02893],[77.68323,13.02931],[77.68324,13.02947],[77.68326,13.02967],[77.68329,13.03001],[77.68333,13.03073],[77.68339,13.03141],[77.68339,13.03144],[77.6834,13.03165],[77.6834,13.03169],[77.68351,13.03201],[77.68353,13.0326],[77.68354,13.03312],[77.68354,13.03321],[77.68363,13.03324],[77.68362,13.03332],[77.68362,13.03335],[77.68361,13.03359],[77.6836,13.03364],[77.6836,13.0337],[77.68363,13.03394],[77.68363,13.03397],[77.68365,13.03416],[77.68365,13.03418],[77.68361,13.03438],[77.68362,13.03476],[77.68373,13.03495],[77.68373,13.03502],[77.68374,13.03509],[77.68375,13.03525],[77.68379,13.03539],[77.68381,13.03554],[77.68382,13.03579],[77.68386,13.03606],[77.68388,13.03628],[77.684,13.03668],[77.68397,13.03725],[77.684,13.03755],[77.68401,13.03759],[77.68402,13.03765],[77.68409,13.03809],[77.68416,13.03847],[77.68416,13.03849],[77.68427,13.03909],[77.68427,13.03911],[77.6843,13.03925],[77.68438,13.03966],[77.68439,13.03976],[77.68443,13.03994],[77.68445,13.04004],[77.68448,13.04018],[77.68448,13.04019],[77.6845,13.04026],[77.68452,13.04039],[77.68453,13.04042],[77.68454,13.04051],[77.68455,13.04053],[77.68457,13.04066],[77.68458,13.04074],[77.6846,13.04085],[77.68461,13.04087],[77.68461,13.04088],[77.68461,13.04089],[77.68463,13.04106],[77.68463,13.04109],[77.68467,13.0413],[77.6847,13.04145],[77.68473,13.04163],[77.68475,13.04179],[77.68478,13.04202],[77.68478,13.04207],[77.68484,13.04254],[77.68484,13.04256],[77.68485,13.04265],[77.68486,13.04273],[77.68487,13.04287],[77.68487,13.0429],[77.68488,13.04292],[77.68489,13.04313],[77.6849,13.04328],[77.68491,13.04338],[77.68493,13.0436],[77.68494,13.04378],[77.68498,13.04428],[77.68498,13.04434],[77.68499,13.04444],[77.685,13.04448],[77.685,13.04458],[77.68502,13.04476],[77.68503,13.04484],[77.68504,13.04496],[77.68504,13.04501],[77.68505,13.04504],[77.68505,13.04508],[77.68505,13.04511],[77.68494,13.0456],[77.68482,13.04616],[77.68479,13.04633],[77.68461,13.04715],[77.68455,13.04741],[77.68448,13.04773],[77.68443,13.04799],[77.68437,13.04823],[77.68397,13.05011],[77.6838,13.0501],[77.6838,13.05003],[77.68366,13.05004],[77.68361,13.04996],[77.68317,13.05028],[77.68291,13.05046],[77.6823,13.05089],[77.68179,13.05129],[77.68168,13.05138],[77.68104,13.05188],[77.68065,13.05207],[77.68055,13.05212],[77.6802,13.0523],[77.67992,13.05243],[77.67981,13.05249],[77.67953,13.05245],[77.67931,13.05242],[77.67919,13.05243],[77.67892,13.05243],[77.6789,13.05243],[77.67878,13.05243],[77.67866,13.05244],[77.67858,13.05244],[77.6784,13.05244],[77.67796,13.05246],[77.6765,13.05253],[77.67617,13.05254],[77.67584,13.05254],[77.67581,13.05255],[77.67565,13.05255],[77.67556,13.05243],[77.67534,13.05213],[77.67528,13.05205],[77.67526,13.05202],[77.6752,13.05195],[77.67518,13.05193],[77.6751,13.05183],[77.67489,13.05159],[77.67484,13.05154],[77.67469,13.05137],[77.67441,13.05117],[77.67397,13.05091],[77.67394,13.05089],[77.6739,13.05088],[77.67383,13.05083],[77.67378,13.05079],[77.67318,13.05079],[77.67298,13.05079],[77.67245,13.05112],[77.67236,13.05115],[77.6721,13.05125],[77.67156,13.05124],[77.67129,13.05111],[77.67114,13.0509],[77.6707,13.05066],[77.67005,13.05025],[77.67002,13.0501],[77.66946,13.05008],[77.66932,13.04993],[77.66808,13.04993],[77.66782,13.04993],[77.66746,13.04996],[77.66598,13.05002],[77.66576,13.05003],[77.66425,13.05081],[77.66451,13.0517],[77.66461,13.05206],[77.66462,13.05208],[77.66463,13.05211],[77.66493,13.05368],[77.66526,13.05478],[77.66526,13.05485],[77.66535,13.05609],[77.6654,13.05677],[77.66547,13.05764],[77.66552,13.0589],[77.66556,13.05972],[77.6656,13.06064],[77.66637,13.06219],[77.66639,13.06224],[77.66656,13.06261],[77.667,13.06355],[77.6673,13.06405],[77.66728,13.06414],[77.66719,13.06476],[77.6671,13.06531],[77.66707,13.06551],[77.66706,13.06556],[77.66705,13.06563],[77.66704,13.06575],[77.66703,13.06582],[77.66703,13.06583],[77.66702,13.0659],[77.66579,13.06621],[77.6636,13.06698],[77.66256,13.06724],[77.66189,13.0674],[77.66179,13.06742],[77.66179,13.06743],[77.66095,13.06766],[77.66025,13.06785],[77.66009,13.06788],[77.66001,13.06794],[77.6598,13.0681],[77.6597,13.06818],[77.65966,13.06821],[77.65965,13.06837],[77.65961,13.06849],[77.65959,13.06853],[77.65953,13.06874],[77.65915,13.06985],[77.65908,13.07004],[77.65897,13.07037],[77.65896,13.0704],[77.65892,13.07052],[77.65884,13.07075],[77.65875,13.07095],[77.65864,13.0712],[77.65842,13.07175],[77.65786,13.07288],[77.65782,13.07297],[77.65769,13.07313],[77.65747,13.0734],[77.65735,13.07356],[77.65722,13.07371],[77.65649,13.07461],[77.65646,13.07409],[77.65646,13.07394],[77.65647,13.07386],[77.65646,13.07363],[77.65646,13.07353],[77.65643,13.07293],[77.65647,13.07158],[77.65647,13.07106],[77.65647,13.07099],[77.65647,13.07094],[77.65646,13.07047],[77.65645,13.06949],[77.65645,13.06885],[77.65646,13.06864],[77.65652,13.06782],[77.65636,13.06708],[77.65629,13.06634],[77.65624,13.06601],[77.65623,13.06595],[77.6562,13.06575],[77.65615,13.06565],[77.65609,13.06529],[77.65597,13.06449],[77.65593,13.06423],[77.6559,13.06406],[77.65586,13.06321],[77.65582,13.06221],[77.65578,13.06166],[77.65575,13.06128],[77.65572,13.06081],[77.65571,13.06079],[77.65563,13.0601],[77.65553,13.0596],[77.65548,13.05933],[77.65545,13.05853],[77.65545,13.0584],[77.65538,13.05754],[77.65538,13.05699],[77.65548,13.05667],[77.65552,13.05653],[77.65535,13.05604],[77.65533,13.05598],[77.65527,13.05572],[77.65516,13.05526],[77.65513,13.05515],[77.65552,13.05507],[77.65549,13.0544],[77.65555,13.05404],[77.65552,13.05385],[77.65546,13.05331],[77.65553,13.05269],[77.65553,13.05266],[77.65534,13.05125],[77.65519,13.05093],[77.65515,13.05054],[77.65515,13.05051],[77.65515,13.05048],[77.65499,13.04988],[77.65489,13.04951],[77.65485,13.04889],[77.65498,13.04851],[77.65508,13.04819],[77.65512,13.04808],[77.65563,13.04804],[77.6558,13.04812],[77.6561,13.0481],[77.65614,13.04684],[77.6552,13.0467],[77.65462,13.04665],[77.65386,13.04658],[77.65342,13.04655],[77.65339,13.04655],[77.65335,13.04655],[77.65287,13.04656],[77.65278,13.04662],[77.65217,13.04708],[77.6513,13.0473],[77.65056,13.04749],[77.65032,13.04758],[77.65022,13.04762],[77.64998,13.04773],[77.64968,13.04779],[77.64914,13.0479],[77.64901,13.04789],[77.64878,13.04788],[77.64857,13.04798],[77.64839,13.04795],[77.64835,13.04795],[77.64816,13.04802],[77.64785,13.04803],[77.64774,13.04804],[77.64744,13.04806],[77.64724,13.04822],[77.6472,13.04832],[77.6472,13.04841],[77.64735,13.04864],[77.64747,13.04887],[77.64727,13.04906],[77.64742,13.04941],[77.64723,13.04947],[77.6472,13.04948],[77.64705,13.04951],[77.64731,13.0499],[77.64785,13.05062],[77.64799,13.05073],[77.64801,13.05085],[77.64802,13.05092],[77.64795,13.05111],[77.64774,13.05156],[77.64748,13.05198],[77.64725,13.05273],[77.64721,13.05337],[77.64715,13.05359],[77.6471,13.05424],[77.64714,13.05425],[77.64718,13.05425],[77.64732,13.05427],[77.64733,13.05506],[77.6473,13.05538],[77.64728,13.0557],[77.64714,13.05566],[77.6471,13.05565],[77.647,13.05604],[77.64696,13.05616],[77.64709,13.0566],[77.64713,13.05674],[77.64706,13.05686],[77.64691,13.05727],[77.64703,13.05752],[77.64779,13.0575],[77.64794,13.05761],[77.64807,13.05761],[77.64848,13.05763],[77.64851,13.05764],[77.64864,13.05766],[77.64889,13.05771],[77.64896,13.05812],[77.64899,13.05826],[77.64907,13.05883],[77.64959,13.05881],[77.64986,13.05884],[77.65003,13.05886],[77.65013,13.05887],[77.6508,13.05885],[77.65108,13.05882],[77.65161,13.0587],[77.65162,13.05873],[77.65163,13.05876],[77.65172,13.05948],[77.6518,13.05981],[77.65189,13.06006],[77.65192,13.06029],[77.65196,13.06075],[77.65195,13.06094],[77.65198,13.06163],[77.65198,13.06246],[77.65201,13.06279],[77.65201,13.0632],[77.65197,13.06405],[77.65192,13.06463],[77.65189,13.06496],[77.65183,13.06574],[77.65175,13.06684],[77.65166,13.06862],[77.65165,13.06892],[77.65163,13.06976],[77.65159,13.07098],[77.65151,13.07155],[77.65151,13.07157],[77.65141,13.07241],[77.65125,13.0739],[77.6512,13.07441],[77.65117,13.07479],[77.65108,13.0754],[77.65105,13.07558],[77.65089,13.07629],[77.6508,13.07662],[77.65066,13.07709],[77.65068,13.07797],[77.65051,13.0786],[77.64987,13.08038],[77.64976,13.08086],[77.64961,13.0813],[77.6496,13.08131],[77.64958,13.08133],[77.64938,13.08157],[77.64872,13.08244],[77.64861,13.08259],[77.6486,13.0826],[77.64837,13.08293],[77.64836,13.08294],[77.64816,13.08321],[77.6481,13.08329],[77.64801,13.08341],[77.64764,13.08381],[77.64709,13.08444],[77.6466,13.08515],[77.64657,13.08536],[77.64655,13.08558],[77.64654,13.086],[77.64653,13.08613],[77.64652,13.08628],[77.64627,13.08631],[77.64619,13.08632],[77.64587,13.08636],[77.64346,13.08669],[77.64302,13.08679],[77.6427,13.08689],[77.64327,13.08811],[77.64588,13.09342],[77.64602,13.09372],[77.64666,13.09502],[77.6468,13.09531],[77.64681,13.09532],[77.6471,13.09625],[77.6473,13.0969],[77.64751,13.09756],[77.64753,13.09763],[77.64757,13.09773],[77.64791,13.0982],[77.64792,13.09822],[77.64818,13.0987],[77.64834,13.09897],[77.64845,13.09916],[77.64846,13.09924],[77.64849,13.09937],[77.64854,13.09944],[77.64861,13.09965],[77.64872,13.09995],[77.64875,13.10002],[77.64875,13.1001],[77.64879,13.1002],[77.64885,13.10035],[77.64886,13.10046],[77.64893,13.10069],[77.64902,13.10111],[77.64906,13.10132],[77.64912,13.10169],[77.64953,13.1026],[77.64956,13.1027],[77.64962,13.10288],[77.64964,13.10293],[77.65013,13.10422],[77.65023,13.10446],[77.65024,13.10449],[77.65032,13.10466],[77.6503,13.10466],[77.64939,13.10486],[77.6457,13.10543],[77.6447,13.10559],[77.64428,13.10566],[77.64423,13.10567],[77.64406,13.10569],[77.64393,13.10572],[77.64385,13.10574],[77.64323,13.1056],[77.64296,13.10553],[77.64224,13.10549],[77.64204,13.10551],[77.64192,13.10554],[77.64181,13.10557],[77.64168,13.10558],[77.64128,13.10566],[77.64117,13.10569],[77.64085,13.10578],[77.64076,13.1058],[77.64068,13.10581],[77.64059,13.10581],[77.64033,13.10583],[77.63999,13.10585],[77.63997,13.10586],[77.63952,13.10597],[77.63947,13.10598],[77.63932,13.10603],[77.63896,13.10606],[77.63834,13.10612],[77.63811,13.10614],[77.63773,13.10617],[77.63737,13.10622],[77.63728,13.10623],[77.63721,13.10624],[77.63702,13.10627],[77.63703,13.10636],[77.63701,13.10637],[77.63695,13.10638],[77.63699,13.10649],[77.63699,13.10655],[77.63703,13.1074],[77.63724,13.10788],[77.63747,13.10842],[77.63748,13.10845],[77.63754,13.10881],[77.63761,13.10921],[77.63761,13.10923],[77.63762,13.10932],[77.6377,13.1098],[77.63786,13.11039],[77.63798,13.11091],[77.638,13.11099],[77.63813,13.11146],[77.63825,13.11198],[77.63856,13.11319],[77.63858,13.11322],[77.63859,13.11322],[77.6386,13.11326],[77.6386,13.11327],[77.63862,13.11342],[77.63737,13.11535],[77.6373,13.11545],[77.63727,13.11549],[77.6372,13.1156],[77.637,13.1159],[77.63683,13.11615],[77.63641,13.11678],[77.6363,13.11695],[77.63565,13.118],[77.63513,13.11882],[77.63456,13.11967],[77.63443,13.11989],[77.63422,13.12021],[77.63354,13.12126],[77.63342,13.12145],[77.63325,13.12171],[77.63306,13.12202],[77.63279,13.12242],[77.63276,13.12248],[77.63269,13.12258],[77.63225,13.12325],[77.63183,13.12392],[77.63157,13.12433],[77.6306,13.12594],[77.63035,13.12607],[77.6291,13.12642],[77.62668,13.12717],[77.62667,13.12718],[77.62605,13.12739],[77.62603,13.1274],[77.62587,13.12746],[77.62521,13.12795],[77.62475,13.12818],[77.62401,13.12858],[77.62307,13.12909],[77.6216,13.12989],[77.62084,13.13029],[77.62038,13.13054],[77.6203,13.13058],[77.62027,13.1306],[77.62014,13.13066],[77.62013,13.13067],[77.61985,13.13082],[77.6184,13.1316],[77.61786,13.13154],[77.61657,13.13134],[77.61656,13.13134],[77.61601,13.13125],[77.61578,13.13121],[77.61571,13.1312],[77.61569,13.1312],[77.61553,13.13117],[77.6154,13.13129],[77.61537,13.13131],[77.61536,13.13133],[77.61532,13.13136],[77.61529,13.13138],[77.61528,13.1314],[77.6151,13.13146],[77.61508,13.13147],[77.61507,13.13147],[77.61484,13.13155],[77.61464,13.13163],[77.61458,13.13166],[77.61442,13.13177],[77.61428,13.13185],[77.61425,13.13187],[77.61409,13.13197],[77.61264,13.13288],[77.61248,13.13298],[77.61244,13.13301],[77.61243,13.13301],[77.61168,13.13311],[77.61093,13.13324],[77.61049,13.13328],[77.61048,13.13331],[77.60889,13.13354],[77.60428,13.13426],[77.60313,13.13431],[77.6019,13.13431],[77.60184,13.13431],[77.60052,13.13294],[77.59962,13.13203],[77.59955,13.13208],[77.59766,13.13264],[77.59657,13.13293],[77.5891,13.1333],[77.58909,13.1333],[77.58851,13.1333],[77.58833,13.1333],[77.58829,13.1333],[77.58732,13.13333],[77.58679,13.13336],[77.58621,13.13331],[77.58575,13.1333],[77.58569,13.1333],[77.58582,13.13275],[77.58586,13.1326],[77.58563,13.1326],[77.58534,13.13269],[77.58521,13.13275],[77.58519,13.13277]],[[77.67233,12.88465],[77.67109,12.88488],[77.67165,12.88478],[77.67233,12.88465]],[[77.61556,13.13059],[77.61545,13.13028],[77.61549,13.1304],[77.61556,13.13059]],[[77.56315,13.11613],[77.56295,13.11622],[77.56311,13.11615],[77.56315,13.11613]],[[77.51941,13.07365],[77.51956,13.0736],[77.51974,13.07353],[77.51941,13.07365]],[[77.46516,12.89963],[77.4649,12.89937],[77.46475,12.89923],[77.46516,12.89963]],[[77.67259,12.89308],[77.67296,12.89303],[77.67271,12.89306],[77.67259,12.89308]],[[77.73859,13.0072],[77.73861,13.00691],[77.73862,13.00666],[77.73859,13.0072]],[[77.51093,12.92891],[77.50998,12.92891],[77.50984,12.92891],[77.50984,12.92892],[77.50984,12.92893],[77.50984,12.92903],[77.50984,12.92904],[77.50984,12.92908],[77.5098,12.92908],[77.50979,12.92908],[77.50969,12.92909],[77.50925,12.92911],[77.50924,12.92911],[77.50921,12.92911],[77.50918,12.92911],[77.50913,12.92911],[77.5086,12.92913],[77.50856,12.92914],[77.50851,12.92914],[77.50849,12.92914],[77.50844,12.92914],[77.50825,12.92914],[77.50823,12.92913],[77.50819,12.92913],[77.50818,12.92913],[77.50812,12.92911],[77.50811,12.92911],[77.50803,12.92909],[77.50801,12.92909],[77.50798,12.92908],[77.50793,12.92907],[77.50772,12.92903],[77.50765,12.92902],[77.5076,12.92902],[77.50757,12.92902],[77.50756,12.92902],[77.50755,12.92902],[77.50752,12.92903],[77.50747,12.92904],[77.50729,12.9291],[77.50705,12.92918],[77.50692,12.92923],[77.50685,12.92925],[77.50678,12.92928],[77.50673,12.92929],[77.50672,12.9293],[77.5067,12.92931],[77.50662,12.92934],[77.50661,12.92934],[77.50631,12.92951],[77.50624,12.92955],[77.50623,12.92955],[77.5062,12.92956],[77.50618,12.92957],[77.50617,12.92957],[77.50614,12.92957],[77.50602,12.92959],[77.50583,12.92961],[77.50556,12.92963],[77.50554,12.92963],[77.50553,12.92964],[77.50552,12.92964],[77.50551,12.92964],[77.50551,12.92965],[77.50548,12.92967],[77.50545,12.92968],[77.5054,12.92971],[77.50541,12.92972],[77.50552,12.92979],[77.50565,12.92991],[77.50587,12.93021],[77.506,12.93045],[77.50613,12.93075],[77.50626,12.93102],[77.50634,12.93115],[77.50646,12.93126],[77.5067,12.93145],[77.50689,12.93158],[77.50767,12.93213],[77.5081,12.93242],[77.50829,12.93255],[77.5086,12.93277],[77.50883,12.93296],[77.50896,12.9331],[77.50909,12.93299],[77.50957,12.93299],[77.50987,12.93291],[77.51036,12.93273],[77.51068,12.93252],[77.51089,12.93248],[77.51089,12.93238],[77.5109,12.93228],[77.51089,12.93198],[77.51086,12.93156],[77.51083,12.93128],[77.51081,12.931],[77.51083,12.93077],[77.51083,12.93076],[77.51086,12.93056],[77.51089,12.93029],[77.51089,12.93028],[77.5109,12.93023],[77.51091,12.93007],[77.51091,12.92994],[77.51092,12.9298],[77.51092,12.92979],[77.51092,12.92977],[77.51092,12.92974],[77.51092,12.92973],[77.51093,12.92949],[77.51093,12.92945],[77.51093,12.92942],[77.51093,12.9294],[77.51093,12.92928],[77.51093,12.92923],[77.51093,12.92912],[77.51093,12.92895],[77.51093,12.92891]],[[77.65581,12.85886],[77.65504,12.85923],[77.65554,12.85899],[77.65581,12.85886]],[[77.6461,13.08434],[77.64552,13.08339],[77.64595,13.0841],[77.6461,13.08434]],[[77.54925,12.90914],[77.54867,12.90931],[77.54835,12.90941],[77.54826,12.90944],[77.54812,12.90948],[77.54796,12.90952],[77.54761,12.90961],[77.54759,12.90961],[77.54733,12.90967],[77.54726,12.90968],[77.54703,12.90973],[77.547,12.90973],[77.54709,12.90999],[77.54708,12.91013],[77.54708,12.91027],[77.54706,12.91077],[77.54709,12.91086],[77.54711,12.91127],[77.54712,12.9113],[77.54715,12.91131],[77.54764,12.91143],[77.54801,12.91152],[77.54802,12.91151],[77.54802,12.91141],[77.54905,12.91137],[77.54906,12.91145],[77.54929,12.91147],[77.54933,12.91146],[77.54971,12.91136],[77.54967,12.91103],[77.54978,12.91039],[77.5498,12.91035],[77.55001,12.91012],[77.5503,12.90978],[77.55018,12.90969],[77.55002,12.90957],[77.54958,12.90934],[77.54944,12.90926],[77.54925,12.90914]],[[77.70825,12.91113],[77.70828,12.91078],[77.70831,12.91036],[77.70825,12.91113]],[[77.76592,12.96234],[77.76581,12.96235],[77.76566,12.96237],[77.76592,12.96234]],[[77.62948,13.11036],[77.62881,13.10961],[77.62858,13.10933],[77.62816,13.10861],[77.62789,13.10835],[77.62752,13.10812],[77.62735,13.10796],[77.62715,13.10747],[77.6269,13.10689],[77.62666,13.10667],[77.62663,13.10659],[77.62646,13.10638],[77.62624,13.10613],[77.62614,13.10589],[77.62611,13.10572],[77.62609,13.1055],[77.62606,13.10524],[77.62607,13.10515],[77.62599,13.10502],[77.62608,13.10499],[77.62625,13.10496],[77.62646,13.10484],[77.62673,13.10466],[77.62699,13.10451],[77.62715,13.10445],[77.62735,13.10469],[77.62754,13.10492],[77.62765,13.10502],[77.62775,13.10508],[77.6278,13.10508],[77.62786,13.10507],[77.62792,13.10503],[77.62799,13.10498],[77.62805,13.10491],[77.62824,13.10483],[77.62847,13.10477],[77.62857,13.10475],[77.62864,13.10472],[77.62877,13.10467],[77.62917,13.1046],[77.62947,13.10456],[77.62924,13.10362],[77.62919,13.10341],[77.62915,13.10327],[77.62909,13.10248],[77.62908,13.10245],[77.6289,13.10247],[77.62869,13.1025],[77.6279,13.10263],[77.62777,13.10265],[77.62703,13.10279],[77.62613,13.10291],[77.62551,13.10302],[77.62545,13.10304],[77.62497,13.10313],[77.62463,13.10319],[77.62388,13.10334],[77.62341,13.10342],[77.62326,13.10345],[77.62321,13.10346],[77.62302,13.10349],[77.62291,13.10351],[77.62277,13.10352],[77.62266,13.10352],[77.62259,13.10352],[77.62247,13.10352],[77.6224,13.10352],[77.62233,13.10353],[77.62233,13.10357],[77.62232,13.10364],[77.62234,13.10382],[77.62234,13.10393],[77.62238,13.10411],[77.62235,13.1043],[77.62235,13.10446],[77.62235,13.10454],[77.62247,13.10527],[77.62253,13.1055],[77.6226,13.10585],[77.62264,13.10614],[77.62278,13.10611],[77.6228,13.10628],[77.62294,13.10704],[77.62295,13.10717],[77.62295,13.10718],[77.62295,13.10727],[77.6229,13.10732],[77.62282,13.10736],[77.62273,13.10736],[77.62254,13.10736],[77.62245,13.10741],[77.62244,13.10743],[77.62207,13.1076],[77.62194,13.10767],[77.62178,13.1077],[77.62156,13.10769],[77.62104,13.10778],[77.62106,13.10786],[77.62088,13.10797],[77.62074,13.10811],[77.62085,13.10817],[77.62098,13.10823],[77.62112,13.1084],[77.62147,13.10892],[77.62163,13.10924],[77.62208,13.11015],[77.62263,13.1101],[77.62301,13.11007],[77.62342,13.1101],[77.62347,13.11011],[77.62369,13.11012],[77.62392,13.11013],[77.62456,13.11013],[77.6248,13.11016],[77.62483,13.11022],[77.62519,13.11026],[77.62543,13.11029],[77.62558,13.1103],[77.62579,13.11033],[77.62579,13.11027],[77.62582,13.11022],[77.62589,13.11023],[77.62613,13.11028],[77.62652,13.11035],[77.62682,13.11042],[77.62698,13.11049],[77.62719,13.11056],[77.62748,13.11062],[77.62769,13.11074],[77.6288,13.11098],[77.62964,13.11116],[77.63008,13.11125],[77.63024,13.11129],[77.63019,13.1112],[77.63007,13.11103],[77.62983,13.11076],[77.62948,13.11036]]],[[[77.51796,13.07418],[77.51832,13.07403],[77.51838,13.07401],[77.51796,13.07418]]],[[[77.54243,13.08794],[77.54157,13.08908],[77.54218,13.08827],[77.54227,13.08815],[77.54243,13.08794]]],[[[77.58,13.02653],[77.58009,13.02651],[77.58008,13.02652],[77.58,13.02653]]],[[[77.46342,12.8983],[77.46301,12.8981],[77.46289,12.89804],[77.46342,12.8983]]],[[[77.67066,12.88497],[77.66931,12.88523],[77.67034,12.88503],[77.67066,12.88497]]],[[[77.58367,12.97108],[77.58355,12.97119],[77.58331,12.97143],[77.58287,12.97184],[77.58367,12.97108]]],[[[77.54437,12.84807],[77.54433,12.84824],[77.54436,12.84811],[77.54437,12.84807]]],[[[77.6465,13.08503],[77.64637,13.08481],[77.64613,13.08438],[77.6465,13.08503]]],[[[77.49393,13.05136],[77.494,13.05134],[77.49402,13.05134],[77.49393,13.05136]]],[[[77.70836,12.90955],[77.70835,12.90815],[77.70836,12.90868],[77.70836,12.90955]]],[[[77.77148,12.98389],[77.77099,12.98386],[77.77065,12.98383],[77.77148,12.98389]]],[[[77.76292,13.00165],[77.76294,13.00172],[77.76297,13.00183],[77.76292,13.00165]]],[[[77.54058,13.0897],[77.54057,13.0897],[77.53977,13.08824],[77.54058,13.0897]]],[[[77.57987,13.02685],[77.58006,13.02658],[77.58009,13.02654],[77.57987,13.02685]]],[[[77.63207,12.86146],[77.632,12.86155],[77.63186,12.86172],[77.63207,12.86146]]],[[[77.63072,12.86338],[77.63038,12.86396],[77.62997,12.86465],[77.63072,12.86338]]]]}}]}