{"type":"FeatureCollection","features":[{"type":"Feature","properties":{"cityId":"chennai","kind":"Chennai municipal zones extent"},"geometry":{"type":"MultiPolygon","coordinates":[[[[80.17625,12.99964],[80.17756,13.00088],[80.18065,13.00382],[80.17625,12.99964]]],[[[80.29575,13.1444],[80.29393,13.14468],[80.29496,13.14452],[80.29575,13.1444]]],[[[80.31307,13.22021],[80.30931,13.21547],[80.30643,13.21206],[80.30607,13.21169],[80.30549,13.21164],[80.30467,13.21154],[80.30191,13.21108],[80.30104,13.21101],[80.3008,13.21115],[80.3006,13.21188],[80.30023,13.21259],[80.29991,13.21288],[80.29913,13.21309],[80.29847,13.21341],[80.29823,13.21387],[80.298,13.21489],[80.29782,13.2164],[80.29767,13.21718],[80.29735,13.21752],[80.29525,13.21927],[80.29411,13.22014],[80.29362,13.22038],[80.29241,13.22042],[80.29144,13.22078],[80.28942,13.22104],[80.28903,13.22111],[80.28884,13.22135],[80.28791,13.22266],[80.28683,13.22414],[80.2862,13.22448],[80.28597,13.22475],[80.28597,13.22533],[80.2856,13.22584],[80.28553,13.22631],[80.28526,13.22655],[80.28487,13.22667],[80.28428,13.22715],[80.28392,13.22739],[80.28343,13.22737],[80.28251,13.22724],[80.28145,13.22716],[80.28104,13.22721],[80.28072,13.22718],[80.28034,13.22698],[80.28002,13.22696],[80.27954,13.22698],[80.27845,13.22668],[80.27753,13.22645],[80.27629,13.22647],[80.27552,13.22634],[80.2744,13.22648],[80.2737,13.22672],[80.27341,13.2267],[80.27312,13.22643],[80.27117,13.22515],[80.27011,13.22475],[80.26865,13.22472],[80.26827,13.22452],[80.26781,13.22425],[80.26718,13.22417],[80.26685,13.22373],[80.26692,13.22339],[80.26717,13.22285],[80.26761,13.22251],[80.26826,13.22225],[80.26858,13.22189],[80.2687,13.22164],[80.26978,13.2206],[80.27002,13.22055],[80.27024,13.22055],[80.27039,13.22048],[80.27053,13.22026],[80.27218,13.21715],[80.27236,13.21654],[80.27234,13.21613],[80.27166,13.2128],[80.27166,13.21253],[80.27176,13.21239],[80.27181,13.21224],[80.2717,13.21161],[80.27121,13.20919],[80.27102,13.20899],[80.27078,13.2088],[80.27012,13.20606],[80.27007,13.20579],[80.27024,13.2056],[80.27037,13.20526],[80.2702,13.20472],[80.27004,13.20362],[80.26832,13.20376],[80.26706,13.20372],[80.26624,13.20367],[80.26554,13.20376],[80.26466,13.20398],[80.26321,13.20436],[80.26112,13.20496],[80.25896,13.20521],[80.25714,13.2054],[80.25634,13.20568],[80.2559,13.20595],[80.25529,13.20599],[80.25445,13.20589],[80.25285,13.20591],[80.25086,13.20616],[80.2504,13.20601],[80.25006,13.20574],[80.25004,13.20545],[80.25024,13.20489],[80.25025,13.20416],[80.24952,13.19866],[80.24457,13.19893],[80.23902,13.19945],[80.23901,13.19762],[80.23888,13.19672],[80.23871,13.19643],[80.23847,13.19642],[80.23393,13.19691],[80.22966,13.19757],[80.22908,13.19769],[80.22886,13.19764],[80.22882,13.19742],[80.2288,13.19617],[80.22897,13.196],[80.22919,13.19588],[80.22953,13.19569],[80.23007,13.19464],[80.23052,13.1933],[80.23055,13.19274],[80.23039,13.19215],[80.23044,13.19162],[80.23061,13.19111],[80.23108,13.19013],[80.23154,13.1898],[80.23184,13.18963],[80.23189,13.18948],[80.23189,13.18931],[80.23162,13.18899],[80.23153,13.18877],[80.23153,13.18818],[80.23155,13.1866],[80.23141,13.18572],[80.23146,13.18509],[80.23142,13.18489],[80.23105,13.18474],[80.2304,13.18457],[80.2299,13.18427],[80.22968,13.18432],[80.22936,13.18463],[80.22877,13.18512],[80.22836,13.18507],[80.22805,13.1847],[80.22779,13.18462],[80.22747,13.18477],[80.22686,13.18486],[80.22492,13.18544],[80.22419,13.18551],[80.22385,13.18533],[80.22357,13.18514],[80.2232,13.18508],[80.22294,13.18503],[80.22279,13.18491],[80.22272,13.18467],[80.2226,13.18457],[80.22204,13.18454],[80.22159,13.1842],[80.22123,13.18373],[80.22041,13.18263],[80.21996,13.18209],[80.22002,13.18097],[80.22014,13.18082],[80.22043,13.1808],[80.22108,13.18073],[80.22334,13.18038],[80.22358,13.18023],[80.22368,13.17999],[80.22366,13.17943],[80.22359,13.17894],[80.22361,13.17733],[80.22351,13.17708],[80.22332,13.17703],[80.22293,13.17703],[80.22189,13.17727],[80.2205,13.17775],[80.21939,13.17796],[80.21817,13.17839],[80.21734,13.1788],[80.21713,13.1788],[80.21693,13.17858],[80.2165,13.17824],[80.21491,13.17732],[80.21436,13.17703],[80.21402,13.17707],[80.21338,13.17756],[80.21287,13.17782],[80.21275,13.17802],[80.21272,13.17829],[80.21284,13.1788],[80.21318,13.17914],[80.21329,13.17983],[80.21334,13.18024],[80.21316,13.18044],[80.21273,13.18048],[80.21203,13.18036],[80.21111,13.17998],[80.21097,13.17969],[80.21097,13.17933],[80.21095,13.17857],[80.21057,13.17535],[80.21042,13.17515],[80.21001,13.17512],[80.20931,13.17497],[80.20877,13.1747],[80.2086,13.17472],[80.20816,13.17462],[80.20741,13.1745],[80.20704,13.17447],[80.20646,13.17447],[80.20612,13.17463],[80.20519,13.17524],[80.20468,13.17536],[80.20326,13.17584],[80.20253,13.17623],[80.20226,13.17657],[80.20209,13.17667],[80.20172,13.17671],[80.20153,13.17683],[80.20145,13.17705],[80.20162,13.17762],[80.20169,13.17806],[80.20178,13.17828],[80.20173,13.1786],[80.20154,13.17889],[80.20107,13.17918],[80.20083,13.17933],[80.20068,13.1794],[80.20049,13.17935],[80.20034,13.17908],[80.20016,13.17734],[80.19992,13.17697],[80.19995,13.17675],[80.19983,13.17655],[80.19959,13.17633],[80.19923,13.17606],[80.19901,13.17586],[80.19891,13.17555],[80.19909,13.17515],[80.19921,13.17484],[80.19921,13.17462],[80.199,13.17444],[80.19832,13.17407],[80.19805,13.17392],[80.19786,13.17397],[80.19725,13.17414],[80.19612,13.17492],[80.19545,13.17499],[80.19509,13.17514],[80.19483,13.17561],[80.19443,13.17575],[80.19405,13.17568],[80.19377,13.17536],[80.19353,13.17457],[80.19362,13.17397],[80.19391,13.17292],[80.19385,13.17266],[80.19373,13.17262],[80.19349,13.17265],[80.19319,13.17295],[80.19318,13.17334],[80.19326,13.17356],[80.19316,13.17376],[80.193,13.1739],[80.19293,13.17445],[80.19187,13.17543],[80.19173,13.17537],[80.19153,13.17484],[80.19135,13.17282],[80.18973,13.16719],[80.18972,13.16693],[80.1899,13.16666],[80.19144,13.16617],[80.19163,13.16597],[80.19175,13.16579],[80.19203,13.16563],[80.19381,13.16524],[80.19422,13.16498],[80.19428,13.16478],[80.1943,13.16451],[80.19367,13.1633],[80.19363,13.16286],[80.19353,13.16269],[80.1924,13.1618],[80.19216,13.16152],[80.19211,13.16115],[80.1922,13.15945],[80.19232,13.15715],[80.19243,13.15571],[80.19274,13.15521],[80.19296,13.155],[80.19314,13.15509],[80.19331,13.15543],[80.19359,13.15579],[80.19383,13.15586],[80.19399,13.15577],[80.19404,13.15555],[80.1939,13.15529],[80.19384,13.15493],[80.19369,13.15479],[80.19341,13.15474],[80.19286,13.15464],[80.19192,13.15367],[80.19136,13.15274],[80.19131,13.15247],[80.1912,13.15235],[80.19105,13.15238],[80.19077,13.15228],[80.19058,13.15197],[80.18903,13.15014],[80.18872,13.14995],[80.1886,13.15002],[80.18841,13.15021],[80.18805,13.15032],[80.18739,13.15023],[80.18687,13.1496],[80.18654,13.14872],[80.18618,13.14839],[80.18467,13.14776],[80.18391,13.14754],[80.18348,13.14753],[80.18255,13.14777],[80.18143,13.14838],[80.18009,13.14931],[80.17899,13.15054],[80.17877,13.15071],[80.17856,13.15073],[80.17832,13.15052],[80.17819,13.15001],[80.178,13.14932],[80.17815,13.14894],[80.17839,13.14791],[80.17849,13.14772],[80.17842,13.1476],[80.17823,13.1476],[80.17673,13.14831],[80.17606,13.14861],[80.17587,13.14868],[80.17568,13.14861],[80.17535,13.14808],[80.17509,13.14765],[80.1751,13.14719],[80.17529,13.14629],[80.17542,13.146],[80.1757,13.14571],[80.17625,13.14526],[80.17688,13.14417],[80.1779,13.14147],[80.17831,13.14056],[80.17834,13.14018],[80.17834,13.13992],[80.17857,13.13972],[80.17904,13.13922],[80.17906,13.13904],[80.17893,13.13884],[80.17755,13.13722],[80.17735,13.13688],[80.17678,13.13719],[80.17667,13.13749],[80.17681,13.13835],[80.17677,13.13862],[80.17628,13.13884],[80.1755,13.13902],[80.17418,13.14],[80.17132,13.14156],[80.17091,13.14205],[80.17057,13.14242],[80.17008,13.14253],[80.16941,13.14207],[80.16812,13.14071],[80.16709,13.13837],[80.16666,13.13618],[80.16585,13.1349],[80.16511,13.13407],[80.1647,13.13388],[80.16425,13.13387],[80.16399,13.13406],[80.16386,13.13523],[80.16359,13.13681],[80.16312,13.13758],[80.16247,13.13822],[80.16202,13.13866],[80.16175,13.13921],[80.16164,13.13995],[80.16132,13.14027],[80.15981,13.14084],[80.15724,13.14117],[80.15591,13.14153],[80.15399,13.14157],[80.15273,13.14107],[80.15173,13.14036],[80.15075,13.13981],[80.15028,13.13894],[80.15002,13.13829],[80.14982,13.13802],[80.14941,13.13799],[80.14785,13.13826],[80.14573,13.13854],[80.14553,13.13849],[80.14541,13.13812],[80.14535,13.13653],[80.14563,13.13581],[80.14718,13.13289],[80.14726,13.13247],[80.14726,13.1317],[80.14776,13.12813],[80.14779,13.1276],[80.14762,13.1273],[80.145,13.1252],[80.14417,13.12453],[80.14365,13.1242],[80.14356,13.12393],[80.14364,13.12336],[80.14387,13.12234],[80.14385,13.12175],[80.14349,13.1208],[80.14282,13.11772],[80.14259,13.11642],[80.14245,13.11568],[80.14232,13.11545],[80.14205,13.11538],[80.14181,13.11508],[80.1416,13.11413],[80.14131,13.10969],[80.14122,13.10872],[80.14077,13.10738],[80.14036,13.10631],[80.14019,13.10578],[80.14018,13.1041],[80.14024,13.10231],[80.14035,13.10072],[80.1403,13.09831],[80.1404,13.09804],[80.1407,13.09797],[80.14142,13.09727],[80.14182,13.09678],[80.14268,13.09621],[80.14355,13.09555],[80.14393,13.09471],[80.14488,13.09317],[80.14498,13.09263],[80.14484,13.09213],[80.1446,13.09161],[80.14453,13.09109],[80.14468,13.09064],[80.14466,13.09039],[80.14449,13.09017],[80.14468,13.09],[80.145,13.08997],[80.14533,13.08975],[80.14555,13.08958],[80.1458,13.08918],[80.14613,13.08846],[80.14633,13.08812],[80.14628,13.08789],[80.14606,13.08774],[80.14601,13.08742],[80.14614,13.08707],[80.147,13.08673],[80.14743,13.08629],[80.14785,13.08639],[80.14957,13.08655],[80.15014,13.08635],[80.15054,13.08593],[80.15121,13.08549],[80.15146,13.08497],[80.15124,13.08447],[80.15144,13.08423],[80.1525,13.08376],[80.15305,13.0833],[80.15361,13.08309],[80.15393,13.08272],[80.15412,13.08231],[80.15484,13.08203],[80.15563,13.08192],[80.15674,13.08123],[80.15878,13.08064],[80.15978,13.08055],[80.16045,13.0802],[80.16073,13.0799],[80.16103,13.07974],[80.16122,13.07977],[80.16126,13.0795],[80.16124,13.07933],[80.16098,13.07915],[80.16047,13.07909],[80.1603,13.07886],[80.16028,13.07838],[80.16034,13.07769],[80.16032,13.07678],[80.16039,13.07573],[80.16039,13.07521],[80.16041,13.07347],[80.16064,13.07296],[80.16132,13.07279],[80.16192,13.07274],[80.1622,13.07245],[80.16209,13.07211],[80.16226,13.07191],[80.16266,13.07171],[80.16278,13.07106],[80.16307,13.07035],[80.16305,13.06943],[80.16266,13.06866],[80.16215,13.0682],[80.16207,13.06774],[80.16208,13.06726],[80.1623,13.06723],[80.16278,13.06743],[80.16295,13.06741],[80.16313,13.06689],[80.16312,13.06424],[80.16284,13.06387],[80.16225,13.06358],[80.16191,13.06349],[80.16171,13.063],[80.16167,13.06183],[80.16176,13.0612],[80.16168,13.06041],[80.16153,13.05841],[80.16148,13.05709],[80.16152,13.05578],[80.16145,13.05395],[80.16148,13.0507],[80.16179,13.05042],[80.16205,13.05022],[80.16246,13.04868],[80.16261,13.04751],[80.16245,13.04659],[80.16217,13.04631],[80.1616,13.04608],[80.16132,13.04559],[80.16131,13.04433],[80.16132,13.04259],[80.16107,13.04148],[80.16091,13.04105],[80.16048,13.04107],[80.15977,13.04113],[80.1594,13.0413],[80.15895,13.04126],[80.15853,13.04109],[80.15782,13.0412],[80.15297,13.04111],[80.15082,13.04101],[80.15062,13.04098],[80.15051,13.04076],[80.15037,13.04001],[80.15026,13.03976],[80.14989,13.03978],[80.14964,13.03989],[80.14963,13.04086],[80.1492,13.041],[80.14892,13.04106],[80.14861,13.04126],[80.14824,13.04123],[80.14761,13.04117],[80.1473,13.04108],[80.14719,13.04079],[80.14703,13.04051],[80.1466,13.04048],[80.14626,13.04039],[80.14601,13.04024],[80.14598,13.03973],[80.14602,13.03884],[80.14608,13.03847],[80.14612,13.03756],[80.14635,13.03711],[80.14686,13.03637],[80.14695,13.03571],[80.14673,13.03491],[80.14671,13.03422],[80.14683,13.03394],[80.1479,13.03392],[80.14788,13.03326],[80.14749,13.03212],[80.14738,13.03177],[80.14707,13.03169],[80.1454,13.03156],[80.14532,13.02814],[80.14518,13.02774],[80.14516,13.02677],[80.14526,13.02463],[80.14545,13.02411],[80.14543,13.02374],[80.14524,13.02343],[80.14506,13.02308],[80.14486,13.02187],[80.14489,13.02153],[80.14514,13.02141],[80.14637,13.02132],[80.14699,13.02108],[80.14736,13.02086],[80.14749,13.01996],[80.14747,13.01844],[80.14752,13.01732],[80.14764,13.01705],[80.14795,13.01695],[80.14878,13.01696],[80.14899,13.01743],[80.1493,13.01752],[80.1502,13.0174],[80.15149,13.01701],[80.1523,13.01652],[80.15264,13.01618],[80.15317,13.01612],[80.15335,13.01596],[80.15357,13.01528],[80.15392,13.01463],[80.15529,13.01346],[80.15594,13.01309],[80.15652,13.01313],[80.15741,13.0135],[80.15784,13.01379],[80.15827,13.01444],[80.15879,13.01503],[80.15934,13.01516],[80.15968,13.01504],[80.16005,13.01461],[80.16042,13.01464],[80.1611,13.01471],[80.16144,13.01455],[80.16169,13.01403],[80.16194,13.01356],[80.16204,13.013],[80.16201,13.01282],[80.16161,13.01275],[80.16164,13.01247],[80.16199,13.0117],[80.16193,13.01151],[80.16085,13.01148],[80.16086,13.0107],[80.16049,13.01036],[80.16006,13.01017],[80.15985,13.00998],[80.15986,13.00846],[80.15922,13.00727],[80.15922,13.00706],[80.15944,13.00687],[80.1599,13.00675],[80.16342,13.00631],[80.16355,13.00609],[80.16366,13.00395],[80.16416,13.00274],[80.16263,13.00158],[80.1606,12.99729],[80.16057,12.99704],[80.1607,12.9967],[80.16126,12.99602],[80.16242,12.99354],[80.16533,12.98791],[80.16725,12.98388],[80.16707,12.98317],[80.16677,12.98214],[80.1662,12.98012],[80.16734,12.98056],[80.16882,12.98039],[80.17163,12.97997],[80.17268,12.97979],[80.17335,12.97998],[80.17391,12.98001],[80.1753,12.97977],[80.17651,12.97913],[80.17673,12.97851],[80.17686,12.97786],[80.17717,12.97746],[80.17736,12.97665],[80.1774,12.97544],[80.17705,12.97358],[80.17663,12.97165],[80.17657,12.97109],[80.17695,12.97078],[80.18038,12.96891],[80.18187,12.96808],[80.18349,12.96808],[80.1839,12.96827],[80.18417,12.9684],[80.18422,12.96865],[80.18426,12.96903],[80.18443,12.96898],[80.18462,12.96893],[80.18469,12.96915],[80.18487,12.96941],[80.18545,12.96979],[80.18614,12.96974],[80.18803,12.96962],[80.18943,12.96928],[80.19115,12.96859],[80.19085,12.9675],[80.19078,12.96738],[80.19044,12.96722],[80.19017,12.96699],[80.18993,12.96591],[80.19009,12.96573],[80.19041,12.96564],[80.19055,12.96546],[80.1905,12.96509],[80.18957,12.9602],[80.18935,12.9594],[80.18896,12.95905],[80.18876,12.95838],[80.18858,12.95824],[80.18808,12.95838],[80.18792,12.95838],[80.18788,12.95824],[80.18808,12.9581],[80.18986,12.95745],[80.19121,12.95732],[80.19225,12.95746],[80.19228,12.95733],[80.19214,12.95714],[80.19194,12.95671],[80.19187,12.95648],[80.19076,12.95629],[80.19063,12.95509],[80.19053,12.95447],[80.19066,12.95422],[80.1916,12.95411],[80.19205,12.95405],[80.19219,12.95382],[80.19241,12.95297],[80.19244,12.95205],[80.19267,12.95173],[80.19326,12.95153],[80.19353,12.95153],[80.19371,12.95165],[80.19359,12.95254],[80.19377,12.95298],[80.19475,12.95331],[80.19739,12.95353],[80.19932,12.95349],[80.20074,12.95311],[80.20131,12.95275],[80.2017,12.95213],[80.20193,12.95147],[80.20199,12.95069],[80.2015,12.94899],[80.20102,12.94669],[80.20038,12.94369],[80.19979,12.94169],[80.19932,12.94072],[80.19835,12.93971],[80.19783,12.93927],[80.19737,12.93908],[80.19701,12.93871],[80.19699,12.93839],[80.19677,12.93805],[80.19627,12.9377],[80.19593,12.93745],[80.19591,12.93726],[80.19609,12.93683],[80.19607,12.9366],[80.19587,12.93653],[80.19555,12.93664],[80.19516,12.93673],[80.19439,12.93663],[80.19421,12.93633],[80.19416,12.9361],[80.19394,12.93601],[80.1936,12.93596],[80.1933,12.93564],[80.19287,12.93525],[80.19276,12.93502],[80.19276,12.93481],[80.19286,12.93463],[80.19347,12.9344],[80.19471,12.93409],[80.19571,12.93384],[80.19589,12.93359],[80.19592,12.93309],[80.19579,12.93233],[80.19582,12.93153],[80.1945,12.9315],[80.19448,12.93074],[80.19576,12.9307],[80.19567,12.9304],[80.19527,12.92907],[80.19501,12.92772],[80.19501,12.92724],[80.19511,12.92694],[80.19495,12.9262],[80.195,12.92572],[80.19542,12.92483],[80.19577,12.92442],[80.1962,12.92431],[80.19755,12.92388],[80.19764,12.92365],[80.19746,12.92285],[80.19747,12.92206],[80.19748,12.9215],[80.19735,12.91964],[80.19718,12.91828],[80.19726,12.91771],[80.1971,12.91693],[80.197,12.91626],[80.19675,12.91585],[80.19598,12.91502],[80.19553,12.9141],[80.195,12.91251],[80.19472,12.91132],[80.19463,12.91008],[80.19473,12.90994],[80.19511,12.91008],[80.19618,12.91034],[80.19844,12.91013],[80.20311,12.90945],[80.20461,12.90929],[80.20734,12.90954],[80.20879,12.9095],[80.21124,12.90943],[80.21406,12.90931],[80.21373,12.9048],[80.21343,12.89891],[80.21326,12.89692],[80.21323,12.8916],[80.21321,12.89084],[80.21277,12.88845],[80.21249,12.88664],[80.21066,12.87962],[80.21032,12.87921],[80.20979,12.87816],[80.20866,12.87579],[80.20808,12.87503],[80.20839,12.87379],[80.20893,12.87224],[80.21139,12.86542],[80.212,12.86352],[80.21312,12.8606],[80.21403,12.85947],[80.21689,12.85597],[80.21724,12.85538],[80.21738,12.85498],[80.21811,12.85458],[80.21968,12.85424],[80.21995,12.85386],[80.21998,12.85351],[80.21985,12.85308],[80.21983,12.85249],[80.22085,12.85247],[80.22167,12.85237],[80.22488,12.85228],[80.2272,12.85216],[80.22902,12.85244],[80.23089,12.85223],[80.23209,12.85197],[80.23251,12.85289],[80.23319,12.85426],[80.23469,12.85664],[80.23601,12.85899],[80.23873,12.85876],[80.23967,12.85866],[80.24036,12.85872],[80.2455,12.85765],[80.24836,12.85709],[80.25104,12.8758],[80.25137,12.87872],[80.25142,12.87904],[80.25171,12.88114],[80.25285,12.8899],[80.25317,12.89345],[80.25389,12.89968],[80.25456,12.90415],[80.25456,12.90422],[80.25502,12.90916],[80.2556,12.91384],[80.25617,12.91688],[80.25677,12.91914],[80.25687,12.92084],[80.25716,12.92224],[80.25712,12.92302],[80.25717,12.92355],[80.2576,12.92526],[80.25835,12.93098],[80.25832,12.93178],[80.25825,12.93214],[80.25924,12.93837],[80.25946,12.94043],[80.26033,12.94532],[80.26073,12.94773],[80.2613,12.95018],[80.26176,12.9517],[80.26226,12.95551],[80.2624,12.95632],[80.26294,12.95924],[80.26383,12.96137],[80.26413,12.96283],[80.26448,12.96533],[80.26516,12.96915],[80.26562,12.97142],[80.26652,12.97433],[80.26675,12.97524],[80.26754,12.97871],[80.26837,12.98308],[80.2686,12.98429],[80.27059,12.99182],[80.2717,12.99589],[80.27186,12.99675],[80.27177,12.99721],[80.2712,12.99737],[80.27083,12.99753],[80.2707,12.99794],[80.27074,12.99844],[80.27097,13.00026],[80.27137,13.00162],[80.27173,13.00204],[80.27198,13.00208],[80.27275,13.00208],[80.27329,13.00221],[80.27365,13.00254],[80.27377,13.00304],[80.27502,13.00698],[80.27643,13.01136],[80.27652,13.01163],[80.27728,13.0156],[80.2778,13.01968],[80.27811,13.02202],[80.27873,13.02658],[80.27888,13.02783],[80.28016,13.03819],[80.28079,13.04367],[80.28096,13.04516],[80.28099,13.04595],[80.28081,13.04642],[80.28066,13.04699],[80.281,13.04908],[80.28111,13.04983],[80.28225,13.05719],[80.2825,13.05758],[80.28282,13.05773],[80.28528,13.05731],[80.28578,13.05728],[80.28599,13.0575],[80.28623,13.05854],[80.28745,13.06239],[80.28846,13.06455],[80.28938,13.06614],[80.28947,13.06659],[80.28948,13.06664],[80.28944,13.06736],[80.28957,13.06822],[80.28995,13.06973],[80.29062,13.07121],[80.29206,13.07395],[80.29476,13.07957],[80.29809,13.08533],[80.30112,13.09049],[80.30231,13.09308],[80.30339,13.09567],[80.3037,13.09661],[80.3037,13.09715],[80.30359,13.0979],[80.30315,13.0984],[80.29908,13.09985],[80.29811,13.10034],[80.2975,13.10106],[80.29742,13.10149],[80.2976,13.10203],[80.29798,13.10264],[80.29843,13.10418],[80.29882,13.1055],[80.29979,13.10878],[80.30114,13.11299],[80.30149,13.11396],[80.30152,13.11471],[80.30155,13.1155],[80.30182,13.11666],[80.30182,13.11712],[80.3016,13.11784],[80.30066,13.1192],[80.30003,13.12105],[80.29967,13.1221],[80.29924,13.12275],[80.29885,13.12296],[80.29777,13.12331],[80.29698,13.12388],[80.29655,13.12456],[80.29665,13.12488],[80.2969,13.1251],[80.29718,13.12561],[80.29819,13.12895],[80.29811,13.12935],[80.29783,13.12952],[80.29743,13.12974],[80.29729,13.13024],[80.29707,13.13085],[80.29638,13.13181],[80.29639,13.13216],[80.29701,13.13417],[80.29729,13.13468],[80.29775,13.13489],[80.29797,13.13511],[80.298,13.13576],[80.29806,13.1363],[80.29784,13.13691],[80.29798,13.13752],[80.29926,13.14248],[80.2994,13.14313],[80.29929,13.14338],[80.30451,13.14225],[80.30634,13.14634],[80.30742,13.14909],[80.30906,13.15402],[80.30966,13.15568],[80.31062,13.15934],[80.31066,13.15947],[80.31171,13.16319],[80.31267,13.16722],[80.31296,13.16862],[80.3133,13.1694],[80.31452,13.17333],[80.3149,13.17477],[80.31527,13.17708],[80.31565,13.17839],[80.3173,13.18332],[80.3187,13.18875],[80.32054,13.19554],[80.32181,13.20076],[80.32261,13.20412],[80.32273,13.20465],[80.32294,13.20557],[80.32375,13.20762],[80.32406,13.20885],[80.32458,13.21089],[80.32532,13.21286],[80.32589,13.2147],[80.3266,13.21696],[80.3268,13.21799],[80.327,13.21905],[80.3278,13.22176],[80.32892,13.2255],[80.3293,13.2267],[80.33027,13.22988],[80.33122,13.23236],[80.33088,13.2331],[80.3309,13.23334],[80.33107,13.23376],[80.33114,13.23401],[80.32706,13.23519],[80.32398,13.23276],[80.32342,13.23249],[80.31756,13.23117],[80.31755,13.22968],[80.31609,13.22664],[80.31307,13.22021]],[[80.25646,13.16386],[80.25089,13.16642],[80.25562,13.16425],[80.25646,13.16386]]],[[[80.28653,13.11749],[80.28622,13.11655],[80.28518,13.11334],[80.28653,13.11749]]],[[[80.23937,13.03156],[80.23742,13.03447],[80.23904,13.03204],[80.23937,13.03156]]],[[[80.23005,13.04984],[80.23082,13.05423],[80.23078,13.05403],[80.23005,13.04984]]],[[[80.22968,12.9367],[80.22926,12.93316],[80.22924,12.93298],[80.22968,12.9367]]]]}}]}