{"type":"FeatureCollection","features":[{"type":"Feature","properties":{"cityId":"mumbai","kind":"BMC ward extent"},"geometry":{"type":"MultiPolygon","coordinates":[[[[72.84681,18.94803],[72.84682,18.94821],[72.84654,18.95012],[72.8465,18.95044],[72.84619,18.95057],[72.84624,18.95077],[72.84638,18.95133],[72.8464,18.95143],[72.84644,18.95159],[72.84647,18.95172],[72.84649,18.95182],[72.8465,18.95183],[72.84651,18.95184],[72.84653,18.95184],[72.8466,18.95185],[72.84664,18.95186],[72.84666,18.95187],[72.84668,18.95189],[72.84668,18.95191],[72.84669,18.95193],[72.84669,18.95195],[72.84668,18.95197],[72.84667,18.95199],[72.84665,18.95201],[72.84663,18.95202],[72.84661,18.95202],[72.84653,18.95201],[72.84642,18.952],[72.84634,18.95198],[72.84633,18.95201],[72.84637,18.95221],[72.8464,18.95221],[72.84645,18.95223],[72.84651,18.95227],[72.84655,18.95231],[72.84659,18.95236],[72.84663,18.95242],[72.84664,18.95243],[72.84669,18.95266],[72.84674,18.95285],[72.84677,18.95301],[72.84682,18.95321],[72.84688,18.95343],[72.84691,18.95356],[72.84691,18.95358],[72.84689,18.95366],[72.84685,18.95375],[72.84683,18.9538],[72.84681,18.95383],[72.84677,18.95389],[72.84675,18.95392],[72.84673,18.95393],[72.84671,18.95394],[72.84667,18.95395],[72.84671,18.9541],[72.84677,18.95409],[72.84702,18.95403],[72.84705,18.95403],[72.84707,18.95403],[72.84709,18.95404],[72.84711,18.95405],[72.84713,18.95407],[72.84713,18.95409],[72.84714,18.95411],[72.84713,18.95413],[72.84713,18.95414],[72.84712,18.95416],[72.8471,18.95418],[72.84708,18.95419],[72.84698,18.95421],[72.84675,18.95427],[72.8468,18.95444],[72.84682,18.95443],[72.84685,18.95443],[72.84688,18.95443],[72.8469,18.95444],[72.84692,18.95445],[72.84697,18.95447],[72.84704,18.95452],[72.8471,18.95456],[72.84715,18.95462],[72.84718,18.95467],[72.8472,18.95471],[72.84725,18.95492],[72.84739,18.95548],[72.84756,18.95617],[72.8476,18.95631],[72.84763,18.95643],[72.84766,18.95657],[72.84769,18.9567],[72.84773,18.95687],[72.84779,18.95708],[72.84783,18.95726],[72.84786,18.95741],[72.84795,18.95777],[72.84944,18.9573],[72.8491,18.95596],[72.84952,18.95587],[72.84981,18.95727],[72.8506,18.95779],[72.85082,18.95774],[72.85106,18.95876],[72.85078,18.9588],[72.85058,18.95791],[72.84961,18.95738],[72.848,18.95796],[72.84818,18.95868],[72.84839,18.95966],[72.84852,18.96024],[72.84861,18.96058],[72.84863,18.9607],[72.84872,18.96103],[72.84877,18.96123],[72.84879,18.9613],[72.84888,18.96171],[72.84892,18.96187],[72.849,18.96218],[72.84907,18.96248],[72.84913,18.96275],[72.84938,18.9634],[72.84951,18.96393],[72.8497,18.96494],[72.84971,18.96493],[72.84972,18.96494],[72.84973,18.96495],[72.84973,18.96497],[72.84973,18.96498],[72.84973,18.96499],[72.84973,18.965],[72.84987,18.96529],[72.85005,18.96599],[72.84978,18.96604],[72.84983,18.96634],[72.85026,18.96624],[72.85026,18.96636],[72.85027,18.96636],[72.85041,18.96634],[72.8504,18.96664],[72.8504,18.96682],[72.85039,18.96697],[72.85038,18.96716],[72.85119,18.96702],[72.85123,18.96728],[72.85144,18.96729],[72.85142,18.96762],[72.85141,18.96783],[72.8523,18.96781],[72.8523,18.96819],[72.85217,18.96823],[72.85215,18.96872],[72.85136,18.96876],[72.85135,18.9689],[72.85116,18.96889],[72.85114,18.96926],[72.85071,18.96929],[72.85072,18.96944],[72.85111,18.96941],[72.85153,18.96939],[72.85199,18.96936],[72.85235,18.96933],[72.85267,18.96931],[72.85298,18.96929],[72.853,18.96972],[72.85235,18.96981],[72.85185,18.96987],[72.85131,18.96995],[72.85077,18.97002],[72.85076,18.97002],[72.8508,18.97037],[72.85062,18.97043],[72.85052,18.97051],[72.85038,18.97083],[72.85032,18.971],[72.84998,18.97135],[72.84987,18.97149],[72.84984,18.97166],[72.84989,18.97185],[72.85003,18.97195],[72.8501,18.97208],[72.85009,18.97226],[72.85006,18.9724],[72.84995,18.97262],[72.84987,18.97269],[72.84967,18.97277],[72.84973,18.97304],[72.85045,18.97288],[72.85063,18.97281],[72.85084,18.97264],[72.85104,18.97243],[72.85133,18.97232],[72.85195,18.97225],[72.8527,18.97215],[72.85299,18.97214],[72.8533,18.97211],[72.85368,18.97203],[72.85394,18.97263],[72.85404,18.97309],[72.85405,18.97309],[72.85409,18.97326],[72.85408,18.97326],[72.8542,18.97379],[72.85411,18.97382],[72.85408,18.97383],[72.8535,18.97395],[72.85321,18.97401],[72.85291,18.97407],[72.85274,18.9741],[72.85196,18.97426],[72.85181,18.97429],[72.85157,18.97434],[72.85132,18.97439],[72.851,18.97446],[72.85084,18.97449],[72.85059,18.97455],[72.8503,18.97461],[72.85021,18.97462],[72.85007,18.97465],[72.84965,18.97474],[72.8494,18.97479],[72.84934,18.97481],[72.84933,18.97481],[72.84933,18.97482],[72.84933,18.97484],[72.84933,18.97485],[72.84934,18.97487],[72.84943,18.97526],[72.84943,18.97527],[72.84944,18.97528],[72.84945,18.97529],[72.84946,18.97528],[72.84964,18.97524],[72.85006,18.97515],[72.85011,18.97514],[72.85041,18.97507],[72.85042,18.97507],[72.85043,18.97508],[72.85044,18.97509],[72.85046,18.9751],[72.85088,18.97501],[72.85089,18.975],[72.8509,18.975],[72.85091,18.975],[72.85092,18.97501],[72.85092,18.97502],[72.85104,18.97549],[72.85122,18.97545],[72.85121,18.97543],[72.85198,18.97528],[72.8525,18.97518],[72.85319,18.97504],[72.85355,18.97496],[72.85373,18.97492],[72.85493,18.97467],[72.85526,18.9746],[72.85526,18.97459],[72.85539,18.97456],[72.85541,18.97455],[72.85542,18.97455],[72.85543,18.97456],[72.85544,18.97456],[72.85544,18.97457],[72.85581,18.97522],[72.8559,18.97538],[72.8559,18.97566],[72.85587,18.97567],[72.85586,18.97566],[72.85576,18.97568],[72.85574,18.97569],[72.8557,18.97569],[72.8556,18.97571],[72.85552,18.97573],[72.8554,18.97575],[72.85528,18.97578],[72.85516,18.97581],[72.85508,18.97582],[72.85496,18.97585],[72.85483,18.97587],[72.85472,18.9759],[72.85461,18.97592],[72.8545,18.97594],[72.85437,18.97597],[72.85425,18.97599],[72.85416,18.97601],[72.85415,18.97601],[72.85407,18.97603],[72.85397,18.97605],[72.85373,18.97611],[72.85362,18.97613],[72.8535,18.97616],[72.85339,18.97618],[72.85332,18.97619],[72.85325,18.9762],[72.85317,18.97622],[72.85307,18.97624],[72.85298,18.97626],[72.85285,18.97628],[72.85272,18.97631],[72.85266,18.97632],[72.85258,18.97634],[72.85252,18.97635],[72.85241,18.97637],[72.85231,18.97639],[72.85226,18.9764],[72.8522,18.97642],[72.85211,18.97643],[72.85205,18.97645],[72.85197,18.97646],[72.85186,18.97648],[72.85179,18.9765],[72.8517,18.97652],[72.85159,18.97654],[72.85153,18.97655],[72.85147,18.97656],[72.85146,18.97655],[72.85141,18.97656],[72.85134,18.97658],[72.85133,18.97658],[72.85132,18.97658],[72.85131,18.97657],[72.85131,18.97655],[72.8513,18.97654],[72.8513,18.97652],[72.85129,18.97649],[72.85129,18.97647],[72.85128,18.97642],[72.85127,18.97637],[72.85126,18.97633],[72.85125,18.97629],[72.85124,18.97624],[72.85122,18.97615],[72.85122,18.97613],[72.85121,18.97613],[72.85121,18.97612],[72.8512,18.97612],[72.85119,18.97612],[72.85118,18.97612],[72.85117,18.97612],[72.8511,18.97613],[72.851,18.97615],[72.85088,18.97618],[72.85073,18.97621],[72.85065,18.97622],[72.85052,18.97625],[72.85043,18.97627],[72.85029,18.9763],[72.85003,18.97635],[72.84991,18.97638],[72.84979,18.9764],[72.84969,18.97642],[72.84957,18.97645],[72.8495,18.97646],[72.84949,18.97647],[72.84947,18.97647],[72.84945,18.97648],[72.84943,18.9765],[72.84942,18.97651],[72.84941,18.97653],[72.8494,18.97656],[72.8494,18.97659],[72.8494,18.97663],[72.8494,18.97667],[72.8494,18.97675],[72.8494,18.97681],[72.84941,18.97688],[72.84941,18.97691],[72.84941,18.97693],[72.84942,18.97697],[72.84943,18.97703],[72.84945,18.97711],[72.84947,18.97719],[72.84949,18.97728],[72.84951,18.97737],[72.84953,18.97743],[72.84955,18.97752],[72.84956,18.97755],[72.84969,18.97757],[72.84972,18.97756],[72.84976,18.97764],[72.84981,18.97777],[72.84984,18.97782],[72.84997,18.97779],[72.85017,18.97775],[72.85029,18.97773],[72.85049,18.97768],[72.85065,18.97765],[72.8508,18.97762],[72.85099,18.97758],[72.85113,18.97755],[72.85129,18.97752],[72.85146,18.97748],[72.85162,18.97745],[72.85174,18.97742],[72.85183,18.9774],[72.85195,18.97738],[72.85198,18.97738],[72.85202,18.97737],[72.85213,18.97735],[72.85227,18.97732],[72.85233,18.97731],[72.85248,18.97727],[72.85263,18.97724],[72.85286,18.9772],[72.85295,18.97718],[72.85301,18.97717],[72.85307,18.97715],[72.85319,18.97713],[72.85328,18.97711],[72.85344,18.97708],[72.85361,18.97704],[72.85375,18.97701],[72.85388,18.97698],[72.854,18.97696],[72.85415,18.97693],[72.85439,18.97688],[72.85464,18.97682],[72.85481,18.97679],[72.85504,18.97674],[72.85518,18.97671],[72.85529,18.97668],[72.85533,18.97668],[72.85534,18.97667],[72.85536,18.97667],[72.85537,18.97668],[72.85538,18.97668],[72.85539,18.97669],[72.85541,18.9767],[72.85541,18.97671],[72.85543,18.97677],[72.85545,18.97687],[72.85548,18.97699],[72.8555,18.97711],[72.85554,18.97725],[72.85557,18.9774],[72.8556,18.9775],[72.85563,18.97763],[72.85565,18.97774],[72.85566,18.97779],[72.85567,18.9778],[72.85566,18.97781],[72.85566,18.97782],[72.85565,18.97784],[72.85564,18.97785],[72.85563,18.97785],[72.85561,18.97786],[72.85552,18.97788],[72.85536,18.97791],[72.85531,18.97793],[72.85512,18.97797],[72.85494,18.97801],[72.85375,18.97824],[72.85321,18.97834],[72.85195,18.97857],[72.85168,18.97863],[72.85121,18.97872],[72.85074,18.97881],[72.85038,18.97889],[72.85005,18.97896],[72.85009,18.97914],[72.85009,18.97918],[72.85006,18.97919],[72.8501,18.97939],[72.8501,18.9794],[72.85011,18.97941],[72.85014,18.97941],[72.85025,18.97995],[72.85024,18.97996],[72.85017,18.97997],[72.85014,18.97998],[72.85012,18.97998],[72.85003,18.98002],[72.85016,18.98009],[72.85056,18.97999],[72.85102,18.97989],[72.8529,18.97946],[72.85472,18.97904],[72.85572,18.97881],[72.85697,18.97852],[72.85743,18.97842],[72.85767,18.97837],[72.85768,18.97837],[72.85769,18.97838],[72.8578,18.97848],[72.85796,18.97863],[72.85814,18.9788],[72.85819,18.97885],[72.85838,18.97902],[72.8585,18.97913],[72.85873,18.97934],[72.85884,18.97944],[72.85897,18.97957],[72.85904,18.97963],[72.85919,18.97977],[72.85929,18.97986],[72.85945,18.98],[72.85954,18.98008],[72.85963,18.98017],[72.85984,18.98037],[72.85992,18.98044],[72.86008,18.9806],[72.86026,18.98076],[72.86042,18.98091],[72.86064,18.98112],[72.86073,18.98121],[72.86086,18.98132],[72.86103,18.98148],[72.86118,18.98162],[72.86119,18.98163],[72.86119,18.98164],[72.86116,18.98169],[72.86112,18.98179],[72.86099,18.9821],[72.86087,18.98237],[72.86076,18.98264],[72.86067,18.98284],[72.86052,18.98319],[72.86039,18.98351],[72.86029,18.98374],[72.86021,18.98394],[72.86011,18.98418],[72.86003,18.98435],[72.85984,18.98479],[72.85984,18.9848],[72.85962,18.98531],[72.85961,18.98535],[72.85947,18.98566],[72.85906,18.98666],[72.85897,18.98687],[72.85892,18.987],[72.85881,18.98725],[72.85877,18.98735],[72.85871,18.9875],[72.85865,18.98764],[72.85863,18.98769],[72.85854,18.98788],[72.85846,18.98808],[72.85832,18.9884],[72.85822,18.98864],[72.85812,18.98889],[72.85803,18.98909],[72.85787,18.98947],[72.85777,18.98971],[72.85763,18.99003],[72.85759,18.99013],[72.85748,18.99038],[72.85743,18.99052],[72.85733,18.99073],[72.85727,18.99089],[72.85724,18.99096],[72.85716,18.99115],[72.85713,18.99122],[72.85706,18.99138],[72.85701,18.99149],[72.85691,18.99173],[72.8569,18.99177],[72.85995,18.99276],[72.85958,18.99355],[72.86162,18.9943],[72.86102,18.99578],[72.86132,18.99566],[72.86198,18.9954],[72.86199,18.9954],[72.862,18.99541],[72.86204,18.99551],[72.86204,18.99552],[72.86204,18.99553],[72.86145,18.99576],[72.86099,18.99592],[72.86097,18.99593],[72.86096,18.99594],[72.86094,18.99599],[72.86089,18.9961],[72.86083,18.99626],[72.86075,18.99644],[72.86069,18.9966],[72.86062,18.99675],[72.86056,18.9969],[72.86047,18.99711],[72.86039,18.99729],[72.86037,18.99738],[72.8603,18.99755],[72.86023,18.9977],[72.86017,18.99784],[72.86012,18.99797],[72.86003,18.99818],[72.85996,18.99835],[72.85994,18.9984],[72.85995,18.99841],[72.86007,18.99845],[72.86021,18.99851],[72.86016,18.99863],[72.86011,18.99875],[72.86008,18.9988],[72.86009,18.99881],[72.8601,18.99882],[72.8601,18.99883],[72.8601,18.99885],[72.8601,18.99886],[72.86009,18.99888],[72.86007,18.99892],[72.86007,18.99893],[72.86007,18.99894],[72.86007,18.99896],[72.86007,18.99898],[72.86007,18.999],[72.86007,18.99901],[72.86007,18.99902],[72.86006,18.99904],[72.86004,18.99908],[72.86004,18.9991],[72.86004,18.99912],[72.86004,18.99915],[72.86004,18.99916],[72.86006,18.99917],[72.86009,18.99919],[72.86012,18.99921],[72.86014,18.99922],[72.86015,18.99923],[72.86017,18.99928],[72.86019,18.99933],[72.8602,18.99934],[72.86024,18.99938],[72.86027,18.99941],[72.86032,18.99947],[72.86037,18.99952],[72.86037,18.99953],[72.86038,18.99954],[72.86038,18.99956],[72.86039,18.99957],[72.86039,18.99962],[72.8604,18.99966],[72.8604,18.99967],[72.8604,18.99968],[72.86041,18.9997],[72.86042,18.99973],[72.86043,18.99974],[72.86044,18.99979],[72.86045,18.99981],[72.86048,18.99989],[72.86049,18.99992],[72.8605,18.99999],[72.86052,19.00009],[72.86053,19.00013],[72.86056,19.00032],[72.86059,19.00044],[72.86061,19.00057],[72.86063,19.00057],[72.86081,19.00054],[72.86103,19.00217],[72.86173,19.00205],[72.86174,19.00205],[72.86175,19.00205],[72.86176,19.00204],[72.86175,19.00204],[72.86176,19.00204],[72.86175,19.00202],[72.86193,19.00198],[72.86203,19.00196],[72.86203,19.00198],[72.86219,19.00196],[72.86222,19.00195],[72.86234,19.00194],[72.8624,19.00229],[72.86222,19.00231],[72.86197,19.00232],[72.86197,19.00238],[72.86183,19.00239],[72.86179,19.0024],[72.86173,19.0024],[72.86171,19.00241],[72.86169,19.00241],[72.8615,19.00244],[72.8614,19.00246],[72.86138,19.00246],[72.86134,19.00247],[72.86132,19.00247],[72.8614,19.00297],[72.86141,19.00304],[72.86235,19.00302],[72.86236,19.00302],[72.86236,19.00307],[72.86154,19.00308],[72.86205,19.0035],[72.86298,19.00395],[72.86718,19.00607],[72.86979,19.00766],[72.87074,19.00795],[72.87102,19.00812],[72.87146,19.00835],[72.87251,19.00855],[72.87334,19.00896],[72.87406,19.00947],[72.87563,19.01034],[72.87674,19.01096],[72.87763,19.01135],[72.87847,19.01161],[72.87937,19.01166],[72.88009,19.01167],[72.88088,19.01153],[72.88186,19.01069],[72.88468,19.00848],[72.88538,19.00794],[72.88542,19.00746],[72.88556,19.0059],[72.88585,19.00529],[72.88587,19.00506],[72.88591,19.00474],[72.886,19.00396],[72.88601,19.00387],[72.88603,19.00365],[72.8861,19.00297],[72.88614,19.00256],[72.88646,19.00111],[72.88678,18.99812],[72.88684,18.99733],[72.88673,18.99582],[72.88684,18.9949],[72.88697,18.99383],[72.88698,18.99323],[72.88701,18.99289],[72.88705,18.99244],[72.88713,18.99222],[72.88726,18.9919],[72.88741,18.99173],[72.8876,18.99165],[72.8879,18.99172],[72.88847,18.99231],[72.88914,18.993],[72.88983,18.99351],[72.89021,18.99376],[72.89056,18.99393],[72.89128,18.99433],[72.8914,18.99436],[72.89183,18.99446],[72.89214,18.99454],[72.89274,18.99456],[72.89318,18.99452],[72.8938,18.99458],[72.89447,18.9948],[72.89543,18.99512],[72.89582,18.99521],[72.89664,18.99529],[72.89883,18.99527],[72.8999,18.99524],[72.90035,18.99521],[72.90123,18.995],[72.90359,18.99421],[72.90421,18.99402],[72.90445,18.99399],[72.90453,18.99401],[72.90467,18.9941],[72.90523,18.99463],[72.90604,18.99513],[72.90674,18.99551],[72.90737,18.99577],[72.908,18.99589],[72.90931,18.99594],[72.90988,18.996],[72.9102,18.99608],[72.91062,18.99624],[72.91181,18.99667],[72.91234,18.99693],[72.91295,18.9974],[72.91372,18.99824],[72.91381,18.99848],[72.91556,19.00027],[72.91801,19.0029],[72.91969,19.00539],[72.92061,19.00714],[72.92154,19.00841],[72.92706,19.01547],[72.92695,19.01649],[72.931,19.0217],[72.93128,19.02183],[72.93162,19.02199],[72.93214,19.02232],[72.93251,19.02284],[72.93282,19.0234],[72.93313,19.02492],[72.93328,19.02512],[72.93352,19.02531],[72.93499,19.026],[72.93532,19.02617],[72.93572,19.02627],[72.93669,19.02639],[72.93706,19.02647],[72.93717,19.0265],[72.93826,19.0248],[72.93851,19.02479],[72.93883,19.02495],[72.9393,19.02523],[72.93974,19.02544],[72.94007,19.02556],[72.94045,19.02565],[72.94073,19.02572],[72.94132,19.02583],[72.9419,19.02599],[72.94239,19.02621],[72.94491,19.02742],[72.94659,19.02811],[72.947,19.02827],[72.94732,19.02841],[72.94808,19.02871],[72.94819,19.02877],[72.95112,19.03049],[72.95152,19.03088],[72.95156,19.03097],[72.95187,19.03194],[72.95233,19.0334],[72.95274,19.03466],[72.95282,19.03491],[72.95282,19.03513],[72.95282,19.03558],[72.95287,19.03572],[72.95303,19.03593],[72.95324,19.03611],[72.95342,19.03625],[72.95356,19.03629],[72.95379,19.0363],[72.95387,19.03632],[72.95396,19.03636],[72.95485,19.03751],[72.95352,19.03834],[72.95378,19.03853],[72.9545,19.03931],[72.95458,19.0394],[72.95525,19.04015],[72.95582,19.04077],[72.95617,19.04116],[72.9567,19.04176],[72.95697,19.04217],[72.95736,19.04276],[72.9576,19.04307],[72.9576,19.04311],[72.95791,19.04354],[72.95834,19.04419],[72.95854,19.04467],[72.95863,19.0449],[72.95883,19.04539],[72.95911,19.04605],[72.95919,19.04626],[72.95938,19.0468],[72.95953,19.04725],[72.95966,19.04766],[72.95978,19.048],[72.9598,19.04808],[72.95976,19.04834],[72.95972,19.0486],[72.95971,19.04869],[72.95969,19.0488],[72.95963,19.0489],[72.95961,19.04895],[72.9595,19.04911],[72.95954,19.04938],[72.95958,19.04962],[72.95961,19.04986],[72.95965,19.05011],[72.95969,19.05046],[72.95972,19.05069],[72.95974,19.05086],[72.95981,19.05146],[72.95993,19.05267],[72.96024,19.05463],[72.96041,19.05567],[72.9606,19.05688],[72.96058,19.057],[72.96056,19.05734],[72.96056,19.05738],[72.96055,19.05757],[72.96055,19.05762],[72.96055,19.05778],[72.96055,19.05787],[72.96054,19.05806],[72.96053,19.05821],[72.96052,19.05834],[72.96051,19.05854],[72.96049,19.05872],[72.96043,19.05902],[72.9604,19.05919],[72.9603,19.0597],[72.96026,19.06005],[72.96024,19.0602],[72.96017,19.06035],[72.96006,19.06063],[72.95999,19.06079],[72.95967,19.06126],[72.95947,19.06155],[72.95907,19.06188],[72.95867,19.0622],[72.9585,19.06234],[72.95833,19.06248],[72.9582,19.06259],[72.95808,19.06269],[72.9579,19.06284],[72.95774,19.06297],[72.95765,19.06304],[72.95756,19.06308],[72.95738,19.06315],[72.95728,19.06319],[72.95712,19.06326],[72.95644,19.06348],[72.95634,19.0635],[72.95644,19.06371],[72.95638,19.0643],[72.95637,19.06452],[72.95636,19.06473],[72.95637,19.06495],[72.9564,19.06517],[72.95641,19.0653],[72.95641,19.0654],[72.95641,19.06547],[72.95639,19.06553],[72.95568,19.0668],[72.95534,19.06741],[72.95438,19.06913],[72.95438,19.06914],[72.95439,19.06956],[72.95441,19.07001],[72.95443,19.07077],[72.95446,19.07176],[72.95448,19.07257],[72.95433,19.07287],[72.95399,19.07386],[72.95382,19.07435],[72.95366,19.07482],[72.95362,19.07494],[72.95362,19.07496],[72.95357,19.07507],[72.95343,19.07541],[72.95285,19.07679],[72.95275,19.07699],[72.95246,19.07728],[72.95222,19.07759],[72.95115,19.07887],[72.95114,19.07888],[72.95109,19.07907],[72.95093,19.0796],[72.95085,19.07986],[72.95072,19.08028],[72.95059,19.08072],[72.9503,19.08166],[72.9501,19.08233],[72.94977,19.08298],[72.94915,19.08403],[72.94931,19.08517],[72.94922,19.08585],[72.9492,19.08604],[72.94919,19.08617],[72.94918,19.0864],[72.94917,19.08653],[72.94915,19.08703],[72.94912,19.08796],[72.9491,19.08825],[72.94906,19.08848],[72.94882,19.08926],[72.94843,19.09056],[72.94831,19.0909],[72.94817,19.09132],[72.94803,19.09174],[72.94792,19.09205],[72.94792,19.09212],[72.9479,19.0924],[72.94788,19.09265],[72.94789,19.09265],[72.94789,19.09309],[72.94789,19.09364],[72.94788,19.09405],[72.94788,19.09419],[72.94788,19.09442],[72.94788,19.09473],[72.94784,19.0968],[72.94783,19.09711],[72.94781,19.09776],[72.94779,19.09818],[72.94779,19.09844],[72.94778,19.09867],[72.94777,19.09888],[72.94778,19.09895],[72.94778,19.09899],[72.94778,19.09908],[72.94778,19.0991],[72.94779,19.09955],[72.94779,19.09981],[72.94779,19.10008],[72.9478,19.10016],[72.9478,19.10026],[72.94782,19.10095],[72.94782,19.10094],[72.94781,19.10129],[72.94777,19.10251],[72.94776,19.10296],[72.94772,19.1037],[72.94757,19.10408],[72.9474,19.1045],[72.94728,19.10481],[72.94717,19.10511],[72.94698,19.10565],[72.94666,19.10659],[72.94645,19.10722],[72.94614,19.1083],[72.94539,19.10985],[72.94293,19.11476],[72.94338,19.11468],[72.94351,19.11474],[72.94407,19.11482],[72.94408,19.11481],[72.94537,19.11459],[72.94561,19.11429],[72.94561,19.11426],[72.9462,19.11376],[72.94627,19.11372],[72.94636,19.11366],[72.94644,19.1136],[72.94708,19.11308],[72.94722,19.11294],[72.94776,19.11243],[72.94815,19.11207],[72.94815,19.11206],[72.94827,19.11194],[72.94852,19.1117],[72.94881,19.11151],[72.94906,19.11135],[72.94933,19.11122],[72.94937,19.11119],[72.9494,19.11118],[72.94944,19.11117],[72.94955,19.11115],[72.9499,19.11108],[72.9501,19.11104],[72.95042,19.111],[72.95095,19.11093],[72.95182,19.11083],[72.95257,19.11201],[72.95269,19.1122],[72.95273,19.11228],[72.95279,19.11239],[72.95307,19.11285],[72.9531,19.11288],[72.95342,19.11341],[72.95369,19.11387],[72.95374,19.11395],[72.95374,19.11398],[72.95379,19.11416],[72.9538,19.11417],[72.95398,19.11488],[72.95434,19.11602],[72.95443,19.11642],[72.95445,19.11645],[72.95458,19.11691],[72.95505,19.11753],[72.95557,19.11824],[72.95583,19.11858],[72.95598,19.11876],[72.95609,19.11891],[72.95615,19.11898],[72.95618,19.11903],[72.95643,19.11935],[72.95676,19.11982],[72.95705,19.12024],[72.95723,19.1205],[72.95756,19.12097],[72.95776,19.12127],[72.95804,19.12172],[72.9584,19.1223],[72.95872,19.12278],[72.9588,19.12291],[72.95881,19.12291],[72.95914,19.12341],[72.95936,19.12375],[72.95935,19.12376],[72.95993,19.12469],[72.96016,19.12505],[72.96018,19.12505],[72.9604,19.12539],[72.96074,19.12597],[72.96082,19.12641],[72.96096,19.12721],[72.96097,19.12722],[72.96105,19.12759],[72.96108,19.12779],[72.96117,19.12833],[72.96121,19.1286],[72.96074,19.12939],[72.96011,19.13045],[72.95946,19.13153],[72.95945,19.13156],[72.95941,19.13163],[72.95934,19.13174],[72.95904,19.13231],[72.95917,19.13244],[72.96126,19.13447],[72.96131,19.13453],[72.96144,19.13465],[72.96223,19.13546],[72.96246,19.1357],[72.96414,19.13746],[72.96452,19.13787],[72.96504,19.1384],[72.96541,19.1388],[72.96568,19.13908],[72.96703,19.13973],[72.96807,19.14065],[72.9683,19.14108],[72.9687,19.1418],[72.96903,19.14239],[72.96929,19.14282],[72.96993,19.14389],[72.97029,19.14453],[72.97053,19.14498],[72.97088,19.14559],[72.97152,19.1467],[72.97178,19.14714],[72.97187,19.14735],[72.97206,19.14765],[72.97226,19.14799],[72.97265,19.14866],[72.97293,19.14913],[72.97304,19.1493],[72.97356,19.15],[72.97373,19.15017],[72.97462,19.15137],[72.97465,19.1514],[72.97469,19.15146],[72.97483,19.15165],[72.97488,19.15172],[72.97502,19.15189],[72.97523,19.15218],[72.97534,19.15232],[72.97554,19.15247],[72.97566,19.15266],[72.97573,19.15302],[72.97577,19.15321],[72.97582,19.15353],[72.97584,19.15362],[72.97609,19.15492],[72.97622,19.15563],[72.97626,19.15578],[72.9763,19.15627],[72.97617,19.15718],[72.97637,19.15795],[72.97657,19.15879],[72.97683,19.15986],[72.97691,19.16012],[72.97705,19.16058],[72.97743,19.16186],[72.97758,19.16228],[72.97827,19.16416],[72.97837,19.16444],[72.97855,19.1649],[72.97877,19.1655],[72.97897,19.16622],[72.97909,19.1666],[72.97913,19.16673],[72.97925,19.16717],[72.97969,19.16877],[72.97973,19.16888],[72.97926,19.16948],[72.97877,19.1701],[72.97814,19.17091],[72.9778,19.17134],[72.97706,19.17228],[72.97694,19.17243],[72.97658,19.17285],[72.97653,19.17291],[72.97649,19.17297],[72.97631,19.17317],[72.97625,19.17322],[72.97613,19.17335],[72.97599,19.17349],[72.97594,19.17355],[72.97587,19.17367],[72.97541,19.17429],[72.9751,19.17471],[72.97475,19.17519],[72.97427,19.17583],[72.97424,19.17587],[72.97419,19.17594],[72.97389,19.17634],[72.97375,19.17652],[72.97365,19.17671],[72.97355,19.17681],[72.97347,19.17699],[72.97357,19.1772],[72.97306,19.17727],[72.97288,19.17729],[72.9727,19.17731],[72.97268,19.17762],[72.97268,19.17782],[72.97273,19.17793],[72.97295,19.17835],[72.97268,19.17853],[72.97186,19.1787],[72.97186,19.17866],[72.97182,19.17853],[72.97176,19.17835],[72.9717,19.17816],[72.97164,19.17793],[72.97158,19.17775],[72.97154,19.17763],[72.97149,19.17749],[72.97148,19.17745],[72.97146,19.17738],[72.97143,19.17732],[72.97132,19.17705],[72.97115,19.17661],[72.97092,19.17609],[72.97059,19.17584],[72.97022,19.17556],[72.96991,19.17559],[72.96976,19.17562],[72.96964,19.17564],[72.9693,19.1757],[72.96912,19.17575],[72.96899,19.1758],[72.96894,19.17582],[72.96881,19.17586],[72.96868,19.17591],[72.96851,19.17601],[72.96849,19.17613],[72.96843,19.17632],[72.9684,19.17639],[72.96836,19.17647],[72.9683,19.17658],[72.96822,19.17674],[72.96821,19.17678],[72.96816,19.1769],[72.96811,19.17709],[72.96808,19.17715],[72.96805,19.17728],[72.96796,19.17753],[72.96803,19.17791],[72.96778,19.1778],[72.96776,19.17779],[72.96767,19.17782],[72.9673,19.17789],[72.96697,19.17795],[72.96677,19.17766],[72.96653,19.1776],[72.9665,19.17758],[72.96633,19.17754],[72.96629,19.17752],[72.9662,19.17743],[72.96583,19.17722],[72.96574,19.17714],[72.96531,19.17706],[72.96482,19.17695],[72.96474,19.17693],[72.96458,19.17692],[72.96449,19.17688],[72.96427,19.17686],[72.96407,19.1769],[72.96397,19.1769],[72.96395,19.17686],[72.96385,19.17676],[72.96383,19.17669],[72.96378,19.17667],[72.96338,19.17683],[72.96264,19.17756],[72.96263,19.17757],[72.96256,19.17762],[72.96259,19.17795],[72.96262,19.17811],[72.96259,19.17825],[72.96255,19.17843],[72.96215,19.17869],[72.96186,19.17901],[72.96181,19.1792],[72.96173,19.17939],[72.96167,19.17944],[72.96158,19.17948],[72.96144,19.17931],[72.96106,19.17887],[72.96088,19.17901],[72.96078,19.1789],[72.9605,19.17911],[72.96017,19.1789],[72.9598,19.17893],[72.95975,19.17906],[72.95975,19.17931],[72.95939,19.17942],[72.95939,19.17971],[72.9596,19.18006],[72.95956,19.18021],[72.95938,19.18041],[72.95914,19.1807],[72.95902,19.18081],[72.95881,19.18086],[72.95874,19.1808],[72.95867,19.18076],[72.95862,19.18081],[72.95854,19.18105],[72.95866,19.18169],[72.95845,19.18193],[72.9584,19.18202],[72.95835,19.18215],[72.95816,19.18217],[72.95802,19.18255],[72.9577,19.18267],[72.95767,19.18266],[72.9575,19.18259],[72.95734,19.1827],[72.95719,19.1827],[72.957,19.1827],[72.95666,19.18271],[72.95656,19.18276],[72.95646,19.1829],[72.95642,19.18301],[72.95579,19.18333],[72.95569,19.18357],[72.95589,19.1838],[72.95587,19.18412],[72.95586,19.18422],[72.95553,19.18437],[72.95542,19.18465],[72.95532,19.1847],[72.95518,19.18476],[72.95508,19.18487],[72.95508,19.18489],[72.95503,19.1851],[72.95498,19.18518],[72.95489,19.1852],[72.95451,19.18516],[72.95446,19.18517],[72.95446,19.1848],[72.95441,19.18478],[72.95415,19.18484],[72.95405,19.18486],[72.95388,19.18488],[72.95373,19.18492],[72.95345,19.18485],[72.9533,19.18474],[72.95316,19.18476],[72.95286,19.18479],[72.95271,19.1848],[72.95248,19.18487],[72.95224,19.18488],[72.95136,19.18504],[72.9513,19.18505],[72.95127,19.18506],[72.95118,19.18515],[72.95111,19.18525],[72.95105,19.18528],[72.951,19.18534],[72.95082,19.18544],[72.95057,19.18558],[72.95028,19.18586],[72.9502,19.18591],[72.95011,19.18592],[72.95007,19.18595],[72.95004,19.18599],[72.95003,19.18621],[72.95004,19.18633],[72.95008,19.18666],[72.94991,19.18677],[72.94975,19.18687],[72.94974,19.18688],[72.94961,19.18708],[72.94917,19.18715],[72.94884,19.18731],[72.94874,19.18733],[72.94858,19.18736],[72.94842,19.18742],[72.94837,19.18744],[72.94828,19.18746],[72.94814,19.1875],[72.94812,19.18756],[72.94792,19.18765],[72.94771,19.18774],[72.94754,19.18782],[72.94729,19.18764],[72.94711,19.1877],[72.947,19.18774],[72.94681,19.18776],[72.94686,19.18797],[72.94673,19.18802],[72.94651,19.18789],[72.94639,19.18795],[72.94629,19.18789],[72.94616,19.18797],[72.94593,19.18814],[72.94502,19.18811],[72.94497,19.18808],[72.94474,19.18797],[72.94425,19.18798],[72.94378,19.18776],[72.94344,19.1876],[72.9431,19.18775],[72.94288,19.18785],[72.94225,19.18765],[72.94194,19.18739],[72.94165,19.18778],[72.94151,19.18795],[72.94145,19.18801],[72.94133,19.18816],[72.94109,19.18833],[72.94085,19.18855],[72.94079,19.18861],[72.94075,19.18865],[72.94065,19.18872],[72.94024,19.189],[72.93992,19.18922],[72.93974,19.18934],[72.93953,19.18949],[72.93702,19.19183],[72.93533,19.194],[72.93533,19.19669],[72.93548,19.19999],[72.93555,19.20153],[72.93553,19.20263],[72.93551,19.2047],[72.93551,19.2055],[72.93429,19.20626],[72.93296,19.20711],[72.93263,19.2078],[72.93163,19.20988],[72.93098,19.21123],[72.93004,19.21135],[72.92843,19.21156],[72.92757,19.21169],[72.92616,19.21352],[72.92419,19.21499],[72.92229,19.21639],[72.92159,19.21656],[72.92009,19.21693],[72.91937,19.21674],[72.91882,19.2166],[72.91791,19.21636],[72.91721,19.21617],[72.91672,19.21538],[72.91633,19.21417],[72.91596,19.21318],[72.91574,19.21261],[72.91486,19.21017],[72.91466,19.20989],[72.91411,19.20915],[72.91346,19.20826],[72.9133,19.20808],[72.91279,19.20802],[72.91224,19.20795],[72.91163,19.20788],[72.91112,19.20781],[72.91017,19.2076],[72.90745,19.21047],[72.90824,19.21687],[72.90991,19.21849],[72.9101,19.21999],[72.91021,19.22072],[72.91035,19.22183],[72.91037,19.222],[72.91043,19.22245],[72.91073,19.22438],[72.91077,19.22466],[72.91079,19.2248],[72.91097,19.22604],[72.91054,19.22765],[72.91009,19.2287],[72.90948,19.22924],[72.90937,19.22984],[72.90879,19.2328],[72.90549,19.23647],[72.90512,19.23687],[72.90457,19.23749],[72.90363,19.23856],[72.9032,19.23904],[72.90207,19.2403],[72.90123,19.24122],[72.90103,19.24145],[72.8987,19.24794],[72.8967,19.24854],[72.89414,19.24928],[72.89358,19.24944],[72.89327,19.24949],[72.89292,19.24954],[72.89269,19.24957],[72.8925,19.2496],[72.89233,19.24962],[72.89205,19.24966],[72.8919,19.24968],[72.89174,19.2497],[72.89147,19.2497],[72.89127,19.24971],[72.8909,19.24971],[72.89065,19.24972],[72.89056,19.24972],[72.89036,19.24974],[72.88982,19.24978],[72.88945,19.2498],[72.88892,19.24984],[72.88867,19.24986],[72.88837,19.25013],[72.88833,19.25017],[72.88791,19.25054],[72.88758,19.25084],[72.88729,19.2511],[72.88692,19.25143],[72.88654,19.25177],[72.88628,19.25202],[72.88576,19.25248],[72.88549,19.25271],[72.88524,19.25293],[72.88485,19.25328],[72.88467,19.25336],[72.88397,19.25365],[72.88389,19.25368],[72.88366,19.25374],[72.88342,19.2538],[72.88318,19.25387],[72.88299,19.25392],[72.88261,19.25403],[72.88253,19.25405],[72.88218,19.25414],[72.8818,19.25423],[72.88163,19.25437],[72.8814,19.25457],[72.88124,19.25474],[72.88112,19.25487],[72.88078,19.25522],[72.88027,19.25574],[72.88004,19.25592],[72.87982,19.25609],[72.8797,19.25616],[72.87952,19.25626],[72.87928,19.25641],[72.87877,19.25673],[72.87865,19.25681],[72.87833,19.25737],[72.87823,19.2576],[72.87819,19.25767],[72.87793,19.2581],[72.87784,19.25832],[72.87766,19.25878],[72.87765,19.25879],[72.8773,19.25924],[72.87692,19.25962],[72.87681,19.25972],[72.87666,19.25988],[72.87611,19.26044],[72.87589,19.26054],[72.87574,19.26045],[72.87534,19.26061],[72.87521,19.26068],[72.87506,19.26073],[72.87486,19.26068],[72.87449,19.26061],[72.87404,19.26061],[72.87385,19.26058],[72.8738,19.26069],[72.87357,19.26075],[72.87333,19.2608],[72.87321,19.26085],[72.8727,19.26107],[72.87264,19.26113],[72.87247,19.2612],[72.87227,19.26117],[72.87216,19.2612],[72.87216,19.26119],[72.87206,19.26122],[72.87189,19.26124],[72.87187,19.26125],[72.87166,19.26121],[72.87146,19.26116],[72.87109,19.2611],[72.87109,19.26116],[72.8708,19.2612],[72.87063,19.26117],[72.87011,19.26108],[72.86998,19.26099],[72.86997,19.26091],[72.86996,19.26091],[72.86995,19.26082],[72.86991,19.26067],[72.86985,19.26062],[72.86982,19.26061],[72.86969,19.26068],[72.86982,19.26093],[72.86973,19.26107],[72.86977,19.26113],[72.86977,19.26117],[72.86977,19.26122],[72.86973,19.26124],[72.86978,19.26132],[72.86985,19.26137],[72.86985,19.26138],[72.86986,19.26146],[72.86989,19.26152],[72.8699,19.26162],[72.86991,19.26169],[72.86992,19.26173],[72.86984,19.26177],[72.86959,19.26193],[72.86941,19.26205],[72.86936,19.26209],[72.86909,19.26211],[72.86892,19.262],[72.86891,19.26195],[72.86885,19.26171],[72.86884,19.26166],[72.86884,19.26162],[72.86886,19.26142],[72.86888,19.26129],[72.86889,19.26124],[72.86885,19.26114],[72.86863,19.26142],[72.86835,19.26175],[72.86812,19.26201],[72.8679,19.26223],[72.86749,19.26262],[72.86713,19.26296],[72.86709,19.26301],[72.86703,19.2631],[72.86692,19.26324],[72.86682,19.26339],[72.86673,19.26353],[72.86661,19.26369],[72.86644,19.26394],[72.86632,19.26411],[72.86619,19.2643],[72.86607,19.26447],[72.86593,19.26466],[72.86599,19.26484],[72.86603,19.26502],[72.86608,19.26521],[72.86613,19.26542],[72.86617,19.26558],[72.8662,19.26569],[72.86633,19.26631],[72.86619,19.26658],[72.86465,19.26603],[72.86452,19.26622],[72.86429,19.26658],[72.8639,19.26671],[72.86375,19.26676],[72.86374,19.26676],[72.86334,19.26706],[72.86308,19.26726],[72.86303,19.2677],[72.86264,19.26779],[72.86257,19.26743],[72.8625,19.26705],[72.86199,19.26674],[72.86175,19.26672],[72.86142,19.2667],[72.86118,19.26668],[72.86118,19.26669],[72.86117,19.26669],[72.86097,19.26684],[72.86062,19.26715],[72.86035,19.26739],[72.86002,19.26769],[72.85994,19.26775],[72.85956,19.26798],[72.85919,19.2682],[72.85871,19.26828],[72.8585,19.26842],[72.8581,19.26854],[72.85766,19.26869],[72.85751,19.26867],[72.8569,19.26864],[72.85686,19.26963],[72.85686,19.26966],[72.85685,19.26967],[72.85684,19.26969],[72.85683,19.2697],[72.85681,19.26972],[72.85678,19.26972],[72.85673,19.26973],[72.85668,19.26972],[72.85662,19.26972],[72.85652,19.26969],[72.85634,19.26963],[72.85623,19.26961],[72.85597,19.26958],[72.85587,19.26957],[72.85573,19.26957],[72.85566,19.26959],[72.85553,19.26963],[72.85537,19.2697],[72.85525,19.26976],[72.85503,19.26989],[72.85493,19.26995],[72.85483,19.27],[72.85471,19.27006],[72.85458,19.27009],[72.85447,19.27012],[72.85432,19.27014],[72.85419,19.27015],[72.85409,19.27016],[72.85396,19.27018],[72.85388,19.27018],[72.85379,19.27016],[72.85369,19.27013],[72.8536,19.27011],[72.85346,19.27007],[72.8533,19.27001],[72.85311,19.26999],[72.85288,19.26996],[72.85268,19.26992],[72.85258,19.2699],[72.85246,19.26991],[72.85227,19.26994],[72.85203,19.26995],[72.85175,19.26994],[72.8515,19.26993],[72.85134,19.26993],[72.85121,19.26993],[72.85099,19.26992],[72.85088,19.26991],[72.85081,19.2699],[72.85051,19.26973],[72.85044,19.26969],[72.85005,19.26948],[72.84988,19.26938],[72.84973,19.26928],[72.84945,19.26909],[72.84925,19.26896],[72.84919,19.26893],[72.84902,19.26881],[72.84864,19.26856],[72.84786,19.26801],[72.84763,19.26786],[72.8473,19.26755],[72.84708,19.26734],[72.84677,19.26727],[72.84665,19.26723],[72.8462,19.26711],[72.8461,19.26709],[72.84585,19.26701],[72.84556,19.26693],[72.84523,19.26699],[72.8449,19.26704],[72.84466,19.26708],[72.8445,19.26711],[72.84428,19.26715],[72.84415,19.26717],[72.84393,19.2672],[72.84325,19.26729],[72.84284,19.26737],[72.84249,19.26745],[72.84205,19.26744],[72.84167,19.26742],[72.84153,19.26742],[72.84118,19.26731],[72.84097,19.26726],[72.84076,19.26721],[72.84047,19.26712],[72.84038,19.26707],[72.84008,19.26689],[72.83981,19.26674],[72.83944,19.26651],[72.83909,19.26624],[72.83903,19.26623],[72.83892,19.26613],[72.83873,19.26597],[72.83865,19.26587],[72.83843,19.26558],[72.83813,19.26517],[72.83782,19.26471],[72.83755,19.26437],[72.83745,19.26422],[72.83739,19.26414],[72.83725,19.26388],[72.8372,19.2638],[72.83703,19.26352],[72.83696,19.2634],[72.83684,19.26311],[72.83674,19.26285],[72.83664,19.2626],[72.83658,19.2624],[72.8365,19.2621],[72.83646,19.26197],[72.83646,19.26196],[72.83645,19.26193],[72.83644,19.2619],[72.83578,19.25863],[72.83598,19.25688],[72.83604,19.25629],[72.83617,19.25506],[72.83683,19.25423],[72.83781,19.25301],[72.83852,19.25213],[72.8386,19.25204],[72.8383,19.25171],[72.83776,19.25131],[72.83663,19.25051],[72.83595,19.25002],[72.83522,19.24963],[72.83496,19.24952],[72.8344,19.24928],[72.8333,19.24884],[72.83194,19.2484],[72.83166,19.2483],[72.83139,19.24821],[72.8312,19.24815],[72.8307,19.24796],[72.83045,19.24786],[72.83007,19.24766],[72.82975,19.24748],[72.82918,19.24719],[72.82897,19.24706],[72.82884,19.24696],[72.82872,19.24683],[72.82842,19.2465],[72.82787,19.24576],[72.82767,19.24549],[72.82744,19.24522],[72.8272,19.24497],[72.82697,19.24501],[72.82666,19.24505],[72.82627,19.24509],[72.82589,19.24513],[72.82548,19.24521],[72.82502,19.2453],[72.82462,19.24538],[72.82418,19.24549],[72.82352,19.24566],[72.82312,19.24578],[72.82276,19.24588],[72.82252,19.24594],[72.82231,19.24599],[72.82208,19.24602],[72.82161,19.24607],[72.82106,19.24613],[72.82064,19.24623],[72.8203,19.2463],[72.81976,19.24641],[72.81903,19.24654],[72.8189,19.24655],[72.81856,19.24662],[72.81823,19.24669],[72.81737,19.24692],[72.81668,19.24714],[72.81652,19.24722],[72.81625,19.24737],[72.81601,19.24753],[72.81572,19.24773],[72.81532,19.24802],[72.81483,19.24837],[72.81437,19.24874],[72.81397,19.24907],[72.81336,19.24959],[72.81273,19.25012],[72.81238,19.25046],[72.8121,19.25076],[72.81183,19.25112],[72.81164,19.25135],[72.81142,19.2516],[72.81119,19.25184],[72.81094,19.25207],[72.81054,19.25243],[72.81,19.25291],[72.8096,19.2533],[72.80931,19.25357],[72.80883,19.25404],[72.80855,19.2543],[72.80824,19.25461],[72.80784,19.25499],[72.80746,19.25532],[72.80715,19.25559],[72.80691,19.25579],[72.80666,19.25598],[72.80635,19.25619],[72.80589,19.25649],[72.80562,19.25666],[72.80516,19.25701],[72.80488,19.25722],[72.80464,19.25743],[72.80444,19.25758],[72.80427,19.25768],[72.80406,19.25782],[72.80381,19.25802],[72.80366,19.25814],[72.80354,19.25825],[72.80334,19.25837],[72.80314,19.25852],[72.80283,19.2587],[72.80261,19.25882],[72.80242,19.2589],[72.80215,19.25896],[72.80166,19.25906],[72.80104,19.25888],[72.80081,19.25882],[72.80086,19.25933],[72.80085,19.25954],[72.80058,19.25995],[72.80054,19.26002],[72.80052,19.26003],[72.80045,19.26008],[72.80038,19.26032],[72.80036,19.2604],[72.8004,19.2606],[72.80089,19.26108],[72.80086,19.26117],[72.80075,19.26121],[72.80057,19.26128],[72.80022,19.26187],[72.80006,19.26192],[72.79991,19.26197],[72.79984,19.26195],[72.79972,19.26227],[72.79955,19.26224],[72.79945,19.26222],[72.7994,19.26221],[72.7993,19.26221],[72.79921,19.26221],[72.79905,19.26221],[72.79898,19.26221],[72.79887,19.26221],[72.79882,19.26221],[72.79848,19.26221],[72.79787,19.26221],[72.79721,19.26221],[72.79635,19.26222],[72.79614,19.26222],[72.7961,19.26222],[72.7961,19.26223],[72.79592,19.2622],[72.79529,19.26211],[72.79514,19.26209],[72.79505,19.26208],[72.79466,19.26202],[72.79451,19.26199],[72.79443,19.26198],[72.79421,19.26195],[72.79391,19.26192],[72.79365,19.26189],[72.79307,19.26182],[72.79262,19.26177],[72.79261,19.26178],[72.79249,19.26176],[72.7924,19.26174],[72.79234,19.26178],[72.7923,19.26175],[72.79229,19.26175],[72.79227,19.26177],[72.79207,19.26171],[72.79192,19.2617],[72.79132,19.26151],[72.79033,19.26149],[72.79008,19.26149],[72.79005,19.26148],[72.78993,19.26144],[72.78986,19.26147],[72.78968,19.26167],[72.78831,19.26321],[72.78749,19.26353],[72.78706,19.2637],[72.78659,19.2639],[72.78642,19.26397],[72.78615,19.26408],[72.78572,19.26426],[72.78481,19.26463],[72.7845,19.26476],[72.78435,19.26479],[72.78416,19.26478],[72.78404,19.26466],[72.78403,19.26453],[72.78404,19.26431],[72.78414,19.26404],[72.78418,19.26387],[72.78426,19.26377],[72.78437,19.26361],[72.78447,19.2634],[72.78452,19.26314],[72.78452,19.26284],[72.78438,19.26249],[72.78425,19.2621],[72.78407,19.26184],[72.78386,19.26154],[72.78356,19.26116],[72.78327,19.26077],[72.78326,19.26055],[72.78299,19.26008],[72.78277,19.25994],[72.78254,19.25986],[72.78239,19.25987],[72.78216,19.25987],[72.78199,19.25991],[72.78179,19.25988],[72.78169,19.25977],[72.78167,19.25966],[72.78167,19.25951],[72.78175,19.25932],[72.78188,19.25905],[72.78197,19.25889],[72.78202,19.2585],[72.78202,19.25824],[72.78217,19.25737],[72.78228,19.25715],[72.78239,19.25688],[72.78248,19.25669],[72.78252,19.25661],[72.78261,19.2562],[72.78271,19.25587],[72.78281,19.25544],[72.7828,19.25534],[72.78283,19.25492],[72.78283,19.2549],[72.78284,19.2547],[72.78293,19.25438],[72.783,19.25401],[72.78304,19.25378],[72.78307,19.25353],[72.78312,19.25327],[72.78301,19.25276],[72.78305,19.25213],[72.78305,19.25211],[72.78305,19.25204],[72.78308,19.25168],[72.78311,19.25132],[72.78311,19.25093],[72.78309,19.25029],[72.78294,19.2492],[72.78285,19.24887],[72.78281,19.24871],[72.78275,19.2485],[72.78272,19.24839],[72.78269,19.24831],[72.78266,19.24818],[72.78265,19.24814],[72.78261,19.24803],[72.78255,19.24781],[72.78255,19.24779],[72.7825,19.24764],[72.78248,19.24756],[72.78246,19.2475],[72.78195,19.24572],[72.78194,19.2457],[72.78176,19.24515],[72.78172,19.24507],[72.78155,19.24477],[72.78144,19.24458],[72.78133,19.24439],[72.7813,19.24427],[72.78124,19.24399],[72.78119,19.2438],[72.78115,19.24365],[72.78107,19.24332],[72.78101,19.24305],[72.78101,19.24285],[72.78092,19.24242],[72.78092,19.24219],[72.78095,19.24195],[72.78104,19.24164],[72.78114,19.24144],[72.78118,19.24125],[72.78118,19.24095],[72.78119,19.24073],[72.78116,19.24047],[72.78099,19.24002],[72.78093,19.23982],[72.78082,19.2396],[72.78072,19.23938],[72.78047,19.23899],[72.78027,19.23856],[72.78001,19.2383],[72.77993,19.23829],[72.77964,19.2382],[72.77947,19.2381],[72.77941,19.23801],[72.77934,19.23783],[72.77908,19.23698],[72.77914,19.23673],[72.77942,19.23628],[72.77948,19.23619],[72.77959,19.23582],[72.77968,19.23548],[72.77975,19.2351],[72.77988,19.2342],[72.77995,19.23352],[72.78013,19.23311],[72.78013,19.23284],[72.78019,19.23249],[72.78034,19.23214],[72.7805,19.23181],[72.78065,19.23144],[72.78066,19.23124],[72.78064,19.23101],[72.78,19.22999],[72.77971,19.22954],[72.77963,19.22941],[72.77952,19.22924],[72.77949,19.2292],[72.77944,19.22913],[72.77909,19.22856],[72.77884,19.22816],[72.77858,19.22775],[72.77833,19.22734],[72.77798,19.22676],[72.77782,19.22653],[72.77758,19.22644],[72.77729,19.22635],[72.77697,19.2262],[72.77658,19.22595],[72.77648,19.22556],[72.7764,19.22522],[72.77633,19.22495],[72.77635,19.22442],[72.77636,19.22415],[72.77637,19.22404],[72.77639,19.22356],[72.77677,19.22299],[72.77678,19.22215],[72.77746,19.2218],[72.77769,19.22168],[72.77803,19.22098],[72.7783,19.22043],[72.77907,19.22045],[72.77907,19.22017],[72.77907,19.21957],[72.77907,19.21915],[72.77921,19.21899],[72.77925,19.21878],[72.77938,19.2186],[72.77954,19.21841],[72.77962,19.21826],[72.77977,19.21809],[72.77998,19.21793],[72.78029,19.21793],[72.78051,19.21773],[72.78065,19.21754],[72.7808,19.21725],[72.78086,19.21702],[72.78111,19.21626],[72.78131,19.21577],[72.78147,19.21527],[72.78152,19.21496],[72.78153,19.21395],[72.78149,19.21347],[72.78145,19.21268],[72.78133,19.21229],[72.78127,19.21195],[72.78108,19.21158],[72.78102,19.2113],[72.78075,19.21092],[72.78044,19.21058],[72.78037,19.21023],[72.7805,19.2098],[72.78049,19.2096],[72.78047,19.20941],[72.78045,19.20901],[72.78033,19.20868],[72.78029,19.20831],[72.78024,19.20791],[72.78016,19.20752],[72.78012,19.20708],[72.78009,19.20667],[72.78008,19.20642],[72.78031,19.20616],[72.78051,19.20618],[72.78066,19.20633],[72.78086,19.20645],[72.78121,19.20661],[72.7817,19.20678],[72.78203,19.20677],[72.78232,19.20671],[72.78234,19.2067],[72.78376,19.20622],[72.78427,19.2058],[72.78454,19.20556],[72.78504,19.20507],[72.78542,19.20445],[72.7857,19.20379],[72.78584,19.20288],[72.78576,19.20228],[72.78574,19.202],[72.78543,19.20147],[72.78498,19.20078],[72.78496,19.20075],[72.78462,19.20077],[72.78417,19.20078],[72.78363,19.20076],[72.78332,19.20072],[72.78313,19.20051],[72.78286,19.2003],[72.78265,19.19989],[72.78257,19.19969],[72.78245,19.19924],[72.78242,19.1989],[72.78243,19.19811],[72.78241,19.19734],[72.7822,19.19677],[72.78166,19.19526],[72.78157,19.19503],[72.78157,19.19477],[72.78167,19.19455],[72.78176,19.19445],[72.78182,19.19444],[72.78205,19.19429],[72.78216,19.19409],[72.78221,19.19398],[72.78235,19.19387],[72.78264,19.19378],[72.78311,19.19382],[72.78332,19.1937],[72.78352,19.1935],[72.78372,19.19334],[72.78394,19.19323],[72.78421,19.19324],[72.78453,19.19328],[72.78476,19.1933],[72.78502,19.1934],[72.78527,19.19352],[72.78551,19.19367],[72.78564,19.19368],[72.78567,19.19369],[72.78582,19.19367],[72.7859,19.19362],[72.7861,19.1936],[72.7865,19.19374],[72.78659,19.19383],[72.78672,19.19385],[72.78702,19.19385],[72.78728,19.19397],[72.78736,19.194],[72.78762,19.194],[72.7878,19.19397],[72.7881,19.19386],[72.78829,19.19374],[72.78842,19.19361],[72.78863,19.19344],[72.78946,19.19311],[72.78974,19.19311],[72.79012,19.19312],[72.79029,19.19314],[72.79051,19.19318],[72.79073,19.19326],[72.79097,19.19337],[72.79128,19.19351],[72.79152,19.19371],[72.79165,19.19389],[72.79173,19.194],[72.79185,19.19416],[72.79198,19.19429],[72.79215,19.19443],[72.79225,19.19458],[72.79226,19.19469],[72.79234,19.19494],[72.79241,19.19511],[72.79252,19.19525],[72.79274,19.19534],[72.79295,19.19559],[72.79466,19.19599],[72.7964,19.19617],[72.79643,19.19572],[72.79656,19.19488],[72.79652,19.19422],[72.79655,19.19362],[72.79624,19.19311],[72.79594,19.1924],[72.79559,19.19141],[72.79539,19.19072],[72.79547,19.19],[72.79602,19.18859],[72.79622,19.18754],[72.79623,19.18683],[72.79602,19.18489],[72.79574,19.1833],[72.79595,19.18174],[72.79606,19.18002],[72.79584,19.17907],[72.79542,19.17803],[72.79412,19.17422],[72.7936,19.17349],[72.79344,19.17287],[72.79327,19.17223],[72.79316,19.17185],[72.79254,19.1714],[72.79251,19.1714],[72.79198,19.1713],[72.79155,19.17121],[72.79107,19.17112],[72.79073,19.17105],[72.79052,19.17101],[72.7903,19.17087],[72.79014,19.17078],[72.78979,19.17057],[72.78899,19.17006],[72.78866,19.16985],[72.78864,19.16984],[72.78836,19.1693],[72.7881,19.16877],[72.78769,19.16841],[72.78736,19.16769],[72.78613,19.16654],[72.78529,19.1664],[72.78488,19.16632],[72.7846,19.16639],[72.78454,19.16649],[72.78437,19.16666],[72.78401,19.16698],[72.7837,19.16707],[72.78337,19.16703],[72.78263,19.16702],[72.78227,19.16707],[72.78185,19.16713],[72.78167,19.16702],[72.78164,19.16677],[72.78161,19.16652],[72.78148,19.16615],[72.78145,19.16584],[72.78126,19.16539],[72.78112,19.1652],[72.78111,19.16503],[72.78107,19.16479],[72.78109,19.16456],[72.78117,19.16432],[72.78126,19.16407],[72.78141,19.16382],[72.78168,19.16348],[72.78217,19.16315],[72.78246,19.16288],[72.78289,19.16245],[72.78319,19.16208],[72.7833,19.1619],[72.78353,19.16146],[72.78359,19.16127],[72.78368,19.16088],[72.78375,19.16067],[72.78379,19.1598],[72.78356,19.15948],[72.78331,19.15949],[72.78309,19.15942],[72.78288,19.1593],[72.78259,19.15915],[72.78233,19.15901],[72.78216,19.15879],[72.78197,19.15853],[72.7818,19.15828],[72.78169,19.15815],[72.78165,19.15803],[72.78172,19.1579],[72.7819,19.1579],[72.78215,19.15791],[72.78244,19.15793],[72.78265,19.15794],[72.78293,19.1578],[72.78332,19.15766],[72.78364,19.15748],[72.78377,19.15736],[72.78389,19.15718],[72.78397,19.15706],[72.78405,19.15693],[72.78417,19.15649],[72.78426,19.15619],[72.78434,19.15516],[72.78435,19.1549],[72.78435,19.15479],[72.78441,19.15456],[72.78447,19.15439],[72.78465,19.15427],[72.78497,19.15415],[72.78522,19.154],[72.78572,19.15372],[72.78621,19.15337],[72.78665,19.15301],[72.78714,19.15248],[72.78753,19.15201],[72.78786,19.1515],[72.78808,19.15118],[72.78825,19.15085],[72.78843,19.15047],[72.78873,19.14975],[72.78906,19.14869],[72.78914,19.14789],[72.78914,19.14712],[72.78905,19.14612],[72.78898,19.14557],[72.78884,19.14489],[72.78865,19.14466],[72.78855,19.1444],[72.7884,19.14425],[72.78822,19.14393],[72.78818,19.1437],[72.78817,19.14343],[72.78798,19.14311],[72.78768,19.14212],[72.7882,19.14162],[72.78818,19.1406],[72.78818,19.14044],[72.78813,19.14026],[72.78847,19.13947],[72.78849,19.1394],[72.78855,19.13928],[72.78854,19.1388],[72.78854,19.13845],[72.78851,19.13716],[72.78837,19.13655],[72.7883,19.13566],[72.78827,19.13522],[72.7883,19.13484],[72.78828,19.1348],[72.78828,19.13479],[72.78824,19.13473],[72.78824,19.13472],[72.78821,19.13466],[72.78821,19.13465],[72.78819,19.13457],[72.78819,19.13456],[72.78818,19.13452],[72.78807,19.13428],[72.78801,19.13399],[72.78794,19.13382],[72.78776,19.13356],[72.78768,19.13294],[72.78766,19.13266],[72.7877,19.1323],[72.78779,19.13168],[72.78795,19.13106],[72.78795,19.13105],[72.78802,19.13078],[72.78803,19.13043],[72.78738,19.1303],[72.78719,19.13027],[72.7872,19.13006],[72.78751,19.13001],[72.78779,19.12997],[72.78797,19.12992],[72.78814,19.12988],[72.78873,19.13033],[72.78877,19.13037],[72.7888,19.13039],[72.78888,19.13045],[72.78889,19.13046],[72.78897,19.13052],[72.78923,19.13076],[72.78962,19.13113],[72.79041,19.1312],[72.79153,19.13131],[72.79181,19.13134],[72.79204,19.13121],[72.79205,19.13122],[72.79223,19.13112],[72.79262,19.1309],[72.79299,19.1307],[72.7936,19.13093],[72.79383,19.13101],[72.79404,19.13109],[72.79436,19.13129],[72.7947,19.13143],[72.79516,19.13162],[72.79504,19.13212],[72.79506,19.13217],[72.79508,19.13216],[72.79509,19.13217],[72.79511,19.13217],[72.79513,19.13218],[72.79514,19.13219],[72.79516,19.13221],[72.79516,19.13225],[72.79515,19.13227],[72.79514,19.13229],[72.79511,19.1323],[72.79509,19.13231],[72.79507,19.13231],[72.79505,19.1323],[72.79504,19.13229],[72.79502,19.13228],[72.79501,19.13225],[72.79498,19.13244],[72.79495,19.13266],[72.79494,19.13274],[72.79495,19.13274],[72.79496,19.13274],[72.79498,19.13275],[72.795,19.13276],[72.79501,19.13277],[72.79502,19.13279],[72.79502,19.13281],[72.79502,19.13283],[72.79501,19.13285],[72.79499,19.13287],[72.79498,19.13288],[72.79496,19.13288],[72.79494,19.13288],[72.79492,19.13288],[72.79491,19.13287],[72.79489,19.13286],[72.79488,19.13285],[72.79487,19.13283],[72.79485,19.13292],[72.79518,19.13311],[72.79565,19.13339],[72.79635,19.13379],[72.79653,19.13386],[72.8052,19.13883],[72.80537,19.13867],[72.80588,19.13811],[72.80632,19.13761],[72.80644,19.1375],[72.80659,19.13733],[72.80693,19.13698],[72.80723,19.13666],[72.80756,19.13631],[72.80805,19.13583],[72.80816,19.13571],[72.80846,19.1354],[72.8087,19.13516],[72.80887,19.13497],[72.80908,19.13475],[72.8092,19.13462],[72.80925,19.13457],[72.8093,19.13451],[72.80934,19.13447],[72.80972,19.13406],[72.80983,19.13395],[72.81004,19.13371],[72.81014,19.13362],[72.81022,19.13346],[72.8103,19.13329],[72.81042,19.13306],[72.81053,19.13285],[72.81068,19.13271],[72.81082,19.13251],[72.81106,19.13217],[72.81139,19.13169],[72.81175,19.1313],[72.81214,19.13087],[72.81254,19.13043],[72.81266,19.1303],[72.81275,19.1302],[72.81283,19.1301],[72.81299,19.12993],[72.81305,19.12986],[72.81346,19.1293],[72.81354,19.12919],[72.81472,19.127],[72.81674,19.12359],[72.81801,19.12186],[72.81911,19.11992],[72.8206,19.11672],[72.82139,19.11482],[72.82196,19.11308],[72.82234,19.11181],[72.82285,19.10987],[72.82307,19.10898],[72.82332,19.10778],[72.82369,19.10611],[72.82386,19.10505],[72.82402,19.10382],[72.82415,19.1029],[72.82459,19.10134],[72.82535,19.09908],[72.8254,19.09893],[72.82567,19.09819],[72.82577,19.09787],[72.82584,19.09763],[72.82601,19.09711],[72.82606,19.09697],[72.82617,19.09669],[72.82621,19.09656],[72.82626,19.09643],[72.82627,19.09639],[72.82627,19.09635],[72.82627,19.09629],[72.82629,19.09603],[72.82631,19.09568],[72.82634,19.09528],[72.82635,19.09502],[72.82637,19.09469],[72.82639,19.09428],[72.82641,19.09397],[72.82642,19.09374],[72.82643,19.09352],[72.82644,19.09333],[72.82647,19.09296],[72.82649,19.09277],[72.8265,19.09265],[72.8265,19.09236],[72.82651,19.09208],[72.82651,19.09185],[72.82652,19.09154],[72.82652,19.09126],[72.82653,19.09104],[72.82654,19.09063],[72.82654,19.09027],[72.82653,19.09022],[72.82646,19.08986],[72.82639,19.08954],[72.82631,19.08915],[72.82624,19.0888],[72.82618,19.08849],[72.82615,19.08838],[72.82602,19.08808],[72.82583,19.08764],[72.82582,19.08762],[72.82563,19.08714],[72.82554,19.08696],[72.8254,19.08664],[72.82528,19.0864],[72.82517,19.08617],[72.82506,19.08595],[72.82494,19.0857],[72.82481,19.08543],[72.82471,19.08522],[72.82459,19.08498],[72.82449,19.08477],[72.82436,19.08449],[72.82425,19.08427],[72.82414,19.08404],[72.82405,19.08391],[72.8239,19.08369],[72.82339,19.08369],[72.82338,19.0835],[72.82335,19.08337],[72.82333,19.08332],[72.82326,19.08323],[72.82311,19.0831],[72.8234,19.08291],[72.82309,19.08244],[72.8231,19.08243],[72.8231,19.08239],[72.82308,19.08235],[72.82304,19.08231],[72.82292,19.08226],[72.82271,19.0821],[72.82267,19.08205],[72.82266,19.08201],[72.82267,19.08197],[72.82273,19.08193],[72.82281,19.08189],[72.82285,19.08187],[72.82289,19.08182],[72.82291,19.08172],[72.82295,19.08143],[72.82301,19.08106],[72.8231,19.08051],[72.82321,19.07984],[72.82321,19.07973],[72.8232,19.07962],[72.82323,19.07949],[72.82331,19.0794],[72.82338,19.07933],[72.82342,19.07927],[72.82338,19.07925],[72.82325,19.0792],[72.82311,19.07914],[72.82295,19.07905],[72.82284,19.07897],[72.82272,19.07887],[72.82261,19.07876],[72.82251,19.07866],[72.82242,19.07854],[72.82235,19.07843],[72.82227,19.0783],[72.8222,19.07817],[72.82214,19.07804],[72.82208,19.0779],[72.82203,19.07776],[72.82199,19.07764],[72.82197,19.07758],[72.82151,19.07729],[72.82139,19.07686],[72.82139,19.07647],[72.82165,19.0759],[72.82186,19.07517],[72.82187,19.07483],[72.82183,19.07461],[72.82153,19.07418],[72.82148,19.0741],[72.82136,19.07385],[72.82126,19.07385],[72.82127,19.07322],[72.82144,19.07322],[72.82144,19.07319],[72.8215,19.07242],[72.82158,19.0719],[72.82178,19.07107],[72.82205,19.07027],[72.82238,19.06958],[72.82239,19.06952],[72.82238,19.069],[72.82226,19.06846],[72.82212,19.06801],[72.82212,19.06767],[72.8222,19.06723],[72.8224,19.06669],[72.82265,19.06591],[72.82275,19.06536],[72.82274,19.06458],[72.82258,19.06411],[72.82228,19.06334],[72.82213,19.06279],[72.82196,19.06235],[72.82195,19.06232],[72.82161,19.06237],[72.8214,19.06129],[72.82133,19.06097],[72.82128,19.06077],[72.82122,19.06025],[72.82053,19.05898],[72.82118,19.05864],[72.82125,19.05813],[72.82231,19.0573],[72.82239,19.05738],[72.82252,19.05733],[72.82294,19.05714],[72.82322,19.05684],[72.82288,19.05672],[72.82293,19.05663],[72.82299,19.05652],[72.82306,19.05639],[72.82311,19.05628],[72.82316,19.05614],[72.82318,19.05601],[72.82372,19.05604],[72.82373,19.05598],[72.82374,19.05593],[72.82352,19.05592],[72.82348,19.05587],[72.82348,19.05562],[72.82348,19.05548],[72.82345,19.05527],[72.82341,19.05503],[72.8234,19.055],[72.82353,19.055],[72.8235,19.05497],[72.82346,19.05494],[72.82344,19.05493],[72.8234,19.05489],[72.82335,19.05485],[72.82331,19.05481],[72.82328,19.05479],[72.8232,19.05474],[72.82314,19.0547],[72.82309,19.05466],[72.82302,19.05461],[72.82298,19.05459],[72.82293,19.05455],[72.82287,19.05452],[72.82281,19.05448],[72.82275,19.05444],[72.8227,19.0544],[72.82266,19.05437],[72.82261,19.05434],[72.82256,19.05429],[72.82253,19.05427],[72.82251,19.05425],[72.82248,19.05422],[72.82245,19.05419],[72.82243,19.05417],[72.8224,19.05415],[72.82238,19.05412],[72.82235,19.05409],[72.82231,19.05403],[72.82228,19.054],[72.82225,19.05397],[72.82223,19.05395],[72.82222,19.05393],[72.82219,19.05389],[72.82217,19.05387],[72.82215,19.05384],[72.82212,19.0538],[72.8221,19.05377],[72.82208,19.05374],[72.82206,19.05371],[72.82204,19.05368],[72.82202,19.05365],[72.82199,19.0536],[72.82197,19.05357],[72.82195,19.05352],[72.82192,19.05347],[72.8219,19.05343],[72.82189,19.05339],[72.82187,19.05335],[72.82185,19.05332],[72.82183,19.05327],[72.82181,19.05321],[72.82179,19.05316],[72.82177,19.05309],[72.82175,19.05304],[72.82174,19.05302],[72.82173,19.05298],[72.82171,19.05293],[72.82169,19.05288],[72.82167,19.05282],[72.82165,19.05274],[72.82163,19.0527],[72.82161,19.05263],[72.8216,19.0526],[72.82159,19.05255],[72.82157,19.05249],[72.82156,19.05244],[72.82155,19.05239],[72.82153,19.05234],[72.82152,19.05229],[72.82151,19.05224],[72.82149,19.05218],[72.82148,19.05214],[72.82147,19.0521],[72.82146,19.05207],[72.82145,19.05203],[72.82144,19.05198],[72.82144,19.05194],[72.82142,19.05188],[72.82132,19.05137],[72.8213,19.05124],[72.8213,19.05119],[72.82129,19.05114],[72.82128,19.0511],[72.82127,19.05104],[72.82125,19.05098],[72.82124,19.05091],[72.82124,19.05088],[72.82123,19.05082],[72.82121,19.05074],[72.82119,19.05068],[72.82116,19.05058],[72.82115,19.05055],[72.82113,19.05051],[72.82111,19.05047],[72.82109,19.05041],[72.82105,19.05033],[72.82103,19.0503],[72.82102,19.05027],[72.82099,19.05023],[72.82097,19.05018],[72.82095,19.05015],[72.82092,19.0501],[72.8209,19.05007],[72.82088,19.05003],[72.8208,19.04991],[72.82077,19.04986],[72.82075,19.04983],[72.82073,19.04979],[72.82071,19.04976],[72.82068,19.0497],[72.82065,19.04966],[72.82063,19.04961],[72.8206,19.04956],[72.82057,19.04951],[72.82055,19.04947],[72.82052,19.04942],[72.8205,19.04938],[72.82048,19.04934],[72.82045,19.04929],[72.82042,19.04923],[72.82039,19.04918],[72.82038,19.04915],[72.82035,19.0491],[72.82033,19.04906],[72.82031,19.04901],[72.82027,19.04895],[72.82024,19.04888],[72.82021,19.04883],[72.8202,19.0488],[72.82018,19.04877],[72.82016,19.04873],[72.82014,19.04868],[72.82012,19.04863],[72.8201,19.04859],[72.82008,19.04856],[72.82006,19.04852],[72.82005,19.04849],[72.82003,19.04845],[72.82001,19.04841],[72.81999,19.04837],[72.81997,19.04831],[72.81994,19.04826],[72.81864,19.04557],[72.81822,19.04497],[72.81802,19.045],[72.81793,19.04495],[72.8174,19.04415],[72.8173,19.04365],[72.81723,19.04328],[72.81718,19.04305],[72.81718,19.04304],[72.81718,19.04303],[72.81718,19.04302],[72.81719,19.04301],[72.81719,19.043],[72.8172,19.04299],[72.8172,19.04298],[72.81721,19.04297],[72.81722,19.04296],[72.81724,19.04295],[72.81725,19.04294],[72.81727,19.04293],[72.81729,19.04293],[72.81731,19.04292],[72.81759,19.04287],[72.81771,19.04285],[72.8177,19.04276],[72.8181,19.04232],[72.81813,19.0421],[72.8182,19.0419],[72.81802,19.04183],[72.81808,19.04168],[72.8184,19.04179],[72.81854,19.04167],[72.8186,19.0415],[72.81864,19.04142],[72.8187,19.04135],[72.81879,19.04127],[72.81888,19.04107],[72.81893,19.04106],[72.81898,19.04105],[72.81909,19.04096],[72.81924,19.04086],[72.81963,19.04085],[72.8197,19.04087],[72.81977,19.04089],[72.81985,19.04091],[72.81993,19.04094],[72.81999,19.04095],[72.82011,19.04098],[72.82018,19.041],[72.82028,19.04102],[72.8204,19.04105],[72.8205,19.04108],[72.8206,19.04112],[72.8207,19.04115],[72.82079,19.04119],[72.8209,19.04123],[72.82102,19.04128],[72.82113,19.04133],[72.82124,19.04138],[72.82131,19.04142],[72.82139,19.04146],[72.82147,19.0415],[72.82161,19.04157],[72.82174,19.04165],[72.8218,19.04168],[72.82203,19.04137],[72.82203,19.04119],[72.82199,19.04068],[72.82225,19.04033],[72.82251,19.04029],[72.82255,19.04056],[72.82248,19.04087],[72.82248,19.04113],[72.82257,19.04129],[72.82264,19.04122],[72.82292,19.04107],[72.82306,19.04107],[72.82315,19.04134],[72.82315,19.04165],[72.82321,19.04203],[72.82365,19.04236],[72.82409,19.04237],[72.82486,19.04253],[72.82588,19.04317],[72.82754,19.04421],[72.82873,19.0448],[72.82931,19.04492],[72.82956,19.04516],[72.82977,19.04552],[72.82976,19.04605],[72.83174,19.04787],[72.83234,19.0486],[72.8332,19.04911],[72.83346,19.04925],[72.83372,19.04939],[72.83377,19.04942],[72.8338,19.04943],[72.83467,19.04938],[72.83536,19.04949],[72.83539,19.04949],[72.83644,19.04904],[72.83679,19.04904],[72.83709,19.04915],[72.83743,19.04932],[72.83769,19.04923],[72.838,19.04892],[72.83803,19.04829],[72.83804,19.04821],[72.83796,19.04819],[72.83766,19.0482],[72.83763,19.04817],[72.83763,19.04801],[72.83701,19.04807],[72.83654,19.04791],[72.83625,19.04744],[72.83623,19.0469],[72.83643,19.0462],[72.83727,19.04406],[72.83738,19.0431],[72.83739,19.04246],[72.83739,19.04245],[72.83738,19.04241],[72.83738,19.04237],[72.83737,19.04232],[72.83736,19.04225],[72.83736,19.04218],[72.83736,19.04215],[72.83736,19.04211],[72.83737,19.04205],[72.83738,19.04191],[72.83742,19.04153],[72.83747,19.04119],[72.8375,19.04091],[72.83758,19.04058],[72.83767,19.04017],[72.83776,19.03977],[72.83784,19.03942],[72.83789,19.03904],[72.83792,19.03872],[72.83795,19.03814],[72.83798,19.03769],[72.83798,19.03768],[72.83802,19.03728],[72.83796,19.03665],[72.83789,19.03622],[72.83781,19.03583],[72.83771,19.03533],[72.83762,19.03495],[72.83755,19.03436],[72.83751,19.03396],[72.8375,19.03377],[72.83746,19.03351],[72.83738,19.03317],[72.83729,19.03285],[72.8371,19.03247],[72.83693,19.03215],[72.83682,19.03191],[72.83673,19.03169],[72.83664,19.03136],[72.83659,19.03127],[72.83645,19.03095],[72.83626,19.03057],[72.8361,19.03019],[72.83593,19.0297],[72.83583,19.0293],[72.83574,19.02903],[72.8356,19.02873],[72.83541,19.02835],[72.83527,19.02807],[72.8351,19.0277],[72.83493,19.02736],[72.83469,19.02695],[72.83433,19.0264],[72.8343,19.02636],[72.83424,19.02625],[72.83413,19.02607],[72.83354,19.0252],[72.83343,19.02505],[72.83325,19.02483],[72.83289,19.02445],[72.83257,19.02414],[72.83241,19.02399],[72.83225,19.02382],[72.83204,19.02359],[72.83187,19.02342],[72.83163,19.02316],[72.83139,19.02291],[72.83128,19.0228],[72.83098,19.0225],[72.83082,19.02236],[72.83073,19.02228],[72.83039,19.02199],[72.83009,19.02175],[72.82991,19.0216],[72.82977,19.02148],[72.82963,19.02134],[72.82934,19.02112],[72.82916,19.02099],[72.82887,19.02075],[72.82862,19.02054],[72.82844,19.02039],[72.8283,19.02027],[72.82823,19.02023],[72.82816,19.02019],[72.82798,19.02007],[72.82748,19.01978],[72.82719,19.01961],[72.82689,19.01942],[72.82661,19.01927],[72.82647,19.01919],[72.82631,19.0191],[72.82615,19.019],[72.82612,19.01898],[72.82593,19.01888],[72.82575,19.01877],[72.82554,19.01866],[72.8253,19.01852],[72.82512,19.01841],[72.8249,19.01829],[72.82472,19.01819],[72.82453,19.0181],[72.82433,19.018],[72.82417,19.01793],[72.82406,19.01788],[72.82397,19.01785],[72.82389,19.01783],[72.82373,19.01779],[72.82358,19.01775],[72.82345,19.01772],[72.8233,19.0177],[72.82314,19.01766],[72.82301,19.01763],[72.82284,19.01759],[72.82274,19.01757],[72.8223,19.01759],[72.82225,19.01761],[72.82218,19.01766],[72.8221,19.01768],[72.82152,19.01772],[72.8209,19.01782],[72.82091,19.01785],[72.8209,19.01791],[72.82089,19.01797],[72.82088,19.01799],[72.82088,19.01801],[72.82083,19.01811],[72.82081,19.01813],[72.82078,19.01819],[72.82077,19.01821],[72.82076,19.01823],[72.82072,19.01827],[72.82068,19.01832],[72.82063,19.01837],[72.82059,19.0184],[72.82057,19.01842],[72.82052,19.01845],[72.8205,19.01846],[72.82044,19.01849],[72.82042,19.0185],[72.8204,19.0185],[72.82015,19.01852],[72.8201,19.01853],[72.82005,19.01854],[72.81986,19.01859],[72.81974,19.01863],[72.81966,19.01866],[72.81962,19.01868],[72.8196,19.01869],[72.81958,19.01866],[72.81927,19.01905],[72.81899,19.01943],[72.81895,19.0195],[72.81893,19.0196],[72.81892,19.01985],[72.81879,19.02066],[72.81873,19.02109],[72.81874,19.02135],[72.81868,19.02181],[72.81865,19.02194],[72.81863,19.022],[72.81858,19.0221],[72.81883,19.02241],[72.81924,19.02293],[72.81926,19.02294],[72.81926,19.02296],[72.81927,19.02298],[72.81927,19.02299],[72.81927,19.023],[72.81927,19.02301],[72.81927,19.02302],[72.81927,19.02303],[72.81927,19.02304],[72.81926,19.02304],[72.81926,19.02305],[72.81926,19.02306],[72.81925,19.02307],[72.81924,19.02308],[72.81923,19.02309],[72.81922,19.0231],[72.81921,19.0231],[72.8192,19.02311],[72.81918,19.02311],[72.81917,19.02311],[72.81915,19.02312],[72.81914,19.02311],[72.81913,19.02311],[72.81911,19.02311],[72.8191,19.0231],[72.81909,19.0231],[72.81907,19.02309],[72.81906,19.02307],[72.81889,19.02288],[72.81737,19.02399],[72.81691,19.02459],[72.81641,19.02536],[72.81583,19.0259],[72.81552,19.0262],[72.81505,19.02659],[72.81464,19.02688],[72.81439,19.02685],[72.81403,19.02668],[72.81443,19.02593],[72.81495,19.025],[72.815,19.02493],[72.81501,19.0249],[72.81502,19.02489],[72.81503,19.02487],[72.81505,19.02483],[72.81506,19.02482],[72.81507,19.0248],[72.81508,19.02478],[72.81509,19.02476],[72.8151,19.02473],[72.81511,19.02471],[72.81512,19.02468],[72.81513,19.02465],[72.81515,19.02461],[72.81516,19.02459],[72.81517,19.02457],[72.81517,19.02456],[72.81519,19.02453],[72.81519,19.02451],[72.81521,19.02447],[72.81522,19.02443],[72.81523,19.02441],[72.81523,19.0244],[72.81524,19.02438],[72.81525,19.02434],[72.81526,19.02431],[72.81528,19.02424],[72.81529,19.02419],[72.81531,19.02413],[72.81532,19.02408],[72.81533,19.02402],[72.81534,19.02395],[72.81535,19.02391],[72.81536,19.02385],[72.81546,19.02231],[72.81553,19.02111],[72.81571,19.01818],[72.81582,19.01626],[72.81583,19.0162],[72.81584,19.01611],[72.81587,19.01601],[72.81589,19.01594],[72.81591,19.01589],[72.81593,19.01583],[72.81595,19.01579],[72.81597,19.01573],[72.81602,19.01563],[72.81606,19.01557],[72.81611,19.01549],[72.81615,19.01544],[72.81625,19.01528],[72.81628,19.0152],[72.81633,19.01511],[72.81636,19.01505],[72.8164,19.01496],[72.81641,19.01495],[72.81642,19.01493],[72.81643,19.01491],[72.81643,19.01489],[72.81644,19.01486],[72.81646,19.01481],[72.81647,19.01474],[72.81649,19.01467],[72.81651,19.0146],[72.81653,19.01451],[72.81657,19.01437],[72.81659,19.01429],[72.8166,19.01426],[72.81662,19.01418],[72.81665,19.0141],[72.81669,19.01394],[72.81671,19.0138],[72.81673,19.01368],[72.81673,19.01352],[72.81673,19.01339],[72.81672,19.01318],[72.81671,19.01306],[72.81669,19.01291],[72.81665,19.0127],[72.81663,19.01259],[72.81659,19.01246],[72.8165,19.01222],[72.81645,19.01207],[72.8164,19.01195],[72.81632,19.01179],[72.81598,19.01122],[72.81548,19.0104],[72.81495,19.00953],[72.81492,19.00948],[72.81485,19.00936],[72.81477,19.00922],[72.8147,19.00909],[72.81463,19.00894],[72.81456,19.00881],[72.81453,19.00873],[72.81448,19.00863],[72.81443,19.00849],[72.81439,19.0084],[72.81434,19.00826],[72.81429,19.00808],[72.81421,19.00781],[72.81412,19.00753],[72.81405,19.00732],[72.81399,19.00711],[72.81394,19.00696],[72.8139,19.00681],[72.81384,19.00662],[72.81378,19.00643],[72.81373,19.00626],[72.81369,19.00613],[72.81365,19.006],[72.81361,19.00587],[72.81357,19.00575],[72.81353,19.00562],[72.81348,19.00547],[72.81343,19.00531],[72.8134,19.00524],[72.81335,19.00512],[72.81332,19.00505],[72.81329,19.005],[72.81328,19.00498],[72.81324,19.00489],[72.81322,19.00483],[72.8132,19.0048],[72.81318,19.00476],[72.81315,19.00472],[72.81312,19.00466],[72.81283,19.00416],[72.81263,19.00381],[72.8124,19.00341],[72.81205,19.00281],[72.81172,19.00224],[72.81166,19.00213],[72.81159,19.002],[72.81152,19.00188],[72.81144,19.00171],[72.81139,19.00156],[72.81137,19.00148],[72.81135,19.00138],[72.81134,19.00128],[72.81133,19.00115],[72.81133,19.00107],[72.81133,19.00092],[72.81133,19.00069],[72.81133,19.00045],[72.81133,19.00021],[72.81133,18.99983],[72.81135,18.99961],[72.81135,18.99885],[72.81135,18.99855],[72.81135,18.99844],[72.81135,18.99836],[72.81136,18.99827],[72.81138,18.9982],[72.81137,18.9982],[72.81127,18.99818],[72.8114,18.99771],[72.81145,18.99752],[72.81149,18.99735],[72.81167,18.99675],[72.81176,18.99643],[72.81187,18.99605],[72.81187,18.9959],[72.81183,18.99495],[72.81187,18.99457],[72.81185,18.99318],[72.81141,18.99119],[72.81105,18.98987],[72.81061,18.98863],[72.81023,18.98754],[72.80959,18.98589],[72.80941,18.98546],[72.80897,18.98464],[72.80858,18.98395],[72.80838,18.98361],[72.80781,18.98262],[72.80712,18.98143],[72.80652,18.98042],[72.80583,18.97929],[72.80442,18.97713],[72.80397,18.97644],[72.80362,18.97591],[72.80331,18.97546],[72.80331,18.97545],[72.80302,18.97499],[72.80276,18.97461],[72.80258,18.97432],[72.80249,18.97413],[72.80241,18.97398],[72.8024,18.97397],[72.80215,18.97345],[72.80215,18.97344],[72.80199,18.97309],[72.80178,18.97254],[72.80178,18.97253],[72.80133,18.97124],[72.80127,18.97098],[72.80122,18.97074],[72.8012,18.97061],[72.80104,18.96977],[72.80092,18.969],[72.80079,18.96827],[72.80067,18.96762],[72.80051,18.96676],[72.80035,18.9659],[72.8003,18.96561],[72.80023,18.96529],[72.80014,18.9649],[72.80006,18.96458],[72.79998,18.96428],[72.79991,18.96401],[72.79983,18.96371],[72.79976,18.96349],[72.79967,18.96323],[72.79957,18.96294],[72.79947,18.96267],[72.79941,18.96251],[72.79933,18.96236],[72.79926,18.96223],[72.79919,18.96211],[72.79913,18.96201],[72.79904,18.96186],[72.79867,18.96136],[72.79769,18.9599],[72.79729,18.95928],[72.79661,18.95809],[72.79646,18.95781],[72.79549,18.95617],[72.79441,18.95447],[72.79375,18.9533],[72.79331,18.95242],[72.79328,18.95239],[72.79298,18.95174],[72.79227,18.95022],[72.7919,18.94934],[72.7919,18.94932],[72.79189,18.94894],[72.79189,18.94891],[72.7917,18.94891],[72.79156,18.94888],[72.79156,18.94885],[72.79167,18.94822],[72.79175,18.94824],[72.79185,18.94739],[72.7919,18.94689],[72.79197,18.94638],[72.79205,18.9457],[72.79225,18.94545],[72.7927,18.94516],[72.79281,18.94503],[72.793,18.94477],[72.79315,18.94454],[72.79337,18.94425],[72.7934,18.94409],[72.7934,18.94408],[72.79343,18.9439],[72.79342,18.94387],[72.79343,18.94387],[72.79349,18.94347],[72.79337,18.94309],[72.79325,18.94274],[72.79338,18.94195],[72.79331,18.94177],[72.7933,18.9417],[72.79314,18.94136],[72.79308,18.94125],[72.79306,18.94118],[72.793,18.94106],[72.79292,18.94091],[72.79287,18.94083],[72.79284,18.94082],[72.79281,18.94079],[72.7928,18.94077],[72.7928,18.94075],[72.7928,18.94073],[72.7928,18.94069],[72.79279,18.94066],[72.79278,18.94063],[72.79273,18.94058],[72.79272,18.94057],[72.79273,18.94052],[72.7927,18.94045],[72.79258,18.94031],[72.79254,18.94023],[72.79246,18.94008],[72.79244,18.94007],[72.79244,18.94005],[72.79246,18.94003],[72.79261,18.93986],[72.79262,18.93984],[72.79262,18.93982],[72.79262,18.93981],[72.79261,18.9398],[72.79256,18.93977],[72.79256,18.93976],[72.79256,18.93975],[72.7926,18.93965],[72.79267,18.93958],[72.79278,18.93951],[72.79283,18.93949],[72.79288,18.93953],[72.79296,18.93947],[72.79296,18.93946],[72.79295,18.93946],[72.79293,18.93943],[72.79293,18.93942],[72.79316,18.93924],[72.79323,18.93922],[72.79325,18.93921],[72.7933,18.93921],[72.79338,18.93924],[72.7934,18.93926],[72.79346,18.93927],[72.79353,18.93927],[72.79357,18.93929],[72.7936,18.93929],[72.79361,18.93928],[72.79364,18.93928],[72.79379,18.93933],[72.7938,18.93934],[72.79381,18.93935],[72.79385,18.93937],[72.7939,18.93938],[72.79397,18.93942],[72.7942,18.93959],[72.7943,18.93964],[72.79453,18.93964],[72.79457,18.93965],[72.79478,18.9397],[72.79478,18.93971],[72.79455,18.93966],[72.7943,18.93965],[72.79424,18.93963],[72.79422,18.93966],[72.79426,18.93971],[72.7943,18.93973],[72.79436,18.93972],[72.79437,18.93972],[72.79439,18.93973],[72.79441,18.93979],[72.79444,18.93998],[72.79445,18.94004],[72.79455,18.94016],[72.79457,18.9402],[72.79457,18.94024],[72.7947,18.94054],[72.79481,18.94083],[72.79482,18.94091],[72.79481,18.94095],[72.7948,18.94096],[72.79483,18.9411],[72.79487,18.94118],[72.79491,18.94126],[72.79497,18.94135],[72.79502,18.94145],[72.79504,18.94148],[72.79504,18.94147],[72.79506,18.94147],[72.79507,18.94147],[72.79508,18.94148],[72.7951,18.94152],[72.79514,18.94159],[72.79517,18.94163],[72.7952,18.94169],[72.7952,18.9417],[72.79519,18.9417],[72.79518,18.9417],[72.79517,18.94171],[72.79517,18.94172],[72.79516,18.94172],[72.79516,18.94173],[72.79517,18.94175],[72.79518,18.9418],[72.79522,18.94193],[72.79523,18.94194],[72.79525,18.94202],[72.7953,18.94227],[72.7953,18.94237],[72.7953,18.94249],[72.79531,18.94261],[72.79533,18.94278],[72.79535,18.94287],[72.79546,18.9434],[72.79556,18.94381],[72.79581,18.9443],[72.79585,18.94435],[72.79602,18.94459],[72.79604,18.94461],[72.79607,18.94464],[72.79615,18.94472],[72.79619,18.94476],[72.79648,18.94488],[72.7965,18.94489],[72.79651,18.94495],[72.79651,18.94496],[72.79651,18.94497],[72.79653,18.94499],[72.79656,18.94503],[72.79657,18.94503],[72.79659,18.94505],[72.79672,18.94508],[72.7968,18.94527],[72.79682,18.94536],[72.79683,18.94538],[72.79683,18.9454],[72.79685,18.94542],[72.79687,18.94545],[72.79688,18.94548],[72.79689,18.94548],[72.79699,18.94556],[72.79712,18.94565],[72.79723,18.94576],[72.79737,18.94587],[72.79755,18.94601],[72.79768,18.94613],[72.79767,18.94615],[72.79781,18.94634],[72.79783,18.94644],[72.79785,18.94654],[72.79785,18.94656],[72.79784,18.94657],[72.79781,18.94661],[72.79779,18.94663],[72.79778,18.94664],[72.79776,18.94665],[72.79775,18.9467],[72.79778,18.94674],[72.7978,18.94677],[72.79781,18.94679],[72.79781,18.94681],[72.79783,18.94686],[72.79783,18.94688],[72.79785,18.94695],[72.79789,18.94709],[72.79791,18.94716],[72.79792,18.94724],[72.79794,18.94728],[72.79794,18.94731],[72.79798,18.94736],[72.79805,18.94743],[72.79808,18.94746],[72.79811,18.94749],[72.79819,18.94755],[72.79835,18.94746],[72.79855,18.94737],[72.79859,18.94738],[72.79865,18.94738],[72.79868,18.94739],[72.79876,18.9474],[72.79882,18.94741],[72.79885,18.94741],[72.79896,18.94741],[72.79907,18.94741],[72.79913,18.9474],[72.79924,18.94754],[72.79926,18.94758],[72.79928,18.94761],[72.7993,18.94763],[72.79933,18.94768],[72.79935,18.94771],[72.79939,18.94777],[72.79941,18.94784],[72.79956,18.94788],[72.79963,18.9479],[72.79964,18.9479],[72.7997,18.9479],[72.79974,18.9479],[72.79983,18.94793],[72.79984,18.94793],[72.79989,18.94795],[72.79997,18.94794],[72.8,18.94795],[72.80002,18.94795],[72.80003,18.94796],[72.80004,18.94796],[72.80009,18.94801],[72.80013,18.94804],[72.80017,18.94807],[72.80026,18.94815],[72.80027,18.94817],[72.80028,18.94819],[72.80032,18.94824],[72.80036,18.94828],[72.80035,18.94829],[72.80034,18.9483],[72.80041,18.94833],[72.80056,18.94814],[72.80059,18.94813],[72.80069,18.94814],[72.80071,18.94814],[72.80074,18.94815],[72.80082,18.94817],[72.80086,18.94819],[72.8009,18.9482],[72.80092,18.94821],[72.80094,18.94822],[72.80096,18.94824],[72.80101,18.94825],[72.80107,18.94825],[72.80121,18.94827],[72.80126,18.94828],[72.80138,18.94833],[72.80144,18.94835],[72.80151,18.94838],[72.80154,18.9484],[72.80157,18.94843],[72.80158,18.94844],[72.8016,18.94846],[72.80161,18.94848],[72.80162,18.94851],[72.80163,18.94852],[72.80165,18.94854],[72.80172,18.94858],[72.80209,18.94882],[72.80215,18.94886],[72.80217,18.94886],[72.80219,18.94885],[72.80221,18.94886],[72.80226,18.94888],[72.80229,18.94891],[72.80266,18.94932],[72.80279,18.94951],[72.80279,18.94962],[72.80293,18.94976],[72.80309,18.95004],[72.80321,18.95002],[72.80356,18.95026],[72.80362,18.9504],[72.80364,18.95039],[72.80367,18.95039],[72.80394,18.9505],[72.80398,18.95054],[72.80418,18.95075],[72.804,18.95099],[72.80425,18.95114],[72.80429,18.95118],[72.80438,18.95137],[72.80445,18.95146],[72.80452,18.95137],[72.80453,18.95134],[72.80465,18.9513],[72.80471,18.95123],[72.80489,18.95137],[72.80495,18.9515],[72.80508,18.95159],[72.80505,18.95182],[72.80511,18.95181],[72.80515,18.95181],[72.80523,18.95182],[72.80527,18.95182],[72.80547,18.95193],[72.80551,18.95196],[72.80551,18.95197],[72.80552,18.95198],[72.80553,18.952],[72.80555,18.95211],[72.80555,18.95212],[72.80553,18.95219],[72.80553,18.95222],[72.80569,18.95222],[72.80572,18.95222],[72.80595,18.95228],[72.80598,18.9523],[72.80609,18.95243],[72.80612,18.95246],[72.80622,18.95256],[72.80627,18.95271],[72.80673,18.95266],[72.80743,18.95323],[72.80742,18.95331],[72.80716,18.95334],[72.8067,18.95338],[72.80671,18.95338],[72.80679,18.95343],[72.80683,18.95347],[72.80687,18.95347],[72.80692,18.95348],[72.80693,18.9535],[72.80694,18.95352],[72.80694,18.95353],[72.80694,18.95354],[72.80694,18.95355],[72.80694,18.95357],[72.80716,18.95378],[72.80728,18.95393],[72.80733,18.95397],[72.80737,18.954],[72.80738,18.95402],[72.80739,18.95403],[72.8074,18.95404],[72.8074,18.95406],[72.80741,18.95407],[72.80742,18.95408],[72.80743,18.95412],[72.80748,18.95424],[72.80751,18.95431],[72.80754,18.95438],[72.80756,18.95445],[72.80759,18.95451],[72.80762,18.95458],[72.80764,18.95463],[72.80766,18.95467],[72.80772,18.95472],[72.80783,18.95466],[72.80789,18.95478],[72.80808,18.95496],[72.8087,18.95493],[72.8095,18.95494],[72.81058,18.9547],[72.81146,18.95443],[72.81267,18.95396],[72.81386,18.95346],[72.81472,18.95301],[72.81552,18.95218],[72.81716,18.95116],[72.81724,18.95108],[72.81756,18.95089],[72.81769,18.95082],[72.8177,18.95083],[72.81872,18.9497],[72.81892,18.94946],[72.81935,18.94893],[72.81949,18.94876],[72.81966,18.94855],[72.81975,18.94844],[72.81986,18.9483],[72.82012,18.94797],[72.82045,18.94755],[72.82068,18.94725],[72.82091,18.94693],[72.82112,18.94663],[72.82121,18.94649],[72.82133,18.94632],[72.82148,18.9461],[72.82161,18.94589],[72.82172,18.94573],[72.82181,18.94556],[72.82205,18.94514],[72.82224,18.94478],[72.82236,18.94454],[72.82248,18.94431],[72.82259,18.94407],[72.82258,18.94407],[72.82266,18.94389],[72.82268,18.94386],[72.82271,18.94378],[72.82282,18.94358],[72.82286,18.9435],[72.82288,18.94344],[72.82294,18.9433],[72.82297,18.94322],[72.82299,18.94316],[72.82302,18.9431],[72.82305,18.94301],[72.82312,18.94282],[72.82319,18.94264],[72.82324,18.94247],[72.8233,18.9423],[72.82336,18.94213],[72.82341,18.94196],[72.82345,18.94181],[72.82349,18.94166],[72.82355,18.94146],[72.8236,18.94105],[72.82365,18.94082],[72.82367,18.94073],[72.82372,18.9405],[72.82373,18.94042],[72.82377,18.94024],[72.82378,18.94015],[72.82379,18.94007],[72.8238,18.94002],[72.82383,18.93983],[72.82384,18.93973],[72.82388,18.93952],[72.82388,18.93938],[72.82391,18.93924],[72.82393,18.93912],[72.82395,18.93893],[72.82396,18.9387],[72.82398,18.93843],[72.82399,18.93813],[72.82399,18.93788],[72.82399,18.93754],[72.82398,18.93721],[72.82397,18.93694],[72.82396,18.93682],[72.82396,18.9368],[72.82396,18.93668],[72.82394,18.93651],[72.82393,18.93639],[72.82392,18.93627],[72.82392,18.93624],[72.82391,18.93613],[72.82389,18.93597],[72.82387,18.93581],[72.82384,18.93563],[72.82382,18.93554],[72.82381,18.93549],[72.82381,18.93545],[72.82379,18.93535],[72.82377,18.93521],[72.82373,18.93504],[72.82371,18.9349],[72.82367,18.93473],[72.82364,18.93457],[72.82362,18.93447],[72.82359,18.93438],[72.82353,18.93408],[72.82351,18.934],[72.8234,18.9336],[72.82315,18.93292],[72.8229,18.93224],[72.82279,18.93197],[72.82276,18.9319],[72.82263,18.93159],[72.82254,18.9314],[72.82235,18.931],[72.82218,18.93067],[72.82209,18.93051],[72.82204,18.93043],[72.82199,18.93034],[72.82195,18.93025],[72.82165,18.92977],[72.8215,18.92957],[72.82102,18.92895],[72.82092,18.92884],[72.82068,18.92856],[72.82045,18.92828],[72.82024,18.92805],[72.8199,18.92764],[72.81969,18.92737],[72.81958,18.92724],[72.81946,18.9271],[72.81904,18.92666],[72.81878,18.92635],[72.81862,18.92618],[72.81833,18.92585],[72.8182,18.9257],[72.81804,18.92551],[72.81774,18.92519],[72.81414,18.92147],[72.81103,18.91821],[72.81028,18.91738],[72.80995,18.917],[72.80939,18.91631],[72.80817,18.91482],[72.80784,18.91442],[72.80752,18.91403],[72.80711,18.91351],[72.80678,18.91306],[72.80648,18.91265],[72.80615,18.91213],[72.80546,18.91113],[72.80485,18.91021],[72.80462,18.90973],[72.80454,18.90955],[72.80449,18.90944],[72.80443,18.90927],[72.80434,18.90905],[72.80425,18.9088],[72.80418,18.90863],[72.8041,18.90842],[72.80399,18.90808],[72.80382,18.90738],[72.80379,18.90721],[72.8037,18.90672],[72.8036,18.9062],[72.80356,18.90565],[72.80356,18.90553],[72.80355,18.9053],[72.80354,18.90526],[72.80354,18.90515],[72.80354,18.90501],[72.80354,18.90481],[72.80355,18.90467],[72.80355,18.90453],[72.80355,18.9041],[72.80357,18.90377],[72.80358,18.90358],[72.80362,18.90338],[72.80363,18.90321],[72.80365,18.90303],[72.8037,18.90277],[72.80375,18.90244],[72.80377,18.90235],[72.80386,18.90188],[72.80405,18.90099],[72.80419,18.90043],[72.80433,18.89992],[72.8044,18.89965],[72.80453,18.89926],[72.80464,18.899],[72.80477,18.89875],[72.80478,18.89873],[72.80498,18.89842],[72.80516,18.89811],[72.80539,18.89778],[72.80555,18.89755],[72.80577,18.89726],[72.80602,18.89697],[72.80626,18.89666],[72.80648,18.89641],[72.80668,18.89622],[72.80697,18.8959],[72.80733,18.89556],[72.80753,18.89537],[72.8078,18.89514],[72.808,18.89496],[72.80825,18.89476],[72.80848,18.8946],[72.80874,18.89441],[72.8089,18.8943],[72.80909,18.89416],[72.80915,18.89412],[72.80916,18.89411],[72.80917,18.89412],[72.80919,18.89414],[72.80923,18.89412],[72.80935,18.89409],[72.8094,18.89408],[72.80944,18.89407],[72.80945,18.89405],[72.80952,18.89399],[72.80963,18.89397],[72.80973,18.89396],[72.80976,18.89396],[72.80979,18.89396],[72.80981,18.89397],[72.80984,18.89398],[72.80988,18.894],[72.80991,18.89402],[72.80997,18.89408],[72.81004,18.89417],[72.8101,18.89425],[72.81019,18.89436],[72.81016,18.89447],[72.81015,18.8945],[72.81015,18.89455],[72.81017,18.89465],[72.81023,18.89469],[72.81035,18.89477],[72.81042,18.89482],[72.81043,18.89481],[72.81044,18.89482],[72.81043,18.89483],[72.81045,18.89484],[72.81046,18.89483],[72.81047,18.89484],[72.81046,18.89485],[72.8105,18.89488],[72.81056,18.89479],[72.8106,18.89482],[72.81053,18.8949],[72.81062,18.89496],[72.81069,18.89501],[72.81075,18.89505],[72.81078,18.89509],[72.81082,18.89512],[72.81083,18.89513],[72.81084,18.89512],[72.81085,18.89513],[72.81084,18.89514],[72.81097,18.89519],[72.81097,18.89518],[72.81098,18.89518],[72.81099,18.89518],[72.81099,18.89519],[72.81107,18.8952],[72.81125,18.8952],[72.81132,18.89521],[72.81146,18.89519],[72.81159,18.89517],[72.81161,18.89517],[72.81165,18.89517],[72.81192,18.89504],[72.81222,18.89496],[72.8123,18.89494],[72.81236,18.89492],[72.81247,18.89492],[72.81256,18.89496],[72.81262,18.89499],[72.81269,18.89501],[72.81279,18.89505],[72.81293,18.89508],[72.81307,18.89515],[72.81312,18.8952],[72.81317,18.89523],[72.81323,18.89525],[72.81326,18.89527],[72.81337,18.89537],[72.8135,18.89553],[72.81361,18.89573],[72.81365,18.89596],[72.8138,18.89625],[72.81388,18.89636],[72.81393,18.89647],[72.81403,18.8966],[72.81411,18.89672],[72.81424,18.89689],[72.81446,18.89718],[72.81472,18.89754],[72.81524,18.8982],[72.81567,18.89864],[72.81601,18.89898],[72.81622,18.89918],[72.81647,18.89942],[72.81664,18.89969],[72.81687,18.90002],[72.817,18.9002],[72.81715,18.90046],[72.81727,18.9006],[72.8173,18.90077],[72.81727,18.90106],[72.81715,18.90131],[72.81716,18.90132],[72.81717,18.90135],[72.81721,18.9014],[72.81722,18.90141],[72.81722,18.90144],[72.81722,18.90145],[72.81722,18.90147],[72.81721,18.90147],[72.81724,18.90154],[72.81725,18.90162],[72.81731,18.90168],[72.81735,18.90172],[72.81737,18.90178],[72.81735,18.90185],[72.81728,18.90187],[72.81731,18.9019],[72.81732,18.90195],[72.81732,18.90201],[72.81735,18.90206],[72.8174,18.90214],[72.81747,18.90225],[72.81764,18.90225],[72.81774,18.90225],[72.8178,18.90225],[72.81803,18.90225],[72.81807,18.90228],[72.81821,18.90228],[72.81831,18.90228],[72.8186,18.90228],[72.81871,18.90229],[72.81877,18.90229],[72.81878,18.90229],[72.81879,18.9023],[72.81879,18.90231],[72.81879,18.90232],[72.81878,18.90232],[72.81877,18.90233],[72.8186,18.90233],[72.81846,18.90233],[72.81833,18.90233],[72.81807,18.90233],[72.81805,18.90232],[72.81803,18.90234],[72.81776,18.90233],[72.8176,18.90233],[72.81743,18.90232],[72.81742,18.9025],[72.81774,18.90252],[72.81773,18.90274],[72.81793,18.90274],[72.81795,18.90274],[72.81795,18.90278],[72.81794,18.9029],[72.81794,18.90293],[72.81794,18.903],[72.81786,18.90299],[72.81745,18.903],[72.81752,18.90323],[72.81784,18.90432],[72.81781,18.90435],[72.81761,18.90454],[72.81754,18.90466],[72.81749,18.90492],[72.81741,18.90512],[72.81737,18.90525],[72.81739,18.90538],[72.81746,18.90548],[72.8176,18.90568],[72.81758,18.90574],[72.81759,18.90579],[72.81765,18.90583],[72.81769,18.90587],[72.81771,18.90592],[72.81767,18.90605],[72.81746,18.90635],[72.81749,18.90654],[72.81787,18.90706],[72.81844,18.90659],[72.8186,18.90645],[72.81865,18.9065],[72.8191,18.90694],[72.81922,18.90706],[72.81945,18.9073],[72.81965,18.90716],[72.82069,18.90825],[72.82065,18.90828],[72.82052,18.9084],[72.82073,18.90862],[72.82145,18.90938],[72.82158,18.90952],[72.82223,18.91019],[72.8223,18.91025],[72.82231,18.91024],[72.82295,18.90955],[72.82374,18.9087],[72.82493,18.90739],[72.82503,18.90734],[72.82565,18.90829],[72.82586,18.90876],[72.82589,18.90879],[72.82594,18.90886],[72.82658,18.90992],[72.82683,18.91038],[72.82671,18.91045],[72.82678,18.91072],[72.82682,18.91087],[72.82684,18.91096],[72.82693,18.9112],[72.82694,18.91121],[72.82695,18.91122],[72.82727,18.91143],[72.82738,18.9115],[72.82751,18.91159],[72.82759,18.91164],[72.82766,18.9117],[72.82777,18.91177],[72.82782,18.91181],[72.82793,18.91188],[72.82801,18.91194],[72.8281,18.912],[72.82826,18.9121],[72.8284,18.9122],[72.82854,18.9123],[72.82868,18.91239],[72.8288,18.91247],[72.8289,18.91254],[72.82898,18.9126],[72.82906,18.91264],[72.8294,18.91289],[72.82942,18.9129],[72.82944,18.91292],[72.82945,18.91293],[72.82947,18.91296],[72.82949,18.91298],[72.82985,18.91329],[72.8307,18.9144],[72.83075,18.91445],[72.83089,18.91462],[72.83104,18.91479],[72.8312,18.91497],[72.83124,18.91501],[72.83126,18.91503],[72.83126,18.91504],[72.83126,18.91505],[72.83126,18.91506],[72.83125,18.91507],[72.83124,18.91509],[72.83085,18.91539],[72.83079,18.91544],[72.83077,18.91545],[72.83075,18.91546],[72.83074,18.91546],[72.83072,18.91546],[72.83069,18.91545],[72.83062,18.91543],[72.83057,18.9154],[72.83051,18.91538],[72.8305,18.91538],[72.83047,18.91537],[72.83045,18.91537],[72.83042,18.91537],[72.83039,18.91536],[72.83036,18.91536],[72.83034,18.91537],[72.83032,18.91537],[72.83028,18.91538],[72.8302,18.91539],[72.83007,18.91564],[72.82993,18.91586],[72.82984,18.91602],[72.82992,18.91609],[72.83022,18.91635],[72.83034,18.91644],[72.83058,18.91664],[72.83074,18.91677],[72.83096,18.91696],[72.83137,18.91731],[72.83146,18.91738],[72.83148,18.9174],[72.83149,18.91741],[72.83151,18.91741],[72.83152,18.91741],[72.83153,18.91741],[72.83155,18.91741],[72.83157,18.9174],[72.83161,18.91739],[72.83171,18.91737],[72.83179,18.91735],[72.83181,18.91735],[72.83183,18.91735],[72.83185,18.91736],[72.83186,18.91736],[72.83186,18.91737],[72.83187,18.91738],[72.83187,18.91739],[72.83188,18.91744],[72.83202,18.91802],[72.83202,18.91804],[72.83203,18.91806],[72.83204,18.91808],[72.83204,18.9181],[72.83204,18.91811],[72.83205,18.91811],[72.83205,18.91812],[72.83206,18.91812],[72.83207,18.91813],[72.83208,18.91813],[72.83209,18.91813],[72.83211,18.91813],[72.83244,18.91809],[72.8325,18.91809],[72.83256,18.91808],[72.83272,18.91807],[72.83273,18.91806],[72.83275,18.91806],[72.83276,18.91806],[72.83277,18.91806],[72.83278,18.91807],[72.8328,18.91807],[72.83281,18.91808],[72.83281,18.91809],[72.83282,18.9181],[72.83283,18.91811],[72.83284,18.91812],[72.83284,18.91813],[72.83284,18.91815],[72.83284,18.91816],[72.83284,18.91817],[72.83284,18.91819],[72.83283,18.9182],[72.83282,18.91821],[72.83281,18.91822],[72.8328,18.91823],[72.83279,18.91824],[72.83264,18.91826],[72.83245,18.9183],[72.83208,18.91837],[72.83214,18.9185],[72.8322,18.91863],[72.83234,18.91895],[72.83261,18.91955],[72.83275,18.91985],[72.83274,18.91987],[72.83285,18.92012],[72.8333,18.92101],[72.8334,18.92124],[72.83345,18.92137],[72.83359,18.92167],[72.83365,18.9218],[72.83366,18.92182],[72.83368,18.92184],[72.83369,18.92185],[72.83371,18.92186],[72.83373,18.92187],[72.83377,18.92187],[72.8339,18.92189],[72.83412,18.92193],[72.8342,18.92194],[72.83421,18.92193],[72.83422,18.92193],[72.83445,18.92165],[72.83446,18.92165],[72.83446,18.92164],[72.83447,18.92164],[72.83448,18.92164],[72.83449,18.92164],[72.8345,18.92164],[72.83451,18.92164],[72.83488,18.92193],[72.83489,18.92194],[72.8349,18.92194],[72.8349,18.92195],[72.83491,18.92195],[72.83491,18.92196],[72.83491,18.92197],[72.83491,18.92198],[72.8349,18.92199],[72.83466,18.92227],[72.83495,18.92288],[72.83495,18.92289],[72.83496,18.9229],[72.83495,18.92292],[72.83495,18.92293],[72.83494,18.92293],[72.83494,18.92294],[72.83493,18.92294],[72.83492,18.92294],[72.83443,18.92294],[72.83439,18.92298],[72.83426,18.92315],[72.83439,18.92324],[72.8345,18.92333],[72.83487,18.9236],[72.83751,18.92085],[72.8381,18.92042],[72.83852,18.92029],[72.83891,18.92025],[72.83952,18.92025],[72.84005,18.92045],[72.84032,18.92068],[72.84052,18.92095],[72.84245,18.92299],[72.84464,18.92528],[72.84476,18.92557],[72.84477,18.92596],[72.84469,18.92613],[72.84444,18.92608],[72.84451,18.92563],[72.84444,18.92542],[72.84432,18.92526],[72.84163,18.92246],[72.84043,18.92125],[72.84019,18.92138],[72.84029,18.92155],[72.84005,18.92173],[72.83882,18.92429],[72.83789,18.92647],[72.83796,18.9265],[72.83854,18.92676],[72.83921,18.92707],[72.83965,18.92728],[72.84004,18.92746],[72.84038,18.92763],[72.84039,18.92764],[72.8404,18.92765],[72.8404,18.92767],[72.8404,18.92768],[72.84039,18.92769],[72.84037,18.9277],[72.84036,18.9277],[72.84034,18.9277],[72.84031,18.92768],[72.84016,18.92761],[72.8395,18.92729],[72.83927,18.92718],[72.83884,18.92698],[72.83861,18.92688],[72.8384,18.92678],[72.83826,18.92706],[72.83794,18.92772],[72.83734,18.92746],[72.83717,18.92742],[72.83711,18.92741],[72.83686,18.9273],[72.83671,18.92782],[72.83672,18.92783],[72.83669,18.92787],[72.83668,18.92788],[72.83667,18.92788],[72.83667,18.92789],[72.83666,18.92789],[72.83665,18.92789],[72.83662,18.92787],[72.83654,18.92782],[72.83654,18.92781],[72.83652,18.92779],[72.83649,18.92778],[72.83648,18.92778],[72.83647,18.92778],[72.83646,18.92778],[72.8364,18.92788],[72.83638,18.9279],[72.83639,18.92791],[72.83639,18.92792],[72.83642,18.92794],[72.83644,18.92796],[72.83645,18.92794],[72.83646,18.92794],[72.83647,18.92795],[72.83648,18.92796],[72.83648,18.92797],[72.83648,18.92798],[72.83648,18.92799],[72.83648,18.928],[72.83647,18.928],[72.83647,18.92801],[72.83646,18.92801],[72.83645,18.92802],[72.83644,18.92802],[72.83643,18.92802],[72.83641,18.928],[72.83638,18.92799],[72.83636,18.92798],[72.83635,18.92799],[72.83631,18.92797],[72.83632,18.92796],[72.83631,18.92796],[72.83624,18.92813],[72.83625,18.92813],[72.83625,18.92814],[72.83633,18.92818],[72.83642,18.92824],[72.83649,18.92828],[72.83659,18.92834],[72.83669,18.9284],[72.83675,18.92844],[72.83676,18.92844],[72.83677,18.92845],[72.83709,18.92867],[72.83716,18.92869],[72.83719,18.9287],[72.8372,18.92871],[72.83721,18.92872],[72.83721,18.92874],[72.83721,18.92876],[72.8372,18.92878],[72.83719,18.92883],[72.83718,18.92883],[72.83718,18.92884],[72.83694,18.92939],[72.83753,18.92898],[72.83855,18.9297],[72.83984,18.93061],[72.84027,18.93093],[72.84031,18.93106],[72.8401,18.93205],[72.84,18.93254],[72.84001,18.93276],[72.84009,18.93287],[72.84026,18.93304],[72.84039,18.93311],[72.84057,18.93321],[72.84081,18.93329],[72.84098,18.93333],[72.84126,18.93337],[72.84144,18.93334],[72.84153,18.93332],[72.84174,18.93327],[72.84193,18.93323],[72.84212,18.93319],[72.84213,18.93318],[72.84215,18.93318],[72.84217,18.93317],[72.84218,18.93317],[72.84219,18.93317],[72.84221,18.93316],[72.84223,18.93316],[72.84224,18.93315],[72.84225,18.93314],[72.84227,18.93311],[72.84227,18.93308],[72.84229,18.933],[72.84231,18.93288],[72.84233,18.93277],[72.84235,18.93263],[72.84239,18.93243],[72.84241,18.93229],[72.84245,18.93207],[72.84247,18.93199],[72.84258,18.9314],[72.84259,18.93133],[72.84299,18.92894],[72.84401,18.92914],[72.84404,18.92896],[72.84424,18.92901],[72.84374,18.93145],[72.84365,18.93198],[72.84363,18.93208],[72.84361,18.9322],[72.84358,18.93236],[72.84356,18.93249],[72.84354,18.93257],[72.84352,18.9327],[72.8435,18.93282],[72.84349,18.93288],[72.84346,18.93301],[72.84343,18.93317],[72.84343,18.93321],[72.84336,18.93337],[72.84335,18.93344],[72.84333,18.93357],[72.84333,18.93358],[72.8433,18.93369],[72.84328,18.93384],[72.84326,18.93396],[72.84323,18.93412],[72.84318,18.9344],[72.84317,18.93447],[72.84315,18.93453],[72.84314,18.93461],[72.84312,18.93471],[72.84311,18.93478],[72.8431,18.93485],[72.84308,18.93492],[72.84307,18.93499],[72.84305,18.9351],[72.84303,18.93518],[72.84301,18.93531],[72.843,18.93539],[72.84298,18.93545],[72.84297,18.93554],[72.84296,18.93554],[72.84296,18.93555],[72.84297,18.93555],[72.84296,18.93558],[72.84295,18.93557],[72.84325,18.93561],[72.84325,18.9356],[72.84326,18.9356],[72.84326,18.93558],[72.84327,18.93554],[72.84327,18.93552],[72.8433,18.93547],[72.84332,18.93545],[72.84336,18.93541],[72.84339,18.9354],[72.84343,18.93539],[72.84345,18.93539],[72.84348,18.93539],[72.84351,18.93539],[72.84353,18.9354],[72.84356,18.93541],[72.84359,18.93543],[72.84361,18.93544],[72.84362,18.93545],[72.84363,18.93546],[72.84364,18.93548],[72.84365,18.9355],[72.84365,18.93551],[72.84366,18.93552],[72.84366,18.93554],[72.84367,18.93555],[72.84368,18.93561],[72.84369,18.93566],[72.8437,18.93566],[72.8437,18.9357],[72.84373,18.9358],[72.84375,18.93588],[72.84378,18.93597],[72.84382,18.93615],[72.84383,18.9362],[72.84385,18.93628],[72.84388,18.93637],[72.84391,18.93649],[72.84393,18.93659],[72.84395,18.93668],[72.84397,18.93674],[72.84398,18.93677],[72.84399,18.9368],[72.84407,18.93715],[72.84413,18.93741],[72.84424,18.93785],[72.84426,18.93796],[72.84433,18.93824],[72.84443,18.93865],[72.84446,18.93877],[72.84451,18.93896],[72.84458,18.93922],[72.84462,18.93938],[72.84466,18.93952],[72.84467,18.93959],[72.84471,18.93973],[72.84475,18.93991],[72.8448,18.94011],[72.84485,18.9403],[72.84491,18.94052],[72.84498,18.94079],[72.84504,18.94104],[72.84509,18.94124],[72.84514,18.94143],[72.84517,18.94166],[72.8452,18.94178],[72.84522,18.94187],[72.84524,18.94192],[72.84535,18.94235],[72.84546,18.94279],[72.84562,18.94342],[72.84574,18.94386],[72.84575,18.94395],[72.84584,18.94411],[72.846,18.94467],[72.84673,18.9476],[72.84681,18.94803]]],[[[72.78219,19.13248],[72.78259,19.13257],[72.78284,19.13257],[72.78313,19.13285],[72.78346,19.13329],[72.78357,19.13359],[72.78342,19.13419],[72.78313,19.13454],[72.78207,19.13512],[72.78152,19.13525],[72.78092,19.13484],[72.78075,19.13472],[72.78047,19.1345],[72.78042,19.13399],[72.78042,19.13369],[72.78066,19.13325],[72.78109,19.13288],[72.78138,19.13261],[72.7817,19.13248],[72.78219,19.13248]]]]}}]}